{"type":"FeatureCollection","name":"archeologische_rijksmonumenten","features":[{"type":"Feature","properties":{"cho_uri":"https://linkeddata.cultureelerfgoed.nl/cho-kennis/id/rijksmonument/35205","rijksmonumentnummer":"45142","naam":null,"geometry_bron":"Polygon","monumentenregister_url":"https://monumentenregister.cultureelerfgoed.nl/monumenten/45142","oorspronkelijke_functie":"Archeologie (N1)","oorspronkelijke_functie_kort":"Archeologie","huidige_functie":null,"type":null,"datum_inschrijving_monumentenregister":"1970-11-05","monument_aard":null},"geometry":{"type":"Polygon","coordinates":[[[6.855810943848079,53.323690354161194],[6.855838684159681,53.32379965107237],[6.855684366077074,53.32380782709661],[6.855561156595572,53.323803940388274],[6.855538620909011,53.32384735110177],[6.855541621541318,53.32384731444591],[6.855810269960378,53.32384672828399],[6.855930019658012,53.32383717719637],[6.855985746505236,53.32419505938234],[6.855907606968782,53.32419241957967],[6.855704634067251,53.32418231837957],[6.855698632756346,53.32418239169954],[6.855508579374803,53.324375228204275],[6.855472295432756,53.32441161760295],[6.855470856318027,53.324413432490786],[6.855450586258508,53.3244352477975],[6.855434725361331,53.32445431327962],[6.855408790614478,53.32448608296953],[6.855388612316407,53.32451059310648],[6.855381477925127,53.32452146410109],[6.855338151167302,53.32457141929333],[6.855315125142162,53.32460045747023],[6.855281872142813,53.32463770843973],[6.855222561647996,53.324703135926654],[6.855199413054508,53.32472858095918],[6.855125680287537,53.32481125896047],[6.855115545080117,53.3248221665843],[6.855077851889153,53.324861269024574],[6.85507062555423,53.324869445158875],[6.855064838363822,53.32487580640992],[6.855056111671503,53.32488400086547],[6.855047384975878,53.32489219532031],[6.855031340122532,53.32490587106536],[6.855016673206594,53.324915935365375],[6.855002006283809,53.324925999663584],[6.854987369955132,53.324936962240315],[6.854977020478098,53.32494158188976],[6.85496970230887,53.324947063176865],[6.854960822582008,53.32495076622358],[6.854951912253384,53.32495357098932],[6.854943063123696,53.32495817231515],[6.854929712926169,53.324962828601706],[6.854895541343206,53.324973131051095],[6.854862808903098,53.32498161861046],[6.854754200794792,53.325009904304686],[6.854678263880267,53.325027905839804],[6.854572472695863,53.325050765053035],[6.854418945199079,53.325082294758026],[6.854359328451658,53.32509470495319],[6.854295241174267,53.32510806833709],[6.854165137961653,53.32512223738569],[6.854118596178059,53.325121906734765],[6.854046609415488,53.32512368389031],[6.854044313935886,53.325100346903994],[6.854044344517337,53.325101245184605],[6.853960202001443,53.32509867735994],[6.853449498508392,53.325087833786604],[6.853446497787429,53.325087870390576],[6.853312782301448,53.32508410950517],[6.853198602085812,53.3250810088682],[6.853164032670502,53.32507963317524],[6.853123370129291,53.32507563582136],[6.853097802881689,53.325074150321434],[6.853063019548008,53.32506648663284],[6.853009987431251,53.325051856245814],[6.852961425868456,53.325036272666615],[6.852930899199959,53.32502136780381],[6.852908027130688,53.32501086286228],[6.852871254612971,53.32498884491665],[6.85283420712787,53.32495874243001],[6.852769481095168,53.32490920703357],[6.852718197280756,53.32485771040382],[6.852685620518375,53.324826654709554],[6.852662290326465,53.32480267550279],[6.852601179793981,53.32472703498087],[6.852558440227218,53.32466195431153],[6.852514047700978,53.324592400509],[6.852489648532746,53.32453698142101],[6.852437086027145,53.32440372277121],[6.852429557320523,53.324358881859986],[6.853571836764568,53.32427216100575],[6.85353050721702,53.32416033345376],[6.853515659202612,53.324120973811404],[6.853545856326916,53.323993895209405],[6.853547356649263,53.32399387690631],[6.853538244429906,53.32377022320177],[6.853537357909627,53.32374417304709],[6.853550343432231,53.32368470345739],[6.853663511086324,53.32365816049578],[6.853798969219189,53.323625054869204],[6.853795387677147,53.32360802413958],[6.853791775563196,53.32359009512858],[6.853785348434815,53.323533558332734],[6.853772153585934,53.323498671813596],[6.853749162017212,53.32344053981439],[6.853745825100456,53.32343069533193],[6.853739242992218,53.32341370121033],[6.853647338599851,53.32318296970825],[6.85352589043213,53.32292204429949],[6.853528891002227,53.3229220076941],[6.853854024766308,53.32290545962231],[6.853855677928153,53.32290993272231],[6.853903534147183,53.322904855488275],[6.854071290753455,53.32289472041034],[6.854262929476133,53.32288069898589],[6.854264460343344,53.3228815789552],[6.854274931741743,53.322880552490226],[6.854255829001897,53.322804400015606],[6.854248543368414,53.32276674544948],[6.854245145224432,53.322755104416274],[6.854242910943018,53.3227335639772],[6.854241962857615,53.32270571725725],[6.854238228304212,53.322684195129305],[6.854231584952743,53.32266540446795],[6.854227819825189,53.32264298405803],[6.854224085284592,53.32262146192911],[6.854220411913493,53.32260173636258],[6.854216983207802,53.3225891970465],[6.854200787762901,53.32255434718579],[6.854192705341468,53.322537371395086],[6.854181683548943,53.32252222878816],[6.85417534606581,53.32251242093622],[6.854138056971904,53.32243109847114],[6.854146477536084,53.32241392126235],[6.854228961637367,53.322412015882],[6.854245004134371,53.32244237433389],[6.854247299566834,53.322465711337884],[6.854256301179436,53.322465601467705],[6.854285324565367,53.32252455842186],[6.854294937876484,53.32254241417536],[6.854303142677157,53.322562983084296],[6.854317837934669,53.32259785124335],[6.854339849484607,53.32267127224401],[6.854482375686198,53.32266953244182],[6.854608398842944,53.32266799394967],[6.854693914550583,53.322666949897645],[6.854903922513484,53.32266348702011],[6.855026945082792,53.322661984729],[6.855140935389852,53.32265969396825],[6.855185943640196,53.32265914427544],[6.855180309774919,53.32266999694075],[6.855312609452769,53.32267646894596],[6.855347177002181,53.322677844028895],[6.855346473055717,53.32265718356725],[6.855381806295419,53.32263698157218],[6.855365150246506,53.32263269175031],[6.85542415162704,53.3225582813477],[6.855560584135841,53.322597952823166],[6.855536089638821,53.32262790766674],[6.855664133079978,53.322685654606104],[6.855687708686776,53.3227168194925],[6.855728583357883,53.322771138043834],[6.855750597549055,53.32280052468527],[6.85576155873324,53.322813870583175],[6.855782164534687,53.32284597039107],[6.855793370667121,53.322866502531696],[6.855801637477246,53.32288886789475],[6.85581465007705,53.32291836450906],[6.85581789557571,53.322925514092184],[6.855594383560655,53.32297317761386],[6.85563277793386,53.32308683770662],[6.855663089389097,53.32318352209636],[6.855683144033086,53.32324348694663],[6.855704913331701,53.32330972142661],[6.855728366687654,53.32338132725423],[6.855748452132572,53.323442190369434],[6.855758923496345,53.323485197852996],[6.855771048266342,53.32353267840679],[6.855783295528758,53.32358375208058],[6.855797165595967,53.32363840054301],[6.855810943848079,53.323690354161194]],[[6.852822155648084,53.32478095595284],[6.852892549874523,53.32477650298386],[6.85288336749235,53.32472718899816],[6.852813003900862,53.32473254024273],[6.852822155648084,53.32478095595284]]]}}]}