{"type":"FeatureCollection","name":"archeologische_rijksmonumenten","features":[{"type":"Feature","properties":{"cho_uri":"https://linkeddata.cultureelerfgoed.nl/cho-kennis/id/rijksmonument/28799","rijksmonumentnummer":"421090","naam":"Borger","geometry_bron":"Polygon","monumentenregister_url":"https://monumentenregister.cultureelerfgoed.nl/monumenten/421090","oorspronkelijke_functie":"Archeologie (N1)","oorspronkelijke_functie_kort":"Archeologie","huidige_functie":null,"type":null,"datum_inschrijving_monumentenregister":"1992-03-25","monument_aard":null},"geometry":{"type":"Polygon","coordinates":[[[6.797275628039066,52.92997475184401],[6.797259249442836,52.92992821000089],[6.797223112065217,52.92982258365337],[6.797215039030989,52.92980290637428],[6.798394504098731,52.92994086312841],[6.799584063877289,52.93006880258777],[6.797541826415591,52.93075532226305],[6.797486015296632,52.93059330682251],[6.797421986067334,52.930407122028456],[6.79735941512409,52.93022002121919],[6.797308617776985,52.930075022814236],[6.797275628039066,52.92997475184401]]]}}]}