{"type":"FeatureCollection","name":"archeologische_rijksmonumenten","features":[{"type":"Feature","properties":{"cho_uri":"https://linkeddata.cultureelerfgoed.nl/cho-kennis/id/rijksmonument/16229","rijksmonumentnummer":"46212","naam":null,"geometry_bron":"Polygon","monumentenregister_url":"https://monumentenregister.cultureelerfgoed.nl/monumenten/46212","oorspronkelijke_functie":"Archeologie (N1)","oorspronkelijke_functie_kort":"Archeologie","huidige_functie":null,"type":null,"datum_inschrijving_monumentenregister":"1972-12-18","monument_aard":null},"geometry":{"type":"Polygon","coordinates":[[[5.773658462743137,51.03566246165064],[5.773600124976724,51.035846029286844],[5.773094908591244,51.03578209365957],[5.773152924538656,51.035559875174116],[5.773658462743137,51.03566246165064]]]}},{"type":"Feature","properties":{"cho_uri":"https://linkeddata.cultureelerfgoed.nl/cho-kennis/id/rijksmonument/21036","rijksmonumentnummer":"47164","naam":null,"geometry_bron":"Polygon","monumentenregister_url":"https://monumentenregister.cultureelerfgoed.nl/monumenten/47164","oorspronkelijke_functie":"Archeologie (N1)","oorspronkelijke_functie_kort":"Archeologie","huidige_functie":null,"type":null,"datum_inschrijving_monumentenregister":"1986-04-25","monument_aard":null},"geometry":{"type":"Polygon","coordinates":[[[5.830143320225399,50.86136244354103],[5.83022284459893,50.86136123994066],[5.830413147029263,50.86135961165277],[5.830468561870707,50.86136209586393],[5.83046853605893,50.861359399296504],[5.830469844439092,50.861347708725745],[5.830637646893839,50.86136953744323],[5.830877976091128,50.86140097538277],[5.831061754730068,50.861459596614964],[5.83125835905633,50.86152266273839],[5.831415059286825,50.86157149963862],[5.83155037863209,50.861612328506844],[5.831560346181357,50.861614986862854],[5.831557531578332,50.86161769434749],[5.831468694634768,50.86168455353683],[5.831723746150426,50.86176986648112],[5.831963331287786,50.86187141836617],[5.831946469611183,50.86189035989889],[5.831778310850234,50.86183168000012],[5.831686840385409,50.861920122816905],[5.831640403524,50.86196524578399],[5.831603804817986,50.86199954424919],[5.83156581168193,50.86203654472895],[5.831512342313452,50.86208888578484],[5.831479978308229,50.862120471269364],[5.831429306144858,50.86216830709292],[5.831381457148515,50.86221433426984],[5.831337834350142,50.86225674963604],[5.831332213660871,50.862263063450364],[5.831260435529696,50.86233165472076],[5.831253377320617,50.86233617627494],[5.831131975908788,50.86241394693955],[5.831075518612932,50.86245101815427],[5.831016229309466,50.86248899910164],[5.830968224521551,50.86251884670496],[5.830916122513161,50.86256578890109],[5.830913307814835,50.86256849637022],[5.830851349921845,50.862624465250995],[5.830847114945844,50.86262717816864],[5.830795004082472,50.86267322145487],[5.830820655084722,50.86268211192024],[5.830819260645866,50.86268481393738],[5.830812236783618,50.86269293088795],[5.830761675234804,50.8627524515467],[5.830730790795587,50.862790323364834],[5.830718051362994,50.86279486668096],[5.830647313035769,50.86282390246969],[5.830590725752749,50.862847490611976],[5.830535541478722,50.86286927556873],[5.830510079739435,50.86288015986835],[5.83049875193384,50.86288379885864],[5.830412398865613,50.8629137932627],[5.830416909199009,50.862939843747725],[5.830398454162134,50.86294081338445],[5.830294808123652,50.862944806215005],[5.830276344481603,50.8629448769764],[5.830257562631394,50.86291169006822],[5.830247440077057,50.86289285219467],[5.830224337239204,50.86285338961814],[5.830201208643516,50.862811230469404],[5.830182237729806,50.86275826872005],[5.83016767385124,50.86272057119213],[5.830138477382797,50.862637985283925],[5.830110701287126,50.86255539392741],[5.830115402260705,50.862452902595116],[5.830127943914262,50.86242768566071],[5.830167006251863,50.862353827119534],[5.830178161983484,50.862332211044915],[5.830209046570652,50.8622943393746],[5.83021897979291,50.86229340242278],[5.830230083888668,50.86226639320817],[5.830211603318557,50.86226466624723],[5.830230962377262,50.86220975984758],[5.83016408129487,50.86219653278741],[5.830141761275258,50.86223886607685],[5.830128953155769,50.86223621848109],[5.830103844147956,50.862283955780846],[5.830082806745769,50.86231190192442],[5.830070015802276,50.86231105203389],[5.830082239366117,50.86225257743778],[5.830103225159519,50.86221923815924],[5.83012742112954,50.862224538796234],[5.830134359064629,50.86220743332873],[5.830148277909041,50.86217771667181],[5.830072832376587,50.862160027928056],[5.830069648009102,50.86212408457483],[5.830068098808937,50.862110607177506],[5.83007203290901,50.862076434333446],[5.830077198132898,50.862022481219974],[5.830087597318511,50.86192176583931],[5.830094096786895,50.86185881872614],[5.830097987862721,50.86182015160223],[5.830100570447192,50.861793175045115],[5.830036607853396,50.8617880267315],[5.830050492251702,50.8617547146633],[5.830068474029381,50.86170430801106],[5.830079853159572,50.8617060621984],[5.830076531276587,50.86165573715222],[5.830062294485425,50.86165219613363],[5.830088823434726,50.86160445340332],[5.830017673955756,50.861590343723826],[5.830143320225399,50.86136244354103]]]}}]}