{"type":"FeatureCollection","name":"beschermde_gezichten","features":[{"type":"Feature","properties":{"gezicht_uri":"https://linkeddata.cultureelerfgoed.nl/cho-kennis/id/gezicht/10134259","gezichtsnummer":"1384","naam":"Vollenhove"},"geometry":{"type":"MultiPolygon","coordinates":[[[[5.954401795958063,52.67876982189044],[5.955413562347836,52.678797345466556],[5.955517121059081,52.67880134416607],[5.955360488187533,52.67972417269024],[5.955191543246882,52.680610212338514],[5.95590276940161,52.68060681326374],[5.956185294495908,52.68061355026593],[5.956380847686001,52.68064137329816],[5.956542974736667,52.68071429170733],[5.956643464278341,52.680709317000826],[5.956658879827858,52.680757773701316],[5.956677229404483,52.680804418922705],[5.956698478062066,52.680846556691456],[5.95654375577802,52.68088863833955],[5.956520691399722,52.68093458313344],[5.956330213163489,52.68095616526778],[5.956315054099533,52.68104161556761],[5.956281685376381,52.68109120447697],[5.956290033369624,52.681164859008405],[5.956014257228257,52.681222797309],[5.955873796043392,52.681224367772685],[5.955743894847708,52.681242064421866],[5.955603573136077,52.68125441845654],[5.955485454540012,52.681268463653716],[5.95534364238344,52.68127992579035],[5.955156154252535,52.68130418789007],[5.955132605768357,52.68154156058846],[5.955193858834429,52.681589798552984],[5.955173848781405,52.68187208998919],[5.955140838348864,52.681949536950725],[5.95514140735239,52.68245101600137],[5.95465787152572,52.68245332420268],[5.95466262533988,52.682363430242866],[5.954727537188232,52.682351437225364],[5.954727014681564,52.68231099764338],[5.954738089520868,52.68225252846009],[5.95435494474943,52.68224177432529],[5.954369199534007,52.682429537310384],[5.954030565122856,52.68243025310767],[5.954010913181474,52.68216792265092],[5.953493613745111,52.68218926001492],[5.953475920021479,52.68230797434656],[5.953184604870607,52.682308462412514],[5.953199001675491,52.68239287288645],[5.952940228958568,52.68239410418112],[5.952859950884041,52.68236123367855],[5.952857835667083,52.682311814543205],[5.952761199564409,52.68227183207752],[5.952435886165208,52.68227337870142],[5.952482763332537,52.68212396958788],[5.952020255729416,52.68203629585855],[5.951907817563233,52.682032336257606],[5.951863029478482,52.682114331775175],[5.951753651732867,52.68246355154646],[5.951229405824993,52.68240492660856],[5.95129395081194,52.68224914319921],[5.951253402829859,52.68220080504425],[5.951004451426865,52.682160644771116],[5.951075432773485,52.681930237810676],[5.950770223863309,52.68188495150531],[5.950691715235842,52.68187453897402],[5.95062213638468,52.681868577648004],[5.950533253984325,52.68185641673413],[5.950465153866523,52.68185044831181],[5.950296411136521,52.68183776672881],[5.950251970006022,52.68183168615838],[5.950180866526298,52.68182213694269],[5.950112639825035,52.68180628307956],[5.950066708553913,52.68179931078087],[5.949988223272803,52.6817906951008],[5.949923126743816,52.6817883070049],[5.949852103984571,52.68178504819916],[5.949797289179148,52.68177721911357],[5.949761766302207,52.68177469102029],[5.949731105301085,52.681805392283906],[5.949631918527908,52.6817968742891],[5.94964034184483,52.68176178466199],[5.949496415139986,52.68172382062582],[5.949327374155137,52.681687772554056],[5.949245172932409,52.681619858919674],[5.949138443835029,52.68159969289703],[5.949068796654898,52.68158833871165],[5.94897346432689,52.68164990153784],[5.948903050930728,52.68169427105236],[5.948843765898998,52.68168376650437],[5.948722675117613,52.6816969202981],[5.948691795178887,52.681710546788224],[5.948637704320596,52.68175933263899],[5.948522780645425,52.681792228787735],[5.948529694509096,52.6818703841394],[5.94850972789704,52.681927995979244],[5.948652405473319,52.68198394135297],[5.948606339414188,52.68208211848246],[5.948699761210777,52.682102347814315],[5.94886145577764,52.68214202632381],[5.948948963041174,52.682162283393765],[5.949070273450363,52.68216620387395],[5.949272100362942,52.682221869034365],[5.949180609676457,52.68235261471216],[5.949422305038704,52.68240359765078],[5.94946529093913,52.68241148283686],[5.949532051150744,52.6824282427179],[5.949580974920508,52.68243789720994],[5.949669812205468,52.68244646420028],[5.949815058982114,52.68247183980926],[5.949908516699209,52.682494764161824],[5.949935213987687,52.682500928824176],[5.949888931523812,52.68258203193385],[5.950050433158466,52.68260643163387],[5.950197240023161,52.682638090380934],[5.950302597104256,52.68266635036656],[5.950282344448302,52.68270149604352],[5.950260912567906,52.682760013821806],[5.950280665793068,52.68280126106682],[5.950255488908516,52.682913719315536],[5.950244903290441,52.68301083036557],[5.950243120862757,52.68310250746086],[5.950194518734618,52.68311801566166],[5.949978878017848,52.683138807976015],[5.94988725450778,52.683143735080044],[5.949771879258024,52.68314158477355],[5.949644789278532,52.683148476881534],[5.949548764044096,52.68315612067864],[5.949479367382496,52.6831645372143],[5.949388428827542,52.68310744955051],[5.949127315149182,52.683157214062696],[5.949049689779406,52.68321599711149],[5.948999872744228,52.68325218094206],[5.948706064805151,52.683289516994016],[5.9485170512116,52.683311079642884],[5.948121324555458,52.68335788236731],[5.947941125426244,52.68337490896427],[5.947824477389965,52.68338893958614],[5.947767632480101,52.68345391481065],[5.947660361161891,52.683507444402494],[5.947366378192514,52.68364723112709],[5.947291707545317,52.68359006524738],[5.947036586021903,52.6834142202156],[5.946845624490797,52.68328300832975],[5.946642765598801,52.68314645983176],[5.946384623160836,52.68296523533777],[5.946165158189965,52.68280180274146],[5.946047367711936,52.68272596578568],[5.946099061308683,52.6824884628539],[5.946133090025031,52.6822573338939],[5.946158017528314,52.68200827344144],[5.946162891612945,52.68192646771446],[5.946218395491265,52.68187228408485],[5.946179732388806,52.6818553902865],[5.946071811283191,52.681857694926855],[5.945836643270426,52.68185430628658],[5.945635085156336,52.68181930443279],[5.945445944646172,52.681714144390234],[5.945308781371687,52.68150988177287],[5.945325834571199,52.6813390463937],[5.945383913312847,52.681138360940544],[5.945469132681962,52.680978888814124],[5.945528466784603,52.68087705575022],[5.945600155306297,52.68081650541872],[5.945648333793454,52.68076774870939],[5.945723104955984,52.68071706966295],[5.945771534603515,52.68068808339814],[5.945811103749265,52.68066003744672],[5.94586401492376,52.68063462494243],[5.945934726903236,52.680613622343806],[5.946034965925182,52.680588886102356],[5.946086604054054,52.68057965630691],[5.946194247552662,52.68055578384447],[5.946251697235156,52.68053843824588],[5.946318018709944,52.68052105090812],[5.946378471335579,52.6805072859797],[5.946453756075584,52.680497046120294],[5.946555599054379,52.68048218773369],[5.946623536299716,52.68047557717655],[5.946701892667919,52.68047430983673],[5.946778861977998,52.68048023867338],[5.946879535322477,52.68048965075461],[5.946950624483191,52.680498303291955],[5.947043904710203,52.680507750032795],[5.947129849056719,52.6805217248046],[5.947172867074955,52.680532306802114],[5.947232092868928,52.68053831889491],[5.947326828962328,52.68054596113285],[5.94743793328787,52.6805616145999],[5.947549072083752,52.68057996393905],[5.947615759991753,52.68059133295602],[5.947706163542823,52.68060708372363],[5.947712089578934,52.68060795450523],[5.947739564522995,52.680559294518304],[5.947756482508324,52.68049450745793],[5.947777744605045,52.680422510214505],[5.947788713540837,52.68035505505164],[5.947980042389925,52.68039998733024],[5.948067545777143,52.68042024506274],[5.948292814978342,52.680459624484904],[5.948501716209355,52.68049099232363],[5.948564700451017,52.680443961959426],[5.948626091064788,52.6803879519564],[5.948674403562912,52.68034997792474],[5.948853582478243,52.68036980220647],[5.949016289684922,52.680373527206],[5.949084819891358,52.68029771155046],[5.949135100482689,52.68018243872265],[5.94908170895622,52.680170109021404],[5.949148323246107,52.6800601512858],[5.949186935404009,52.67995751554686],[5.949209708009776,52.67988820702977],[5.949248492349724,52.67979905114646],[5.949285579438878,52.679692827723215],[5.949283675363822,52.679659584341636],[5.949101381001538,52.679627193451815],[5.949127393831828,52.679464403478626],[5.949405417283381,52.679466684263666],[5.949436917711375,52.679270615883745],[5.949556948661462,52.67929071872933],[5.949636108381033,52.67912138629307],[5.949670363364199,52.67902506196667],[5.949716631002619,52.6789430602161],[5.949771850528267,52.678867307089035],[5.949798027674869,52.6788330321457],[5.949825372597062,52.678774486413616],[5.949848155099587,52.678706076415],[5.949882001236337,52.678693334284425],[5.949942093349741,52.67865170912082],[5.950007431867,52.678557933724576],[5.950071049727454,52.678445293453734],[5.950114508581104,52.67837498810055],[5.950168236629287,52.67829834312091],[5.950225036791132,52.67823067070364],[5.950272930865356,52.67816034428812],[5.950294475701203,52.67811081303266],[5.950365411908306,52.67810778097345],[5.95045264680473,52.678107367813915],[5.950553396157104,52.67812306741005],[5.950656096728968,52.67817560492675],[5.950733572729568,52.67810603686557],[5.950855068112182,52.67812523274515],[5.951050549207459,52.67814857128338],[5.951549446099679,52.67830977054096],[5.9521292410658,52.67855236634963],[5.952466449603609,52.67867298895982],[5.952554055694427,52.67870133132902],[5.952682796013982,52.67870880762837],[5.954401795958063,52.67876982189044]]]]}},{"type":"Feature","properties":{"gezicht_uri":"https://linkeddata.cultureelerfgoed.nl/cho-kennis/id/gezicht/10134286","gezichtsnummer":"1411","naam":"Elburg"},"geometry":{"type":"MultiPolygon","coordinates":[[[[5.846162204845092,52.45047112498766],[5.846695943688324,52.45115570437619],[5.844821203370358,52.451663566618954],[5.843511139857052,52.45201194360198],[5.842072307890838,52.45242910576214],[5.839842939025956,52.45308205038624],[5.837201815490524,52.45390188802226],[5.836126717130049,52.454221428868564],[5.835923435953449,52.45405053710432],[5.835808357222884,52.453873019780865],[5.835535084070706,52.452892615705835],[5.835186961426788,52.451783073377634],[5.835146889157699,52.45174817350972],[5.834513093966042,52.45177123948943],[5.833997187684329,52.4518145288774],[5.833772885511792,52.45189086984722],[5.833449242785946,52.45203588986178],[5.832554949398596,52.452485935298725],[5.832300620164276,52.452356571843325],[5.831515392240282,52.451364599394175],[5.831000786483709,52.451537291346945],[5.829020358808338,52.4504679869802],[5.828386132120313,52.45000389750146],[5.8263646133399,52.4487828124144],[5.825827919477954,52.44791390845614],[5.825542286939386,52.4474413224499],[5.825368587586655,52.44698270182851],[5.825264421672776,52.446564267739824],[5.825227924492276,52.44614648208978],[5.825231656081732,52.44578067538654],[5.82526465904684,52.44554867478445],[5.825444815482822,52.44502673100106],[5.82576453073086,52.444339798227276],[5.826071739531701,52.44372750742715],[5.826491487302652,52.44289640104714],[5.827140330969473,52.44321574726481],[5.827680943230211,52.44344741447604],[5.82834571283367,52.44373973223941],[5.828649851771103,52.44385543733059],[5.828831094523767,52.44388891445035],[5.830449237687608,52.44406172295319],[5.83075288334989,52.44456748402937],[5.830942819983263,52.44458744405373],[5.831391756839663,52.444620812960906],[5.831875568250521,52.444611807793216],[5.832111307406826,52.44465226536308],[5.834917257795409,52.444613832265595],[5.834681183630848,52.44294124246916],[5.835366463841564,52.44293146176564],[5.83628726781942,52.44294145580753],[5.836972556788191,52.44293256453721],[5.837880890338563,52.44287338938467],[5.83805983171027,52.44282507442345],[5.838160751827516,52.442769866194205],[5.838261176821266,52.442666126971915],[5.838415883712999,52.44240489870693],[5.840502607407391,52.442808561825224],[5.841672677439639,52.443030564952345],[5.842626478979617,52.44310239727659],[5.84299787800845,52.44317646428444],[5.843134527554791,52.443306257971216],[5.843147423529674,52.44341585651013],[5.843069282327546,52.4435401855066],[5.842508609401166,52.443796689606174],[5.842091666099701,52.44401399270439],[5.84174284450825,52.44427686946602],[5.841493578626462,52.444495324420856],[5.841214217393078,52.44479118712448],[5.841023353142708,52.444968074474914],[5.840689713947672,52.445278523898786],[5.840161355379183,52.44567779502908],[5.839625219507256,52.44603664947967],[5.840370875778016,52.44645980919637],[5.84085569573001,52.44669073108853],[5.841205622074603,52.446819709996404],[5.841927478965258,52.44707128897499],[5.843008448491897,52.44748505576771],[5.843536946676514,52.44766996215537],[5.844053028316852,52.447934004488125],[5.844324540001852,52.44815944332111],[5.844550744838265,52.448412917838304],[5.844744796940792,52.448686288700294],[5.845188738249957,52.44922652231711],[5.845695746350136,52.44988963953759],[5.846162204845092,52.45047112498766]]]]}},{"type":"Feature","properties":{"gezicht_uri":"https://linkeddata.cultureelerfgoed.nl/cho-kennis/id/gezicht/10134288","gezichtsnummer":"1413","naam":"Harderwijk"},"geometry":{"type":"MultiPolygon","coordinates":[[[[5.621564960509833,52.34861464834225],[5.622691918674801,52.34940961281198],[5.622609974169708,52.34945561293585],[5.622916442799199,52.349680592104455],[5.622920936522934,52.349697659657664],[5.62293152063588,52.34975605820152],[5.622964157807598,52.34982160288493],[5.623011213537504,52.349838585563795],[5.623041125903028,52.3499436812627],[5.623011141517797,52.35010102471054],[5.62291081395681,52.3502782811889],[5.622742910494984,52.350443988276496],[5.622706271145616,52.35045394765522],[5.622697966295406,52.350548334373954],[5.622736388492563,52.35059768984405],[5.622781144676467,52.350734212748975],[5.622806496448697,52.35080965837725],[5.622926716884557,52.3510610725664],[5.623027863536153,52.35103750303511],[5.623075236128966,52.35111380344601],[5.623208180312064,52.35127351808156],[5.623346996280811,52.35143322083792],[5.623397396229635,52.351526591574796],[5.62307048898472,52.351876863073706],[5.622903651258162,52.35196797084574],[5.622560561478139,52.352036061473726],[5.622337681455129,52.35207694922958],[5.622260072909522,52.35211125653423],[5.622144446117299,52.352172602229466],[5.622071378517905,52.35223296452203],[5.621351598260456,52.35267838101975],[5.621189105069504,52.35275959135312],[5.621095519849816,52.35282628497267],[5.620947883259465,52.3529416185827],[5.62087768196928,52.35298939177547],[5.620565788635961,52.35285159818725],[5.618607573212804,52.351967468530155],[5.616432611753777,52.351160121687315],[5.616229697964554,52.35108861382142],[5.616010617007247,52.351012643076324],[5.615776762590999,52.35091782645477],[5.615611987709974,52.35084174998026],[5.615392811895002,52.350746904243415],[5.615244155079277,52.35066540356912],[5.615205750396724,52.35061784317121],[5.615074148738594,52.35071336577817],[5.614894117457169,52.350809880267],[5.614598036455551,52.350886844921305],[5.614505986677612,52.350967910606],[5.614405231712571,52.35106876573663],[5.614351415031963,52.35116413803858],[5.614272573542308,52.35124517816154],[5.614117608930116,52.3513650111573],[5.613937923803334,52.35124312404816],[5.613802491062068,52.35116429250339],[5.613715570833929,52.351100646854654],[5.613671273678043,52.35104860343608],[5.613615051503145,52.350960632304606],[5.613573524798112,52.35087622806523],[5.613536410486603,52.350793612890755],[5.61347101129813,52.35063285942421],[5.613399769390149,52.3504775096744],[5.613361110132162,52.3503796184175],[5.613273413068748,52.35016318414619],[5.613247770890196,52.35002751989418],[5.613206154139956,52.34992514041553],[5.613161478611334,52.34979850015227],[5.613067157698653,52.349433782383706],[5.612977045791783,52.34931891275124],[5.612367312337478,52.348900352863986],[5.612310789774613,52.3487521644913],[5.612261974753798,52.3475200523295],[5.612284511677805,52.34733396530791],[5.612370176577045,52.3471522518896],[5.612454788663896,52.34705232792677],[5.612621167956877,52.34687046051555],[5.613445261106841,52.346449163672375],[5.614218969273056,52.346795502330075],[5.614343955383022,52.34684289677846],[5.61502113507084,52.346679816377545],[5.61528627169692,52.34658403621313],[5.615596604792619,52.34643064724937],[5.615981284006769,52.34618094586313],[5.616363126017341,52.34595102152045],[5.616626936658248,52.34588400135457],[5.616829580622246,52.34590787460018],[5.61702510609202,52.345974003256316],[5.617204591875459,52.34605993560591],[5.617329849607216,52.34615945470599],[5.61750995752831,52.346364921020225],[5.617635688499246,52.346555214052806],[5.617777568299095,52.34674637421904],[5.617980857602391,52.346893374922395],[5.61839853883493,52.34706422288449],[5.619325131063557,52.347449774754395],[5.620402990776828,52.34785209763149],[5.621641616618202,52.3478460531742],[5.621712312772541,52.347893547474904],[5.621763071310922,52.34805612308201],[5.621781001000764,52.3481163047011],[5.621903422749932,52.34850882162005],[5.621564960509833,52.34861464834225]]]]}},{"type":"Feature","properties":{"gezicht_uri":"https://linkeddata.cultureelerfgoed.nl/cho-kennis/id/gezicht/10134339","gezichtsnummer":"1468","naam":"Enkhuizen"},"geometry":{"type":"MultiPolygon","coordinates":[[[[5.297517377222762,52.7004364590442],[5.296663174214128,52.70145043389703],[5.296785242206679,52.70180191411395],[5.296994117168774,52.70238801779637],[5.297289651620195,52.70328423414966],[5.297527935792724,52.7039656198694],[5.297564657377794,52.70409595737356],[5.297702771250992,52.7045669740771],[5.297720177964349,52.70473773800416],[5.297743533950532,52.704893228677875],[5.2977403208593,52.70501814399232],[5.297663641488098,52.705619309095376],[5.297543358467418,52.70656104415934],[5.297435157099763,52.70665532501133],[5.297187861988089,52.706755791644675],[5.296229704491977,52.70717565045992],[5.295698081848844,52.70739092877347],[5.295425615980579,52.70749586584949],[5.295185931436391,52.707490288967755],[5.295037939055058,52.70750545234972],[5.293668271240055,52.70799057587479],[5.292665783884186,52.7083546524575],[5.292277784536752,52.708509817159786],[5.292095668574913,52.70856539066216],[5.290655154384437,52.70893988427257],[5.289805358232604,52.70915397940085],[5.28974741849208,52.709259078521214],[5.289928772973148,52.70955040147043],[5.289672446735123,52.70970476632401],[5.289136043689347,52.710044928890994],[5.289094478045064,52.71010510676032],[5.288638786565283,52.71074100163772],[5.288425021511288,52.711046378430964],[5.28817563868076,52.71139665960278],[5.287780787159946,52.71129118453602],[5.287830422565365,52.71093534571765],[5.287881354181574,52.71066038980141],[5.287963949081624,52.71012394212246],[5.287821085139692,52.709829053559616],[5.287375690590307,52.70983317484942],[5.286946490506403,52.70987325560066],[5.286831108000206,52.709858779502255],[5.286600256861367,52.709867571779775],[5.286039376191583,52.7099021459314],[5.285651686368118,52.709907208414386],[5.285416462254628,52.70988723666435],[5.28512061932142,52.70984654273555],[5.284830741692932,52.70978608206396],[5.284592664101131,52.70972117184714],[5.284131358329506,52.70956979431462],[5.283817961287562,52.70944460530883],[5.283578515391957,52.7093338587893],[5.283324261349534,52.709228491007444],[5.283089267492087,52.70911325393624],[5.282840887593896,52.70902766137924],[5.282478609695788,52.70892758928037],[5.282264143853513,52.70889235183164],[5.282125140468177,52.7088571805438],[5.281680018380896,52.70875164081952],[5.28141535423407,52.70867142298723],[5.28114332970426,52.70857592031837],[5.280847669127542,52.7084651182396],[5.280691021460122,52.708384995121875],[5.280320059490254,52.70820941886618],[5.279100882650197,52.70759181923033],[5.27898559499231,52.707542286754226],[5.278763827143383,52.70747198750463],[5.27847823942841,52.707481612901795],[5.276470418575006,52.70747976440259],[5.275300027776045,52.707488556826995],[5.274508299746714,52.707542630815496],[5.274326488333325,52.7074723610675],[5.274202458118413,52.707372489121575],[5.274153837005479,52.70729245974246],[5.274172152559332,52.70649893515188],[5.274224119441648,52.70470070811131],[5.274228657793969,52.7040860090778],[5.274179256072898,52.70373547344885],[5.27398723558612,52.70303970564969],[5.273873105184813,52.702548014036736],[5.273824967326409,52.70228285483367],[5.273866602701811,52.70162685099648],[5.273943871637184,52.70092055427599],[5.273888878452699,52.69929746774085],[5.273917096660861,52.69810583112287],[5.279655358585658,52.69867193083368],[5.279476860147303,52.69907258547388],[5.279867314958136,52.69910798670187],[5.279871704671716,52.69912776184004],[5.280279888130649,52.69917306327094],[5.281772249241681,52.69928942519403],[5.282300319642501,52.69931056105461],[5.282658188759428,52.699364796925664],[5.283705315072715,52.699467262845175],[5.287361249293351,52.69990085402047],[5.288111098393967,52.69998146319131],[5.288481091505907,52.69859419276031],[5.290187932548522,52.69872051220144],[5.291161183825464,52.698782411316834],[5.291424481464958,52.69879161008089],[5.293694115514072,52.69792258136962],[5.29521995271215,52.69900489285535],[5.297517377222762,52.7004364590442]]]]}},{"type":"Feature","properties":{"gezicht_uri":"https://linkeddata.cultureelerfgoed.nl/cho-kennis/id/gezicht/10134557","gezichtsnummer":"225","naam":"Havengebied Spakenburg"},"geometry":{"type":"MultiPolygon","coordinates":[[[[5.382373522726895,52.25797608768419],[5.382555080980929,52.25853423476918],[5.382625363655386,52.258741854715986],[5.382695646634739,52.258953069717556],[5.382748359415522,52.25911035746568],[5.382562339296982,52.259179556323154],[5.381996952173296,52.25938625204455],[5.381916420981211,52.25915885823051],[5.381686542836246,52.25853240105799],[5.381592836501058,52.25827624554961],[5.381499132028267,52.25801379852067],[5.3816441410797,52.25792932025929],[5.381573859188377,52.25776304340899],[5.381546039392744,52.257697431445685],[5.381556293643724,52.2576821527241],[5.381548973964682,52.2576542903172],[5.381554833230539,52.25764799915485],[5.381556298628276,52.25764170778837],[5.381554834892498,52.25763451750957],[5.381519695005661,52.25754553701278],[5.381510907068357,52.25754733415462],[5.38150211935407,52.257547333743105],[5.381497725944727,52.25754373843163],[5.381093618200111,52.25659281329749],[5.381084832719237,52.25657753365395],[5.380982309540442,52.25659280764322],[5.380958884490974,52.25653168963532],[5.38092667336254,52.256460684625715],[5.380898854839291,52.25639866760046],[5.380762646502006,52.25641483842058],[5.380720174141334,52.256411241050195],[5.380778771445438,52.25631147997042],[5.380812464169385,52.256258453932595],[5.380799288274082,52.25622070462056],[5.380789041296881,52.25618475301495],[5.380500512915639,52.25623417011082],[5.380488797632332,52.256225181695925],[5.380393610157615,52.25615866691134],[5.380392145852836,52.256156869275735],[5.380376037162037,52.256146083049025],[5.380368715105939,52.256140689976164],[5.380356999603892,52.25613349910122],[5.380255953555917,52.2560714777562],[5.380247166819156,52.256066983368235],[5.380194447680305,52.25603192803721],[5.380119762340852,52.25598249097179],[5.380116833625296,52.25597979447032],[5.380008467138435,52.25590698716287],[5.379992358488758,52.25589709965997],[5.37992938924318,52.25585305583115],[5.379924995984493,52.255850359236696],[5.37989131738451,52.25581081103076],[5.379862031946203,52.25577485818855],[5.379856174574015,52.25576946517254],[5.3798312819957,52.25573890524952],[5.379790281504453,52.255694862683576],[5.379721459840267,52.255618462422014],[5.379643852438695,52.25553397257929],[5.37955599544705,52.25543779793801],[5.379553066801508,52.25543510142224],[5.379506211108018,52.255376677956285],[5.379493034143008,52.25535330892013],[5.3794842496091,52.25533713037733],[5.379298260673983,52.25528858439264],[5.379292400773835,52.25529847055277],[5.37927043197081,52.25530206421717],[5.379201596766115,52.25531104743802],[5.379119580782048,52.25531913095919],[5.378977517243683,52.2553335017783],[5.378776870579486,52.25535415978115],[5.378722681338024,52.25535954863934],[5.378680227035012,52.25526607286132],[5.378697821108199,52.25516181600015],[5.378623128011629,52.2551698996937],[5.378533788961974,52.25518067861681],[5.378460566063922,52.255159102679926],[5.378396125237457,52.25516449064367],[5.378482526565138,52.25519865045045],[5.378475201953539,52.255208536464146],[5.378362433442069,52.255202236798354],[5.378328754434064,52.25517437224014],[5.37833314911204,52.255168979903466],[5.37833314963963,52.255166283573175],[5.378331685802538,52.25516268835819],[5.378327293236785,52.255157295373735],[5.378324364860211,52.25515370005064],[5.378315577971135,52.25515190184858],[5.378246747601442,52.25513661754079],[5.378215993872036,52.25512852625694],[5.378211600610404,52.25512672837518],[5.378016834189094,52.25504132986663],[5.378013905480611,52.255039532089334],[5.377949477626127,52.25498200543465],[5.377933372895783,52.254956838443896],[5.377902626729955,52.254912796006266],[5.377886515765119,52.254918187420095],[5.37786162445962,52.25489032340772],[5.377823544776946,52.254899308211584],[5.377819150995069,52.254900206645566],[5.377778157009668,52.25483818783837],[5.377822094953664,52.254828304729386],[5.377795738650008,52.25480313691887],[5.377829424298673,52.25479594933501],[5.377879220672235,52.25478426910762],[5.37786604492242,52.254760001110625],[5.377845540426065,52.254765392177795],[5.377775239364918,52.25478336222281],[5.3777913459979,52.25479864269092],[5.377779628834179,52.25480313565729],[5.377747406762516,52.254814817226254],[5.377725437132845,52.25482290448774],[5.377700538624572,52.25483009273685],[5.377617055298658,52.25485435308255],[5.377593621095113,52.254862440202665],[5.377533571305677,52.25488130969956],[5.377532106390309,52.25488310713532],[5.377524783733592,52.254883106545826],[5.377513065751009,52.25489119459293],[5.37748377125846,52.254909167763536],[5.37748230653321,52.25491006642185],[5.377480842000981,52.25491006630337],[5.377479377468752,52.25491006618485],[5.377416411135544,52.25487051489281],[5.377359302250649,52.25483455915429],[5.377351983515528,52.254816583017785],[5.37733002185419,52.254787820356235],[5.377249468254605,52.25480848557579],[5.37718795465852,52.25482375966857],[5.37713524840539,52.25474825800748],[5.377308072801499,52.25470153597327],[5.377510188658657,52.254648524614105],[5.377499940076352,52.25463414335723],[5.37750140479216,52.25463324469864],[5.377501405177482,52.25463144714495],[5.377712308932671,52.25457214471039],[5.377781143668923,52.254561364802214],[5.377789931353946,52.254558669159934],[5.377804577120215,52.254555973975044],[5.377841191621021,52.25454878661642],[5.377867554284005,52.25454249722789],[5.377869018063198,52.254546092449026],[5.377953962440063,52.2545353136895],[5.377943723110425,52.25447509485042],[5.37792907774725,52.25447599249883],[5.377918833122317,52.25444183818655],[5.37782949517783,52.25445351535546],[5.377814857086265,52.2544193606914],[5.37778703015939,52.254424751176785],[5.377787030533168,52.254422953623006],[5.37775628750621,52.25436632826651],[5.377748967561759,52.25435374481439],[5.377798763834872,52.254340267066134],[5.37780022666874,52.254348356172756],[5.377835376857728,52.25433937114729],[5.377889567182058,52.254323197372244],[5.377886639820128,52.254315108153264],[5.377885176416921,52.254309715378376],[5.377867611715624,52.25426387639317],[5.377866147945827,52.25426028117182],[5.377835403443263,52.254210846049524],[5.377828080525054,52.25421264303268],[5.377681622603689,52.25424588626914],[5.377642092782144,52.25418926018473],[5.377647951385267,52.25418656431978],[5.377608421659264,52.2541299382235],[5.377611350862811,52.25412903968032],[5.377627461004924,52.25412634463403],[5.377683115084325,52.254112867400494],[5.377669938883226,52.25409219448641],[5.377795892314845,52.25406344354575],[5.377838364985852,52.25405356031473],[5.377825188730184,52.254032887417715],[5.377820796895956,52.25402479808245],[5.377804692398262,52.2540005298466],[5.377795904824361,52.2540032254903],[5.377778336781781,52.25397446325143],[5.377787124351068,52.253971767609016],[5.37778419647004,52.25396637471786],[5.377754916573575,52.253917838463614],[5.377713913222595,52.25390525235636],[5.377705129432846,52.253889972453905],[5.377691953476319,52.253868400764475],[5.37772124512921,52.253860314085514],[5.377716853142606,52.253853123523086],[5.377741750913776,52.25384683404621],[5.377746142903784,52.25385402460769],[5.377763717622909,52.253850430880924],[5.377841340070177,52.253830663855986],[5.378027338797279,52.253792929556944],[5.378109353068576,52.253780352906745],[5.378118140038879,52.25378035357061],[5.378143037353227,52.253775861563035],[5.378317322464963,52.25372374549225],[5.37854725801601,52.25367073440025],[5.378550185970067,52.25367612727282],[5.378702500339816,52.25363749070752],[5.378758153482228,52.25362401296634],[5.378799147715048,52.25368603144747],[5.378683447450143,52.253714784185235],[5.378602896591976,52.25373455155475],[5.378632177802245,52.25378039126948],[5.378648282332587,52.25380645694748],[5.378771305166399,52.253778603534315],[5.378894328339768,52.25374805366197],[5.378952911202812,52.2537309809232],[5.378995383949446,52.25371750216757],[5.379053966733498,52.253700429378604],[5.379080329043998,52.25369234216441],[5.379097903591523,52.253688748239064],[5.379152080078748,52.253743577266306],[5.37916526100049,52.25374088181456],[5.379169654481754,52.25374088210727],[5.379175512456775,52.253740882497354],[5.379179905461781,52.253743579120716],[5.379184297515329,52.2537516684059],[5.379216509275116,52.25379211550848],[5.379244327288238,52.253834359866076],[5.379256040275788,52.25385143740123],[5.379263361349143,52.25385952687622],[5.379307285190089,52.25392334292507],[5.379317534192822,52.25393772402709],[5.379348279687233,52.25398985509703],[5.379434688220832,52.253972783928376],[5.379477160441341,52.253962900108036],[5.379504987026856,52.25395661044716],[5.379537196498805,52.25401323544595],[5.379570869199588,52.25407794952047],[5.379573797153696,52.254084241144206],[5.379420019813445,52.25410939708107],[5.379461014650488,52.25417590921161],[5.379471263761075,52.254190290299626],[5.379528381566717,52.254178609844665],[5.379632364638595,52.25416064087109],[5.379699718050811,52.254245130106426],[5.379846175333883,52.254206491706654],[5.379995561662797,52.254166055745905],[5.380014596290464,52.254191222633494],[5.380049746190592,52.254180439395114],[5.380086349205358,52.254242457163244],[5.380100995008768,52.25423796413966],[5.380117101543888,52.25425773817687],[5.380141992514697,52.25429458948641],[5.380134666328534,52.254317957258245],[5.380124406777596,52.25436918694192],[5.380118544386135,52.2543970486826],[5.380178588406945,52.25440424240001],[5.380181518823381,52.254395254801175],[5.380188841399853,52.25439525522603],[5.380213738021983,52.254396155444],[5.380259137723118,52.25439795561209],[5.380344079209642,52.254400656787205],[5.380345544806813,52.25439346665504],[5.380367511322433,52.25440155688971],[5.380380691423945,52.254405152740944],[5.380475886397674,52.25439527152218],[5.380477350515318,52.2543979679342],[5.380505176703588,52.25439527314583],[5.380506641218884,52.25439527322682],[5.380546183525348,52.25439257907608],[5.380625269419543,52.25437820296593],[5.380636985796068,52.254376406047655],[5.380682385750999,52.25437640849933],[5.380735109298064,52.254369221109364],[5.380754148493607,52.2543656270162],[5.38080833678212,52.25435664211766],[5.380842021731352,52.254348554897376],[5.380840557718448,52.254344959712924],[5.380893282071746,52.254331480814],[5.380896210105422,52.2543386711816],[5.380907926584452,52.254335975459526],[5.381010445197829,52.25431620764377],[5.381120286519471,52.25429464255231],[5.381120286639034,52.2542937437754],[5.381173010372922,52.254283859859136],[5.381165689475819,52.25427127661853],[5.381132012996766,52.25421644954701],[5.381146658567004,52.254212855170735],[5.38128139726022,52.25418320217591],[5.381315081876558,52.25417601359738],[5.381435174822122,52.2541499548242],[5.381512795714423,52.25413378049598],[5.381751512227873,52.25411761343719],[5.381766154626539,52.25414008351525],[5.381843775486272,52.25412301019256],[5.381918466757682,52.2541104305766],[5.381972647643114,52.25416166319847],[5.381977038711751,52.25418323403316],[5.381994610875433,52.25420031154657],[5.381988737638631,52.254334229056674],[5.382015094006329,52.254377371471975],[5.382076591694633,52.25448432852161],[5.382196659396726,52.25469374851429],[5.382180549227778,52.254697342960185],[5.382209834074262,52.254749473217956],[5.382266951975243,52.25473689266338],[5.382242051341549,52.25477104517472],[5.382262550579688,52.25480969340916],[5.382265479155396,52.2548141874117],[5.38230941244825,52.25483845615317],[5.38232259245498,52.254845646894736],[5.382325521324783,52.254847444565286],[5.382404600992529,52.25489508286561],[5.382410458839011,52.25489777942571],[5.382365055330486,52.25492653849598],[5.382247884674157,52.2550011322765],[5.382266919679654,52.25503798289559],[5.382303526011683,52.25510449385084],[5.382266911774386,52.255111682591654],[5.382306446579916,52.25518448510076],[5.382313767758937,52.25519886582207],[5.382324017455615,52.25521863932039],[5.382329874388462,52.25523032365189],[5.382470443360926,52.255494569532715],[5.382504122089984,52.25555299131657],[5.38252169381049,52.25558175284434],[5.382565622488145,52.25566084686511],[5.382603703298675,52.2556374801071],[5.38265641811322,52.25573095484971],[5.382669596763186,52.25575522230807],[5.38267691850598,52.255766007898735],[5.382760384446403,52.25591161276991],[5.382591948037432,52.25602575118182],[5.382517249813164,52.25607697861362],[5.382493814938065,52.25609405446994],[5.382707630609366,52.25621449856842],[5.382717883246709,52.25620820750772],[5.382817468204,52.25627292302307],[5.382799892251065,52.256283707712676],[5.3827076185334,52.25633852973667],[5.38268711319285,52.25635111185505],[5.38267686034197,52.25635920046602],[5.382659284320878,52.25636998513454],[5.382649031371898,52.25637897251964],[5.382627060969465,52.25639604845588],[5.38259044320515,52.256428403038825],[5.382580190408966,52.25643559286476],[5.382564078284227,52.25645266901007],[5.382543572214739,52.25647154253913],[5.382537713334547,52.25647693497533],[5.382531854361876,52.25648322618778],[5.382518671735805,52.256496707332325],[5.382499630395265,52.25651378335652],[5.382426393316004,52.256589277748844],[5.382380985080308,52.256646797664864],[5.382372196506748,52.256656683859745],[5.382357549474471,52.25666746859846],[5.382342902245344,52.25668005088836],[5.382325325159488,52.25669892449516],[5.382266736308232,52.25674745607436],[5.382202288463316,52.25680048126687],[5.382158346290794,52.256840025625294],[5.382153952108724,52.25684362054963],[5.382123192913659,52.25686788623885],[5.382092433984851,52.25688945559049],[5.382066068720064,52.256911923895615],[5.382070462012568,52.25691641796286],[5.38207339080785,52.25692001319194],[5.382077783400273,52.256930798694206],[5.382079246896805,52.25694068529684],[5.382080710594335,52.2569487743466],[5.382080710093472,52.2569532682289],[5.382079243690344,52.25696944614386],[5.382074848185318,52.25698472515918],[5.382070453480312,52.256992813962604],[5.382067523676088,52.25699820649814],[5.382061664568291,52.25700449768668],[5.382058735567163,52.25700270001029],[5.382070448461322,52.257037752785486],[5.382211003265071,52.25747096884885],[5.382373522726895,52.25797608768419]]]]}},{"type":"Feature","properties":{"gezicht_uri":"https://linkeddata.cultureelerfgoed.nl/cho-kennis/id/gezicht/10134602","gezichtsnummer":"288","naam":"Urk"},"geometry":{"type":"MultiPolygon","coordinates":[[[[5.591501151234852,52.661179627792855],[5.591514102490699,52.66110411467871],[5.591531634103982,52.66106004820552],[5.591537353956514,52.66101869814333],[5.591588742266504,52.660944916315586],[5.591663833233373,52.66088277678941],[5.591744898860038,52.660834107439534],[5.591902758818629,52.660771825254976],[5.592071140512583,52.66074727014658],[5.592276590067622,52.66074781445008],[5.593061871360032,52.66052717361078],[5.593125324977633,52.660505494845694],[5.593864809006138,52.660291218943875],[5.59431950606794,52.66017808965564],[5.59455299266159,52.66016959414178],[5.595710300041968,52.66017385990736],[5.596518854183164,52.66019041237526],[5.59804291889076,52.660238045163496],[5.59909394625089,52.66027032626181],[5.5991249063783,52.660254094433164],[5.599321225306714,52.66020072079012],[5.599619782364485,52.66020018746032],[5.599874003609039,52.66020063144023],[5.599895148172775,52.66029405849458],[5.599873069406587,52.66031297073172],[5.599867257427911,52.66033365125516],[5.599988673805779,52.660683927247675],[5.599997611582923,52.66069829045628],[5.600013961244809,52.660717133894636],[5.600021399246331,52.66072700628301],[5.60004219170758,52.66074763916206],[5.600071887170477,52.660775445695634],[5.600097105043827,52.66079427323547],[5.600140115875592,52.66082475199762],[5.600162342901517,52.66083639527625],[5.600172723940459,52.660843566278025],[5.600211248500375,52.660863268644704],[5.600254211537472,52.660883861741844],[5.600295674790225,52.66089996400883],[5.600357843563744,52.66091872522406],[5.600417038883869,52.66093389693877],[5.600872499347522,52.66097981127852],[5.600872508089421,52.66098160866449],[5.600912410565041,52.660980638207334],[5.601172535325576,52.66097837269705],[5.601213863287583,52.66096661516192],[5.601292194543163,52.660965575361],[5.601354188602149,52.66094838833701],[5.601354127271084,52.660935806635756],[5.602116759850877,52.660928138885915],[5.602122671968843,52.66092812819316],[5.602133000588442,52.66092451470851],[5.602149250117403,52.66092268791472],[5.602159583130789,52.66091997312066],[5.602174350230261,52.66091725030418],[5.602187634901048,52.660913631467004],[5.602200915171551,52.660909113935446],[5.602215673468019,52.660904593728],[5.602230422964054,52.66089827613286],[5.602248124113325,52.66089105449352],[5.602258448314625,52.66088654230501],[5.602413297872452,52.66081616329079],[5.602432468178433,52.66080714156114],[5.602461967038537,52.660794506315106],[5.602497351555038,52.66077646819276],[5.602516508612872,52.66076475037074],[5.60253120956565,52.66074854711591],[5.60254295886691,52.66073324790905],[5.602557659799419,52.6607170446508],[5.602776160156199,52.66066632120878],[5.602792436023824,52.66066988648467],[5.602808711894088,52.66067345175835],[5.602878183286905,52.660674224389034],[5.603033357819504,52.660670347842206],[5.603064387423848,52.660668494077015],[5.603119056521854,52.66066479995066],[5.603167795857605,52.66065752177243],[5.603158249306996,52.660820203991435],[5.603164298361174,52.66084805272635],[5.603164563428288,52.660901974298866],[5.603163147248436,52.66091455868521],[5.603172947613262,52.66110416675835],[5.603205649974035,52.661141852754156],[5.603375885087026,52.66119456653902],[5.603406972542951,52.66120439569082],[5.603574176812734,52.66124183679183],[5.603593422317926,52.66124809265322],[5.604083248096757,52.66136762558448],[5.60410687905405,52.661363987649686],[5.604117225361954,52.66136396876399],[5.604290329700526,52.661398701985625],[5.604470868989378,52.66144240836982],[5.604646965596362,52.661484325207866],[5.604826023089412,52.661527135063544],[5.605025800378116,52.6615752988761],[5.605182665527508,52.661613655368],[5.605203385016975,52.66161900956417],[5.605317324451604,52.66164486280786],[5.605554098853212,52.66170194482756],[5.605823413487228,52.66176346001879],[5.605999503715476,52.661803577464205],[5.60618299352373,52.66184547841502],[5.606363523075263,52.66188648584156],[5.606394598235609,52.66189361813256],[5.606542570413513,52.6619265970291],[5.606662432664289,52.66195423545335],[5.606724583187616,52.661968499870646],[5.607066317334404,52.66202808104286],[5.607223145367975,52.66205834660528],[5.607443598125945,52.6621019745704],[5.607667002950879,52.66214469794946],[5.60788892562355,52.6621865249607],[5.60811232679066,52.662228348809485],[5.608195180237287,52.66224437137199],[5.608340171652132,52.66227196137108],[5.608571090857174,52.662338933988245],[5.608596267975171,52.662348772793024],[5.608667351572176,52.66237560136228],[5.60878138112357,52.66241852643302],[5.608800528153413,52.66240501021947],[5.609550951246753,52.662900589976985],[5.609711622090308,52.66281311528407],[5.610020575274246,52.662818827303916],[5.610048654471455,52.66281787595156],[5.610041920452292,52.66294730147175],[5.610285149766345,52.66310861123734],[5.610572902304018,52.663304886144815],[5.610490571298513,52.663392214821286],[5.610779768138521,52.663581296900354],[5.611228469798267,52.66345373511064],[5.611509554593561,52.66350083602519],[5.611511464052478,52.6635853102715],[5.611513222087929,52.66364012768489],[5.611513520361431,52.66369854265494],[5.611515292170813,52.66375605614227],[5.611517063984942,52.663813569628786],[5.611518877104489,52.66387917134067],[5.611866232570713,52.66387761647771],[5.611866549699694,52.66393962621025],[5.61187361587263,52.66416518666023],[5.611987427863802,52.664164072739574],[5.612082024062252,52.66416299507339],[5.612175146720965,52.66416281882195],[5.612210617416154,52.66416185296764],[5.612213338418328,52.66440449692133],[5.612217440935968,52.6646282655381],[5.612213015683239,52.66463007131749],[5.612216441528928,52.66472173226203],[5.612259372518327,52.66473423277277],[5.612438520741574,52.66507899427298],[5.612428187387194,52.665081709957526],[5.61252858454642,52.6653466362023],[5.612840052249288,52.66612611692371],[5.613042215622086,52.66663259969492],[5.613076371811552,52.66666309057972],[5.613160972528451,52.666729433550984],[5.613301750709884,52.666796568298835],[5.613465880075355,52.666805242934004],[5.613650570320336,52.66678781587163],[5.613811669089769,52.66678211660604],[5.613870784192234,52.66677930777387],[5.613955080145846,52.66678633656967],[5.614045367926453,52.66680863176719],[5.614116443490158,52.666831862279736],[5.6141727043456,52.66684883014452],[5.614214234052115,52.66687571182059],[5.614230573527225,52.66689095850664],[5.614267859087918,52.666954694965455],[5.614287326975679,52.66700318756072],[5.614283231428364,52.66706880047429],[5.614255395812347,52.66711738344719],[5.614211155536142,52.66713813805456],[5.614184663362133,52.667160656149555],[5.614172944261958,52.66718134862648],[5.614165664512685,52.66720293132415],[5.614162884485569,52.66723708722528],[5.61416306093776,52.66727123748014],[5.614169113213144,52.66729818691538],[5.614178103407991,52.66732153594017],[5.614218285369906,52.66737358377961],[5.614249491103953,52.66740497865933],[5.614286600579884,52.667434564850836],[5.614347441081779,52.66747938357307],[5.614403819066283,52.6675188185965],[5.614460201801558,52.66755915228369],[5.61452703473126,52.667619237349506],[5.61456275470294,52.66766590140597],[5.614667023707947,52.66781848083683],[5.614689379128686,52.66785348733557],[5.61471780590202,52.667919037995695],[5.614772029090459,52.668113053302534],[5.614800684331047,52.66822263978155],[5.614850259167354,52.66837532376145],[5.61487407000702,52.66840583393571],[5.614922969722678,52.66842820774037],[5.614900828124146,52.668434541059405],[5.614960224974785,52.66848565312232],[5.615013634249734,52.66852239743987],[5.61514710419428,52.66860392318562],[5.615243482095138,52.66865945767057],[5.615402163204499,52.66875621264368],[5.615501526374841,52.66881713338322],[5.615546015343983,52.66884400890033],[5.6155860881723,52.66887448768473],[5.615609853060558,52.66889601080266],[5.615632214455007,52.66893191580458],[5.615647142325871,52.66895974679534],[5.615669471061644,52.668989360956424],[5.615685825852622,52.66900730350521],[5.615712552138548,52.669029719608375],[5.615743704004316,52.66905032979662],[5.615782252087054,52.66907182445152],[5.615831157683689,52.669095096568796],[5.615877092688219,52.66911567828328],[5.615921540072,52.669134465443925],[5.61598077522402,52.669154122823045],[5.616054793485188,52.66917375170812],[5.616148034478255,52.669194242218886],[5.61621167193342,52.66920760010683],[5.616245729224427,52.6692183188713],[5.61628872668497,52.66924250088523],[5.616336238818194,52.669281952069475],[5.616371887040872,52.66931423651598],[5.616419328977834,52.66934020731121],[5.6164726701461,52.669363470609525],[5.616684538287188,52.669452931655016],[5.616757158895746,52.66948784069039],[5.616834247460351,52.669529031944414],[5.616900969138144,52.66956664838676],[5.616981028720246,52.669610529901284],[5.617025524099295,52.66963830354892],[5.617086408074294,52.66969031036404],[5.617125084392976,52.66973606921548],[5.617156373867386,52.66978274104543],[5.617149231596176,52.66983038592686],[5.617130196812747,52.66986547202464],[5.617090470083007,52.66990149684295],[5.617026963023672,52.66991330275337],[5.616308527232353,52.66992098070968],[5.616136947182256,52.66990333734696],[5.615980103755304,52.66987667837886],[5.61583796895283,52.66983561172191],[5.615740230972238,52.669803446526466],[5.615623162731562,52.66974974962044],[5.615549031560588,52.66970855190284],[5.615461422824934,52.66963412815],[5.615378188649693,52.6695480128423],[5.61530391803519,52.66947985425877],[5.615215018468605,52.66944138077206],[5.615123209064853,52.66941189979229],[5.615068390238144,52.66938863872296],[5.615010689422742,52.669379762341805],[5.614958915860094,52.66937357067235],[5.614312976950108,52.66939098333025],[5.614096929688198,52.66935005580742],[5.613822491473503,52.66916634605013],[5.613607089671052,52.66925033561485],[5.612738882588892,52.669454193679776],[5.612298740699098,52.66953231623467],[5.611830081712541,52.66952691203175],[5.61118378181995,52.66947420983421],[5.610596529201968,52.66940431786823],[5.610146820719577,52.66934584815977],[5.609979830731029,52.66935784438186],[5.60936416185164,52.66922239455286],[5.609020981119546,52.669180796696324],[5.609035637094441,52.6691556057634],[5.607518913197718,52.668867248545006],[5.607533551896844,52.66883846303117],[5.606879525187204,52.66871565323775],[5.606320650486707,52.66870050836573],[5.6061933920422,52.66867557934598],[5.606103131272875,52.668658670343866],[5.605971433731511,52.66863285056366],[5.605839736344676,52.668607030637375],[5.605750954138641,52.668590118648005],[5.605608900069646,52.668562520112296],[5.605492003822045,52.668540267396715],[5.605361785277848,52.668514444225046],[5.605270042412894,52.66849663861223],[5.605179777905317,52.668478830217175],[5.605090996211496,52.66846191773433],[5.604954860552169,52.668435206266096],[5.604938586088443,52.66843253998574],[5.60494296747165,52.66842174756724],[5.604972261296834,52.668366873237126],[5.605016204125952,52.66828501107263],[5.605115790621196,52.6680961016536],[5.6050964482773,52.66807097353606],[5.604991393113699,52.6680513947154],[5.604902607901472,52.66803358339846],[5.604769439120938,52.66800866368093],[5.604415791005218,52.66794011072275],[5.604237724215468,52.66780383373873],[5.604157729465629,52.66776982922282],[5.604079213097755,52.667735821955034],[5.603966625976751,52.667687497592816],[5.60366293675084,52.667556841002],[5.603267429972341,52.66739220002091],[5.603190397632124,52.66735908816638],[5.603111887163387,52.66732597894723],[5.60299930657013,52.66727855235468],[5.602723780129376,52.66716222140976],[5.602679450592367,52.66716589659156],[5.602713295765172,52.667134380738254],[5.602529390667252,52.66701159226042],[5.602467097835428,52.666969466233326],[5.602401844257661,52.66692644683515],[5.602311372879957,52.66686549905801],[5.602296546580622,52.66685653889792],[5.602246124008738,52.666823378264766],[5.602060730105618,52.666697895651346],[5.601756715368326,52.66649803489527],[5.601698876205224,52.66645949522011],[5.601636584951816,52.666417368751404],[5.60156984163616,52.6663716554821],[5.601522534449154,52.666370842107234],[5.600800866257596,52.66600637063427],[5.600658247168052,52.66586013883478],[5.600215513552024,52.665400798955986],[5.599956969563219,52.665124462554154],[5.599842711021473,52.6650338983684],[5.599492647322806,52.664782888262394],[5.599400858181129,52.66475339510197],[5.599354965826655,52.664739097841164],[5.599295748389765,52.66472033084567],[5.599212837123008,52.664692619094744],[5.599131404116087,52.66466490464962],[5.598733148474261,52.66453440402795],[5.598636908607504,52.66450132339977],[5.598564358184118,52.664476288861486],[5.598392750308173,52.66444693686239],[5.598249249045046,52.66442202820259],[5.598161969300491,52.664407803976616],[5.598052495848813,52.664389125567254],[5.597866094272157,52.66435710295622],[5.597749221734578,52.66433663998424],[5.597654538684281,52.66431973240266],[5.597561338153708,52.66430372082137],[5.597465177103604,52.66428681570539],[5.597371976711597,52.664270803975526],[5.597296526982749,52.66425745689151],[5.597070199538916,52.664221908813936],[5.59694452325653,52.66421494109909],[5.596854330956401,52.66420970805445],[5.596761186684841,52.664205378847086],[5.59667247256588,52.66420014305782],[5.596583762751652,52.66419580589479],[5.59649209667554,52.6641914738722],[5.596276232678857,52.66418017075558],[5.596268846259694,52.6641810824509],[5.596224484974819,52.664177565688355],[5.596188996807137,52.664174932004926],[5.596128376005823,52.66417144380025],[5.596089935844562,52.66416971397724],[5.596029319330586,52.664167124414526],[5.595992353044167,52.66416449326995],[5.595891818259157,52.66416017636672],[5.595795705106554,52.664153155517205],[5.595701078654005,52.66414792938154],[5.595677432707255,52.66414886956715],[5.595653727054088,52.664137228052894],[5.595604509346473,52.66404474827814],[5.595598503009705,52.66402498741131],[5.595571500139,52.663941455660904],[5.595553511070098,52.66388846390062],[5.595523564901547,52.663807633397376],[5.595480179372171,52.66369806803856],[5.595430873061509,52.66358671563609],[5.595342765528026,52.66339724426731],[5.595217087618936,52.66338937603151],[5.595212653280612,52.66338938379377],[5.595208218942284,52.663389391555796],[5.595203788859336,52.6633902980104],[5.595197880663365,52.66339120705205],[5.595097449800843,52.66340845810019],[5.595072338883358,52.663412096829454],[5.594986663559407,52.6634239297706],[5.594902449306715,52.66343216529569],[5.594830038699826,52.66343588663719],[5.594739844001716,52.66342975329425],[5.594677805652775,52.66343884862834],[5.594593578584608,52.66344438785655],[5.594354107053121,52.66344121075392],[5.594136625229524,52.66339935077321],[5.593798956057674,52.66325974109662],[5.593449291200308,52.663083304573234],[5.592940609225145,52.66303835266753],[5.592190295403602,52.6625264915534],[5.592145701318375,52.6624726464572],[5.592053406448096,52.662332608357985],[5.591941746432464,52.66216025033869],[5.591880584395764,52.66203992985825],[5.591837163644015,52.66192047749235],[5.591790812121855,52.66180642235586],[5.591738603012964,52.66170406038675],[5.591519606624644,52.6613341725509],[5.591508896692492,52.66125600402096],[5.591501151234852,52.661179627792855]],[[5.599766271605061,52.66451099174786],[5.599861251727129,52.66458900871752],[5.600297149832556,52.66455587467149],[5.600337107890906,52.66456568871283],[5.600426154714026,52.664639222373005],[5.600528535797669,52.66471902292955],[5.601045012554344,52.66514497714511],[5.601061338069435,52.6651584282655],[5.601140979890552,52.665121438219934],[5.601143931854628,52.66512053420569],[5.601146883818584,52.66511963019137],[5.601149835782415,52.66511872617695],[5.60181055019424,52.66571696764211],[5.602013827006416,52.66587297413852],[5.602358058189362,52.66613567044112],[5.602693931229267,52.666501731352085],[5.603028256568819,52.666852516206504],[5.603291345890042,52.66684484852767],[5.603294311189154,52.66684664053504],[5.60341605233851,52.66695336435821],[5.604167056285119,52.66726384440094],[5.604201126896325,52.667278161387486],[5.604180524723851,52.667297071693525],[5.604341982021046,52.66736328056576],[5.604501957110564,52.66742859322899],[5.604504922498399,52.667430385205854],[5.604746379869793,52.667531496502484],[5.605399663700364,52.66780709830095],[5.605556689917715,52.66787331365592],[5.605716677608798,52.66794042205739],[5.605876665788226,52.668007530242264],[5.606036654456,52.668074638210584],[5.606310712619172,52.66819006548067],[5.606386050743775,52.66817914216804],[5.606386046259172,52.66817824347693],[5.606716478123496,52.66833310860074],[5.606704764177104,52.66835559771991],[5.606811303601712,52.66837607098425],[5.607177275795037,52.668542552237085],[5.607325464614868,52.668614173804315],[5.607588956020937,52.66868468272893],[5.608004789171139,52.66877018602443],[5.608186800032828,52.66880579570464],[5.60837028948413,52.668841402354836],[5.608552300936073,52.66887701147474],[5.608735790979984,52.668912617560125],[5.609098337059077,52.66898383716045],[5.609570374218039,52.66907372353056],[5.609591093208351,52.66907817825938],[5.609706378073901,52.66907346898686],[5.609898826268502,52.66912613179282],[5.610104611605773,52.66918506016892],[5.610299962604604,52.669226932490496],[5.610526321914763,52.66926155663521],[5.61065638567623,52.669255919972066],[5.610657992003601,52.66928108053069],[5.610804486488238,52.66930866468403],[5.610857691940857,52.669305868474204],[5.61100253431417,52.66929930492154],[5.611141665011193,52.669332294721436],[5.611915152864323,52.66939554112835],[5.611990500855038,52.66938641164961],[5.611999402930428,52.66939268570701],[5.6120112662352,52.66939985286178],[5.61202459405748,52.66940432114724],[5.612040869309415,52.66940698645688],[5.612063053218019,52.66940874188617],[5.612088193756213,52.66941049171693],[5.612134016885053,52.66940950630324],[5.612182787432912,52.66940671789405],[5.612228601347194,52.66940393506283],[5.612278836380641,52.66939844774366],[5.612293610304428,52.66939662236566],[5.61232906679524,52.669392061712756],[5.61237928798061,52.66938387827954],[5.612432456555898,52.66937389184102],[5.612472324905386,52.66936482928814],[5.612478233545436,52.66936391938944],[5.612624420420121,52.66933128903412],[5.612653949740853,52.669324043428176],[5.612801605430186,52.66928961266955],[5.612838521624676,52.66928145429653],[5.612949265506891,52.669256080418],[5.613017189158846,52.66924067349449],[5.613198808350572,52.66919898811126],[5.613380427197443,52.66915730245046],[5.613531033733811,52.66912196646836],[5.613557610787849,52.66911562495867],[5.613697887456856,52.669083903235226],[5.613737755281847,52.669074840257785],[5.613898690803515,52.66903588932295],[5.613913450622017,52.669031367672034],[5.613926736775517,52.66902774752991],[5.613938539986934,52.66902323151601],[5.61394886489534,52.6690187183213],[5.61396066346247,52.669013303614655],[5.613969510066029,52.66900879323861],[5.613979825687917,52.669002482660126],[5.61399014130684,52.66899617208073],[5.614003394960199,52.66898626109622],[5.614022529318276,52.66897004799152],[5.614034281452449,52.66895564637206],[5.61404310947181,52.66894754122833],[5.614048990174861,52.66894123910824],[5.614051923563596,52.66893674001228],[5.614056325966337,52.66893044071344],[5.614065135409746,52.66891874080579],[5.614069528525204,52.668910644125326],[5.614072434058675,52.66890075288551],[5.614075325665112,52.66888816557388],[5.614078203343992,52.6688728821905],[5.614078119788619,52.668856705760334],[5.614076571864524,52.668843228223764],[5.614073559572772,52.668832449580776],[5.614052863452477,52.66883248908564],[5.614040930350417,52.668811841774954],[5.613936586931516,52.66864488278289],[5.613868019891178,52.66853537223498],[5.613800931473502,52.668425858825884],[5.613733843390489,52.668316345375814],[5.613665272735391,52.66820593601079],[5.61352365135707,52.667976138689944],[5.613480443693544,52.66791061589039],[5.61335374097413,52.66770685223813],[5.613247901418933,52.66753540195173],[5.613191260901581,52.66744474099754],[5.613133123883698,52.66735048806066],[5.613095862739529,52.667291244706455],[5.613072049117338,52.667259835475775],[5.613002114411845,52.667170997091],[5.612996155261649,52.66716202141508],[5.612685941431014,52.666628782685095],[5.612645342240294,52.666494953421946],[5.612609256328396,52.66637639347982],[5.612573179833304,52.66625963090556],[5.612522482833084,52.666174350537055],[5.612542947193155,52.66612937673701],[5.612511517715864,52.66605394552661],[5.61246810145605,52.66594708252709],[5.612462087278841,52.665927322525995],[5.612411215794357,52.66580789183253],[5.612366298800425,52.665696538133474],[5.612319876215788,52.66557979506601],[5.61227496429176,52.66546934001731],[5.612222647894936,52.66535620286858],[5.612129988522084,52.66515866423904],[5.612058323292286,52.665019501323236],[5.611877911573345,52.66471608185165],[5.61187641962812,52.66471338857137],[5.611873426545583,52.664706204627585],[5.611831757861329,52.66465146267784],[5.611804994864059,52.664620957451184],[5.611785673202833,52.664600323859446],[5.61176041138984,52.66457430928711],[5.611690552502756,52.664498950443075],[5.611580673739346,52.66440209831555],[5.611461944958013,52.664308857587216],[5.611331432832823,52.664223727265984],[5.611196468473409,52.66413501039069],[5.610936929497047,52.6639656449208],[5.610693683902737,52.66380253914262],[5.610592833190622,52.663736224928265],[5.610462324448704,52.663651093639345],[5.610331811647619,52.663565063513204],[5.610201303919355,52.663479931933686],[5.610070796696576,52.663394800208934],[5.609823095830588,52.66322630878751],[5.609786220585828,52.66324165577052],[5.609636262904926,52.66310982756531],[5.609605122663659,52.66309011443534],[5.609600683809283,52.66308922404194],[5.609473417023019,52.663059805028915],[5.609483640951295,52.66303552098979],[5.608857842336407,52.66263227460399],[5.608739944399379,52.66270169440213],[5.608767846779804,52.66266569435626],[5.608779635216368,52.66265848277127],[5.608708428747009,52.66260738958137],[5.608202127826935,52.662450160914624],[5.60799499786402,52.662411003106925],[5.607897354363109,52.662393210472274],[5.607722774210987,52.662360282640904],[5.607582226136511,52.66233448105107],[5.607370658540243,52.66229443168511],[5.607222711509776,52.66226684597715],[5.607114708630092,52.662246375777734],[5.606906102521205,52.662207218805754],[5.606728567706114,52.66217429497794],[5.605373226371667,52.6618892067959],[5.605207496170935,52.66185176552096],[5.60411544515647,52.6616021277242],[5.604069643290146,52.661605806124136],[5.603825857747014,52.661625123496684],[5.603589471109364,52.661646224297854],[5.603401333729282,52.661560291466294],[5.603225074495857,52.66148512115291],[5.603211648335458,52.66145998193784],[5.603171683624555,52.661448371468104],[5.603017666535622,52.661387539632926],[5.603000013872562,52.66140464700645],[5.60286878988971,52.66147049039355],[5.60270441800544,52.66140787954437],[5.602578955960539,52.66144315633567],[5.602475721682818,52.66149007583826],[5.602453779931125,52.66153684802447],[5.602387672667621,52.661619648220196],[5.602102354797572,52.66191134356525],[5.601759625339474,52.66225167170402],[5.601737594670749,52.66228046989731],[5.601498843564062,52.66242379407462],[5.601448729103239,52.66245264285442],[5.601407487449341,52.66248237431968],[5.601056657705636,52.66267892290368],[5.599853891598775,52.6633739793117],[5.59957689723721,52.66355870821644],[5.599422194120383,52.6636623351175],[5.599322059394561,52.66374070081667],[5.5992823886732,52.66379020013156],[5.599226627628134,52.663874777447546],[5.599151763397543,52.66398275501173],[5.599066573519246,52.66409524443539],[5.598990139390298,52.66418435198857],[5.599766271605061,52.66451099174786]]]]}}]}