{"type":"FeatureCollection","name":"beschermde_gezichten","features":[{"type":"Feature","properties":{"gezicht_uri":"https://linkeddata.cultureelerfgoed.nl/cho-kennis/id/gezicht/10134368","gezichtsnummer":"1500","naam":"Zierikzee"},"geometry":{"type":"MultiPolygon","coordinates":[[[[3.917938397770374,51.6452549383229],[3.917938630967033,51.64524774941231],[3.918702941896909,51.645696045295466],[3.918832780819665,51.64574711843546],[3.918940995080862,51.64575207215032],[3.919778587244954,51.64607991802273],[3.920133340109083,51.6461913444912],[3.920663568953941,51.64628339356246],[3.92117795019572,51.64632939374279],[3.922011270344214,51.6463434261901],[3.922234061524927,51.64633542768078],[3.922475513989367,51.64633125823925],[3.922807500701025,51.6463426049126],[3.923783355965902,51.646372791941324],[3.92489468888993,51.64627970578614],[3.926999171967693,51.6465765765472],[3.926987330980848,51.64685421304216],[3.927396490602077,51.646802682134556],[3.927703734032238,51.64668515236005],[3.928075474473675,51.64671855531467],[3.928241354220751,51.64672781530163],[3.92818156722964,51.646968894975075],[3.928464564511382,51.64697601884188],[3.928944410653284,51.64701795833827],[3.929012636703422,51.64723276519468],[3.929008945415253,51.647706480464144],[3.928201343438104,51.64761101174486],[3.927858403820423,51.648298049704344],[3.926872678066928,51.64830373300126],[3.926907188455662,51.64844350522818],[3.926908748313974,51.64875367210249],[3.926878549973928,51.648838698188406],[3.926805649210546,51.64894836277525],[3.926597867950714,51.64925232119376],[3.925857772528077,51.650288593454185],[3.924988649746084,51.651470681633576],[3.92418514246961,51.65254390854682],[3.92394176264151,51.65283033684944],[3.923326052769258,51.65368116139621],[3.92323169788788,51.65378336367883],[3.923112550718595,51.65389244757473],[3.92298941762715,51.65399069374804],[3.922831611716205,51.65408850597539],[3.922739085761306,51.654134095126835],[3.922511128808555,51.65421125160486],[3.922345214114136,51.654246932206725],[3.922046359130062,51.65428184739719],[3.921856640232885,51.65429385587439],[3.921314883623962,51.654287071683925],[3.920869058299699,51.65426350734686],[3.920012005210316,51.65417455528637],[3.919760397982972,51.65417859268402],[3.919188025512359,51.65413545560534],[3.918082260989849,51.65405056131047],[3.917614141593036,51.65400153327081],[3.916813719711523,51.65394922793963],[3.916552934724702,51.653924375788876],[3.916339940863462,51.65389652776141],[3.916009506327109,51.65383573885446],[3.915088707113084,51.65357424414252],[3.9139877345904,51.653253838524314],[3.912785232585545,51.652900679068345],[3.912179265765896,51.65282472098848],[3.912070467366506,51.652659735322224],[3.911999298692509,51.65253747594114],[3.911696149612725,51.65181716707143],[3.911291764283691,51.650789028268534],[3.911244065061955,51.65065627657443],[3.911196298083386,51.65048127191631],[3.911140283603554,51.6503376275304],[3.911110124894972,51.65019880413536],[3.911124865492994,51.64992390199223],[3.911211482679828,51.64939459588404],[3.91125705429809,51.649237849021986],[3.911382630172845,51.649065030456065],[3.911393727704903,51.648990555011395],[3.911465104128476,51.64888447640285],[3.911658989575082,51.64874398324736],[3.91239230471573,51.64805831501889],[3.912603173919169,51.647839823073824],[3.91276168197864,51.64772045789698],[3.912848397602289,51.64767570241397],[3.912975704391299,51.64762696331858],[3.913137297877427,51.64759034271628],[3.914461372295101,51.64740024793242],[3.915678735066086,51.64724745261001],[3.916538914232438,51.6462568020677],[3.917302682660968,51.64565329379088],[3.917565282085192,51.645442634765395],[3.917823079452838,51.645246298548194],[3.917938397770374,51.6452549383229]]]]}},{"type":"Feature","properties":{"gezicht_uri":"https://linkeddata.cultureelerfgoed.nl/cho-kennis/id/gezicht/10134369","gezichtsnummer":"1501","naam":"Wemeldinge"},"geometry":{"type":"MultiPolygon","coordinates":[[[[3.98476248656012,51.51775271007962],[3.984655455159497,51.51776580847911],[3.984669314470006,51.517409979713975],[3.984816678535176,51.51725712506969],[3.984490634630235,51.517130049754016],[3.983983256660116,51.516762565872234],[3.98390138098036,51.51670764347108],[3.984144967050326,51.516658429237616],[3.983849814385781,51.516511046680414],[3.983787993039661,51.516459961070844],[3.983759354969821,51.51640747622237],[3.98376143550861,51.51634007787385],[3.983793624241804,51.51627753620552],[3.98383406650132,51.51622767939431],[3.983924008753813,51.516114589892034],[3.983958689435761,51.51606466381321],[3.984017441370074,51.51598176474243],[3.984094196136568,51.51592245535276],[3.984155493716988,51.51589712138723],[3.985813909072689,51.51557002707138],[3.985956250146659,51.515533078900866],[3.987250925628651,51.51574098619448],[3.988456716201823,51.51621570976876],[3.988728446734789,51.516328638991766],[3.989119305368257,51.516362984699626],[3.989219230760164,51.516205960852254],[3.990521036670005,51.51646425965307],[3.991641030934074,51.51663766564873],[3.991610200397515,51.516844061889685],[3.992719932813994,51.51702362763643],[3.992989562455689,51.517064603611765],[3.993336082690673,51.51708851709596],[3.993303300319874,51.51717083168279],[3.994119021871164,51.51721202831106],[3.994133597115735,51.5173946943338],[3.994724625631275,51.51743320646342],[3.994849681467524,51.51796059837456],[3.994410363321361,51.51795536034368],[3.994181947564177,51.51793285879198],[3.994134853296849,51.518059052735275],[3.993386531582064,51.517980903691246],[3.993422580880837,51.517886042399546],[3.993032449853772,51.517827447556485],[3.993044772100195,51.51780152432897],[3.992684780006801,51.51774688397572],[3.992610569508538,51.517911409561115],[3.991573668290866,51.51775249075274],[3.99157988708316,51.51764378889095],[3.99079772040412,51.51749509854693],[3.990728527399713,51.517496069208256],[3.990676287585694,51.51750803026135],[3.990642413703699,51.517531897598445],[3.990542297005239,51.517695213182314],[3.990095412525687,51.51760806151831],[3.98996785447444,51.517585859130975],[3.989013365457755,51.517277774155836],[3.98751844783668,51.51683285420437],[3.987184596857155,51.517005951332976],[3.987144794066431,51.51703514046261],[3.986935890581625,51.51717467450423],[3.986712691211424,51.51721694719533],[3.986644606716073,51.51722871645586],[3.986760231183122,51.51763823867772],[3.986731315585448,51.517781728346975],[3.986557701199436,51.51822553925064],[3.986054367004499,51.5180999380805],[3.985481952623177,51.51797170771983],[3.98476248656012,51.51775271007962]]]]}},{"type":"Feature","properties":{"gezicht_uri":"https://linkeddata.cultureelerfgoed.nl/cho-kennis/id/gezicht/10134370","gezichtsnummer":"1502","naam":"Vlissingen"},"geometry":{"type":"MultiPolygon","coordinates":[[[[3.583237405626368,51.43667136659683],[3.582206055650488,51.44099156570644],[3.581032148479657,51.440846627312965],[3.580855594586382,51.440836700893556],[3.580536648292746,51.440862329263744],[3.580295765927501,51.44087837735833],[3.580007688280346,51.44088740035814],[3.579858165894165,51.44088508369203],[3.579671940263073,51.440865115982625],[3.579357461533422,51.44081439042546],[3.579274609052674,51.440799620415724],[3.578994446737236,51.44071795871313],[3.57833651125497,51.44141891277277],[3.57813644449117,51.44163877656908],[3.577980769016152,51.44211735832065],[3.577915469272938,51.442276377877654],[3.577448223766368,51.44223226821466],[3.577359892048855,51.44242779154142],[3.577202689481585,51.44261864993943],[3.577101182333561,51.44274743831514],[3.576957729169821,51.44288186907202],[3.577076467370137,51.4429349580238],[3.576751809884864,51.44317626165159],[3.576817091039559,51.443198852236016],[3.576672162103123,51.44333415881712],[3.57661773261308,51.44343670573192],[3.575965151177764,51.44400107330029],[3.575898198921215,51.444056674406454],[3.575764945690384,51.44418766591361],[3.575622413052534,51.444298733875215],[3.575105658948382,51.44412438167836],[3.575105205658042,51.44402727627936],[3.574979404818425,51.44389855466081],[3.57489254056895,51.44380370301639],[3.574820277080623,51.44373964615935],[3.574331469722862,51.44326094360914],[3.574152841365773,51.44333908268163],[3.573799374391528,51.44321940777145],[3.573368119248064,51.44306615608904],[3.573518014311568,51.442914747663856],[3.573343815379539,51.442845508644574],[3.573378458250756,51.4428064887213],[3.573148866749417,51.44271930593278],[3.572382231745411,51.442390013050414],[3.572543200353794,51.442249566859154],[3.572233272336466,51.44212067472576],[3.57268917707555,51.44147415124642],[3.572313983560578,51.441358628947675],[3.572221348855872,51.44130054685015],[3.572233954426309,51.441236909757215],[3.572279591711615,51.44117468567965],[3.572079164409518,51.441114027169675],[3.57221275887263,51.44108284076222],[3.572942716660151,51.44045406622586],[3.573673546645355,51.440344957191655],[3.573641431374877,51.44024825851976],[3.571813208336614,51.43569395176695],[3.583237405626368,51.43667136659683]]]]}},{"type":"Feature","properties":{"gezicht_uri":"https://linkeddata.cultureelerfgoed.nl/cho-kennis/id/gezicht/10134371","gezichtsnummer":"1503","naam":"Veere"},"geometry":{"type":"MultiPolygon","coordinates":[[[[3.665969678438008,51.54120300660859],[3.666094376767597,51.54221176229529],[3.668718463128782,51.54205799747757],[3.673822864232092,51.54632515859907],[3.670031770986051,51.55064329764767],[3.664600261578526,51.552602357230946],[3.660460666463294,51.55474568946878],[3.658068392684628,51.5536773219801],[3.658063259462195,51.553206151540486],[3.658067475146825,51.552565201757226],[3.658083098970054,51.551170130079726],[3.658053810992908,51.55072737122535],[3.658039777313106,51.54984610877476],[3.65799623221413,51.549247605703435],[3.657720114532257,51.549000779296314],[3.656396307368508,51.547980549625684],[3.656176929992704,51.54779659338944],[3.6560591245865,51.547671680030994],[3.656026763335691,51.54761276319701],[3.656016604159413,51.547576651225945],[3.656020852690941,51.54701122048083],[3.6551307486138,51.54687126417435],[3.653611015018041,51.54634076885571],[3.652934584195622,51.544645935050866],[3.652931324402359,51.54458025696957],[3.652941994191982,51.54441409352842],[3.652971740556309,51.54427698243777],[3.653015005336652,51.54420120651077],[3.653308936215506,51.54382887267016],[3.653694021211284,51.54337248220125],[3.656721185756519,51.54369246475561],[3.661494518825168,51.54249273245076],[3.661560306641672,51.54258270869485],[3.661735412399639,51.54271745317725],[3.66205129893378,51.54256208987277],[3.663984047047613,51.541668204084615],[3.664914193676774,51.54120633084301],[3.665969678438008,51.54120300660859]]]]}},{"type":"Feature","properties":{"gezicht_uri":"https://linkeddata.cultureelerfgoed.nl/cho-kennis/id/gezicht/10134373","gezichtsnummer":"1504","naam":"Tholen"},"geometry":{"type":"MultiPolygon","coordinates":[[[[4.215757501661614,51.53060603190175],[4.215974065147292,51.53047965451258],[4.216105638603112,51.53035152585201],[4.21619329033642,51.53024992506629],[4.216472787225926,51.529918319832355],[4.216515266853877,51.52989177725988],[4.216749248128491,51.52970444494459],[4.216932479722611,51.5295849234014],[4.217037233258965,51.52949068484962],[4.217113146200091,51.52939705628962],[4.217201094585312,51.52928377149351],[4.217417574525644,51.52893625091239],[4.217686799616034,51.52855509819278],[4.217885851166054,51.528268530353316],[4.217946026959384,51.528170249039384],[4.2180863565468,51.527925343389185],[4.218150684394068,51.527777661715675],[4.219796120765584,51.52723137874213],[4.220235315818314,51.527806594875976],[4.220454531605721,51.52808116381888],[4.220628257615809,51.52816290456942],[4.220869725674733,51.52824442245999],[4.221088349019041,51.52831762133829],[4.221289959861474,51.52837986271654],[4.221525713072434,51.528459524315096],[4.221788750629414,51.52854305338711],[4.221929029941976,51.528580410375156],[4.222146976006989,51.52862393542526],[4.222398637385219,51.52864532270073],[4.222684602617438,51.528677838681915],[4.222946350376411,51.528699325316246],[4.223198670845824,51.528751281433614],[4.223449090836587,51.528821196894185],[4.223700354274985,51.528914492683114],[4.223993938779746,51.529099901315746],[4.224154331493976,51.529252520332],[4.224334598321607,51.529417023180976],[4.224466130117254,51.529571152347984],[4.224607381032025,51.529739761136206],[4.224702755005989,51.52989892383332],[4.22481630938292,51.5300798419209],[4.22493391151061,51.53027158745058],[4.225038845382374,51.53045152060018],[4.225144485648725,51.530660226781514],[4.225243060235233,51.53086346893752],[4.225310825217561,51.53108797917173],[4.225367683861897,51.53128810949561],[4.225405312054452,51.53145119197794],[4.225433908098747,51.531798467481764],[4.225511560744216,51.532594802180654],[4.225537777671345,51.53275327642295],[4.22555637644558,51.53292785584107],[4.225579573937175,51.53309169368931],[4.225622502608679,51.5333294408375],[4.22569936150992,51.53348032805251],[4.22590384300335,51.533713388488735],[4.226017187667704,51.533846659326926],[4.226166443195703,51.533984781625286],[4.226347378778134,51.53412411744422],[4.22655162410732,51.5342537961966],[4.226856989275119,51.53443122381134],[4.226970503674698,51.53450156954658],[4.22658094489787,51.53479884536325],[4.226155033661987,51.535108343827076],[4.225765111373284,51.53485546179427],[4.225181283034216,51.53451974535311],[4.224626966956136,51.53455198634089],[4.224454382086416,51.534593418026546],[4.224357511858333,51.53460503908717],[4.223653926388663,51.53461241723475],[4.223415812991855,51.534623529727895],[4.223357988077749,51.53463014524294],[4.223153929517803,51.53466227207746],[4.22311653204715,51.534659202646786],[4.223089267768845,51.534654436288406],[4.222930083931355,51.53456655176924],[4.222703916599182,51.53467396853527],[4.222605894173054,51.534730523710444],[4.222553175193779,51.53470662573231],[4.222404366010415,51.53455142333678],[4.221752997208565,51.53516429793001],[4.221704302463764,51.535264493574694],[4.221247123250614,51.53561141799667],[4.221028970345739,51.53574318296348],[4.220747629554176,51.53580959293715],[4.220167229174228,51.53539747550935],[4.220137451980684,51.53537830030257],[4.219615101380307,51.53511957991686],[4.219228014127593,51.53492603427768],[4.219179804588308,51.5348949883159],[4.218870876606398,51.53480110638005],[4.218676846888601,51.53477938921972],[4.218287470334273,51.53478718041759],[4.218177559592172,51.534801362721204],[4.218092639236177,51.53485265159706],[4.218021597130095,51.5349247549513],[4.2178411131726,51.535048800493],[4.217750721419337,51.53503261374492],[4.217702605297679,51.5349979723362],[4.21760669710585,51.53491610751903],[4.217435958281955,51.53471752995114],[4.21733360297839,51.53455020089186],[4.217252007477353,51.53441634046603],[4.217212502427976,51.53427121524722],[4.217192870843146,51.53413797527689],[4.217150240101358,51.533890339371],[4.217115296509845,51.53379200476157],[4.217057412974275,51.53368894567502],[4.216870367447421,51.53350818272621],[4.216785806545173,51.53343362239693],[4.216606650755752,51.533338337523176],[4.216468844038693,51.53326054662052],[4.216263983694049,51.53315601420947],[4.216077648420387,51.533059757608505],[4.215891522407789,51.53295541232437],[4.215572685467187,51.53279939516939],[4.215362644789897,51.532672335642616],[4.215121858588128,51.532563845066015],[4.21459636891858,51.53242912429284],[4.2145790975261,51.53237231758214],[4.214604567498312,51.53233481765111],[4.215084567854299,51.5320537707584],[4.215370999995871,51.53190112713434],[4.215596332149208,51.531770343649626],[4.215834515483239,51.53164418330042],[4.216048225049696,51.53151687819393],[4.216308413133444,51.531375655467095],[4.216431232557452,51.53130766781462],[4.216542501189947,51.53124046323395],[4.216582979848801,51.53117974078465],[4.21636775898731,51.53103015756073],[4.215792551004818,51.53064413891486],[4.215757501661614,51.53060603190175]]]]}},{"type":"Feature","properties":{"gezicht_uri":"https://linkeddata.cultureelerfgoed.nl/cho-kennis/id/gezicht/10134374","gezichtsnummer":"1505","naam":"Sint Maartensdijk"},"geometry":{"type":"MultiPolygon","coordinates":[[[[4.079367502896004,51.54725125346468],[4.079470870109828,51.54741692015964],[4.079690504572796,51.54755062623539],[4.079819515030206,51.54767702526363],[4.079852929921358,51.547818535946554],[4.079887619368059,51.547865670004335],[4.080000058829545,51.547966712527646],[4.080061112577876,51.548149884516874],[4.080030863529451,51.54970205108573],[4.080006791913042,51.54973684127454],[4.079869220626351,51.549857560902076],[4.079832175835848,51.549892205917324],[4.079779352731403,51.549923977507774],[4.079696310994336,51.549953613040735],[4.079128236410306,51.55055315493301],[4.07877542536365,51.55078742968709],[4.07866956839447,51.55085816123766],[4.078308397884404,51.5508819841987],[4.078247080465873,51.55060801331623],[4.078094414927622,51.550601808357776],[4.07798303376272,51.550614044955346],[4.077620727510032,51.55052728087001],[4.077868516292937,51.55018485654195],[4.07764514350815,51.550180555597535],[4.077556240091617,51.55016337796791],[4.077157850279158,51.550078005926416],[4.076940020862723,51.5500315146079],[4.076723125311503,51.5499526707554],[4.076552097237866,51.54988333056095],[4.076396936389439,51.549763826279],[4.076273306286136,51.54965096823942],[4.076124379588507,51.54951535221786],[4.076105378131192,51.54942434394924],[4.075934121505044,51.54901339500307],[4.075867980745461,51.54885713250021],[4.075854509210475,51.54867449218956],[4.075888007092461,51.54851305507721],[4.075958150725104,51.548380795933824],[4.076040718292239,51.54816776964218],[4.076089084601072,51.54804065983427],[4.076076875660173,51.547964111139265],[4.075998587049295,51.54757937621697],[4.076101765251793,51.547501425349104],[4.076072649185147,51.547411202527016],[4.076170254129334,51.547276554505245],[4.076440872586398,51.54714204936747],[4.076558985661343,51.54714607110976],[4.076694591857828,51.54719343906134],[4.07718791178474,51.546985916903125],[4.077349267702848,51.54724033383006],[4.077408829705535,51.54722482017981],[4.077435240513378,51.5472089349175],[4.077521886873876,51.547154170503255],[4.078690824405987,51.54716726623916],[4.079367502896004,51.54725125346468]]]]}},{"type":"Feature","properties":{"gezicht_uri":"https://linkeddata.cultureelerfgoed.nl/cho-kennis/id/gezicht/10134375","gezichtsnummer":"1506","naam":"Sint Anna ter Muiden"},"geometry":{"type":"MultiPolygon","coordinates":[[[[3.362920694729907,51.311931113930896],[3.36431711130107,51.31263241923614],[3.365061948970015,51.31301579384934],[3.365815227507647,51.3136303816443],[3.366612226792624,51.31345090920447],[3.368099687438147,51.31309999058677],[3.368166995751788,51.3131676921749],[3.368276528376225,51.31331884418674],[3.368356551896414,51.31345599767959],[3.368410335291341,51.31360258627926],[3.36843750479443,51.31366959161264],[3.368488953851596,51.31390155517493],[3.368494228799557,51.31400953989386],[3.36834280496723,51.31435217236771],[3.368260278564129,51.314499094375996],[3.368163812354461,51.31463678346155],[3.368088799464607,51.31471100772361],[3.368046674694741,51.314755232618495],[3.367974761534718,51.31479174793449],[3.368138610573517,51.314915070606865],[3.369000340350513,51.31564210831582],[3.369319653444962,51.31591647745985],[3.369416796640618,51.31599098915103],[3.369514891750534,51.3160439386135],[3.369660614663513,51.31609052052562],[3.369118638553837,51.31663497849391],[3.369197752146293,51.31676042708754],[3.368321109811291,51.31702035570429],[3.36855218408322,51.31779849660731],[3.367944810894476,51.31777627508942],[3.367808421540323,51.318102983797495],[3.366956012819347,51.31787870224855],[3.365135949757759,51.319711860491054],[3.362536199354897,51.317892730996014],[3.359712652549528,51.315915895233815],[3.358340712012656,51.31495331988661],[3.360795080642069,51.31337676751148],[3.361271375476485,51.31305328515311],[3.362920694729907,51.311931113930896]]]]}},{"type":"Feature","properties":{"gezicht_uri":"https://linkeddata.cultureelerfgoed.nl/cho-kennis/id/gezicht/10134376","gezichtsnummer":"1507","naam":"Noordgouwe"},"geometry":{"type":"MultiPolygon","coordinates":[[[[3.939178137275168,51.69311317647503],[3.939181203122882,51.693288513955345],[3.939478750147933,51.69330208136611],[3.939705676365991,51.693307583371876],[3.939944926032457,51.693334812562505],[3.940166154962335,51.69333754634954],[3.94016100894941,51.69349839874747],[3.940093489181938,51.693529028449795],[3.940175723958007,51.69362623458888],[3.939973307599883,51.69371363051665],[3.940180170441987,51.69389418316972],[3.939640284715492,51.694085284883016],[3.939885679743596,51.69432744441546],[3.939667727825055,51.69440296120748],[3.939564143265564,51.694430447920205],[3.939692801661506,51.6945686819684],[3.938967963519898,51.69475299961814],[3.939127354425044,51.69501567247217],[3.938896383960401,51.69509102688925],[3.939247606742675,51.69555204763857],[3.939471670228168,51.69582810514686],[3.939895875905816,51.69631429822734],[3.939404628664677,51.69647633406226],[3.938797608505506,51.69627824630623],[3.938642991016378,51.69622778949087],[3.938355706594797,51.69611905604779],[3.937950620672574,51.695939643328224],[3.937781481366959,51.69584585498644],[3.93755712901182,51.69571452510968],[3.937395970369613,51.69559746170196],[3.937163860732161,51.69539231928654],[3.936919862980013,51.69515196924787],[3.936592509316303,51.69480450745945],[3.936420446723214,51.694621682593194],[3.936166042432502,51.69434524307519],[3.935998263529315,51.69416426857224],[3.935865654570859,51.69401429474904],[3.935741289667123,51.693877907533626],[3.935705054259582,51.693880155343464],[3.935482634652621,51.693508819561025],[3.935549511225027,51.693363116004456],[3.935820046062097,51.69336197431431],[3.936201435499171,51.692881255179636],[3.936588515900558,51.69294448379773],[3.936746764179342,51.69274597301563],[3.937067826980882,51.69283804845883],[3.937371856821176,51.69292002344062],[3.938233606778141,51.692976536564345],[3.939178137275168,51.69311317647503]]]]}},{"type":"Feature","properties":{"gezicht_uri":"https://linkeddata.cultureelerfgoed.nl/cho-kennis/id/gezicht/10134377","gezichtsnummer":"1508","naam":"Nisse"},"geometry":{"type":"MultiPolygon","coordinates":[[[[3.854987354126513,51.4532092083304],[3.854877138854363,51.4532347310256],[3.854808330906065,51.453269787494534],[3.854712195723839,51.45330448499696],[3.854551083076564,51.453388673117665],[3.854312760007011,51.45354376697298],[3.853730208650127,51.45396493691168],[3.853484522754065,51.45416757956555],[3.853362981098433,51.45427296332962],[3.85314248524359,51.454496613523865],[3.85357040861799,51.454693726804145],[3.853318708253988,51.45494663431045],[3.853226506967881,51.45512072796076],[3.853228976960784,51.45526100505406],[3.852854542025505,51.455312719069816],[3.852904930775464,51.455525546622816],[3.853019639106819,51.45596486987246],[3.853092753971777,51.45605842860787],[3.85321861989246,51.45620931805859],[3.853404504562579,51.45637268338412],[3.852501710179318,51.45673030321004],[3.851447388185078,51.4570149005686],[3.851167594148154,51.456692071137304],[3.851007766372759,51.456737614245384],[3.850109338266431,51.45594185054266],[3.849945345717868,51.45576977822243],[3.849693919060655,51.45558756351868],[3.849670984168613,51.455542311071554],[3.849636014437867,51.45546992989148],[3.849538485213331,51.45516208406888],[3.84947132592375,51.454892396596875],[3.84948239538434,51.45486287532826],[3.84950745356273,51.454845225475246],[3.84964347977513,51.4547373394967],[3.849910851364268,51.454532293462584],[3.849375357918561,51.45415484692842],[3.849791793496585,51.453967048849464],[3.849870146020422,51.453905150915574],[3.849914204544725,51.453878761279356],[3.849996221884982,51.45379353742887],[3.850257776799073,51.45350480659079],[3.850291251301462,51.453493560474854],[3.850345892571072,51.45345202700234],[3.851024548066185,51.45291257149352],[3.851231419246756,51.452751676208074],[3.851539210362568,51.4524995114502],[3.851709587996087,51.45256738113726],[3.852485453360805,51.45234474715904],[3.852654181670444,51.452418886794376],[3.853394107683923,51.451853253572494],[3.854289583335523,51.45243678866787],[3.854603777546562,51.45225032740274],[3.854711921540947,51.452329062227825],[3.854895934412353,51.452504986778195],[3.854913452569538,51.452540277993656],[3.854937682842641,51.452675446777796],[3.854882299756399,51.45291025843349],[3.854916144477863,51.453059038542236],[3.854943005151127,51.45311602853392],[3.854987354126513,51.4532092083304]]]]}},{"type":"Feature","properties":{"gezicht_uri":"https://linkeddata.cultureelerfgoed.nl/cho-kennis/id/gezicht/10134378","gezichtsnummer":"1509","naam":"Kloetinge"},"geometry":{"type":"MultiPolygon","coordinates":[[[[3.918438621035014,51.49705182343689],[3.91851260628534,51.49734762288865],[3.918729169922038,51.49733146805697],[3.918813264444449,51.49762649544731],[3.919025067541523,51.498025613566085],[3.919067842552176,51.498083686791766],[3.918747942148771,51.49817765379597],[3.918555925839006,51.49823637000032],[3.918204146172731,51.498336227465884],[3.918034072727377,51.498384431013065],[3.91813653810642,51.49855652840471],[3.917934423832094,51.49857106603603],[3.918185143384314,51.49901382691108],[3.918221474039297,51.49904844562271],[3.91836697798918,51.499270528704265],[3.918316122184739,51.49928427277223],[3.918199798407035,51.499362819435596],[3.918082411782799,51.49942966574225],[3.917944444308521,51.499464788303484],[3.91793092331265,51.49974959801674],[3.917584112552637,51.499739839448054],[3.91678830961028,51.49967318395032],[3.916741027282335,51.4999773461993],[3.916887681346159,51.49998548595712],[3.916807242426879,51.50033507919982],[3.916880845999433,51.50033061213034],[3.9169306779533,51.50048226997976],[3.916977381774023,51.500597029818074],[3.916110102603523,51.50069128806315],[3.916026801745079,51.50086194568218],[3.916016506122331,51.50091305840927],[3.915426359572939,51.500900227284085],[3.915078086404136,51.50093539243441],[3.915042280201338,51.50088459752466],[3.914692585727252,51.50025179360769],[3.915258595652071,51.50016453629955],[3.915245855437239,51.50011313323192],[3.915412186387047,51.50009185621054],[3.915142129495448,51.499223622896615],[3.915106193531864,51.499132371776845],[3.915136311621367,51.499047347391894],[3.915066068808933,51.498814522196746],[3.914895379583873,51.498792592179754],[3.915059770440158,51.49825257363593],[3.915132396027701,51.49814471144073],[3.915162135343341,51.49807136915254],[3.915249041217293,51.49796728289028],[3.915354474330404,51.49791377359689],[3.915640218543408,51.49776274895397],[3.915886681949909,51.49762381450467],[3.916122368481173,51.49750631953664],[3.916314194583264,51.497408948344386],[3.916454148783738,51.49735677195542],[3.916569317845482,51.49758117227495],[3.916767951440348,51.49754052248341],[3.916775660091133,51.49756938725836],[3.917391685867258,51.49744858816939],[3.917329188726891,51.497287781123326],[3.91755966780243,51.49724213696369],[3.918033802488215,51.497188770683124],[3.91801372787243,51.497096821077264],[3.918438621035014,51.49705182343689]]]]}},{"type":"Feature","properties":{"gezicht_uri":"https://linkeddata.cultureelerfgoed.nl/cho-kennis/id/gezicht/10134380","gezichtsnummer":"1510","naam":"Hulst"},"geometry":{"type":"MultiPolygon","coordinates":[[[[4.065064229520192,51.274458583586174],[4.064998474043136,51.27782720011815],[4.076295684453499,51.28634603458326],[4.076957743657473,51.28700614485444],[4.077200850416404,51.28712754592224],[4.079769017201141,51.288011346866355],[4.079995533216988,51.28806153670185],[4.08038575136271,51.288303247646745],[4.079959908096798,51.28865625721386],[4.079869752380048,51.28885122089849],[4.079321804089336,51.2893628739978],[4.078977919904816,51.28970691229137],[4.078444994326532,51.289842959146426],[4.07793076833828,51.29002685954985],[4.077470120247811,51.29029226826766],[4.07719272620381,51.290516587053645],[4.076673203633756,51.29093505464045],[4.075662115969162,51.290295283273345],[4.075221194696035,51.2899720772484],[4.074833975169255,51.289776230408634],[4.07447531508985,51.28973442900286],[4.074099766287246,51.289681648264065],[4.073875581059679,51.28950022297002],[4.073458273975372,51.28885454462136],[4.073130189865923,51.288447201375654],[4.072908092912567,51.28824332333869],[4.072647392860833,51.288085755570854],[4.072125300901677,51.28779488274547],[4.071959931169866,51.287662662791284],[4.069083052390202,51.28595532678752],[4.067925772451947,51.2867144347334],[4.066562270173452,51.28622251426706],[4.066678076513873,51.285190005994984],[4.065396305776962,51.2850469024285],[4.065197932086204,51.28496643840629],[4.064545050695282,51.2847396704766],[4.063906632378298,51.28445912469645],[4.063632779250512,51.28436161816928],[4.061666275866519,51.28346003871135],[4.061301343094579,51.283290470071094],[4.060683053280023,51.28300923661355],[4.06056877592345,51.28294590463379],[4.060370315450179,51.28281958342564],[4.058296713175315,51.28358702462239],[4.057589353430592,51.28380638690374],[4.055918311863619,51.28472761491806],[4.055792950200291,51.28479899808096],[4.055609904019851,51.28483286306718],[4.054014159200337,51.28503664247635],[4.052951026279228,51.285164700167655],[4.052471039767592,51.28520504451448],[4.051348846475885,51.285244310442415],[4.050909492763436,51.28521859033528],[4.050490648922109,51.28517782149271],[4.04984269272691,51.285030137201964],[4.049280920812347,51.284827703365416],[4.048968444549292,51.28477736396733],[4.048542731441968,51.28482460899458],[4.048269711843962,51.28484663983294],[4.04796398120268,51.28481075899357],[4.047729444554821,51.28474243451749],[4.047493752311152,51.28461566263501],[4.047172619873901,51.28432249443828],[4.047246122505491,51.28377046867243],[4.047286185658732,51.28352820561215],[4.047281756583613,51.28343466081157],[4.047218257827297,51.28335122367112],[4.047080373737882,51.28326243509466],[4.046561427272601,51.28311621766768],[4.04482120425769,51.283701171695945],[4.042889187395975,51.284371984865246],[4.041694791871334,51.284770814485775],[4.040455156881292,51.285196077931786],[4.039328038531409,51.28384444875443],[4.037750787389066,51.28191224211724],[4.037346325473241,51.28143378886217],[4.037121129061368,51.28114709878466],[4.03695627805337,51.28085571451663],[4.03682393587279,51.280579989883236],[4.036628402949629,51.279822577089476],[4.0366021976387,51.27915612825114],[4.036633582977207,51.278918262595674],[4.036699330419862,51.27868169468279],[4.036846665562742,51.278254590578044],[4.037213532710354,51.277576520638796],[4.037318652466986,51.2773655805988],[4.039058822532291,51.277312935591375],[4.040091461558588,51.27724218767343],[4.040007513018367,51.277562151817804],[4.046065014909682,51.278336019743435],[4.046872687237141,51.27743106300307],[4.048282470495485,51.277549775300365],[4.04842668730655,51.2774705263788],[4.048563108739528,51.2774127631063],[4.048991090874786,51.277285535511446],[4.04943669952171,51.277192670182664],[4.049649058895252,51.277135778576856],[4.049869872383201,51.277132922464986],[4.049954671919899,51.27712490714881],[4.050013811728696,51.27711210203471],[4.050381807771186,51.277026432081314],[4.050697564825248,51.27696263549991],[4.050860051297911,51.276944723973216],[4.050806316195654,51.276772401990534],[4.05078774599946,51.27662295828409],[4.050790448135021,51.27653039451923],[4.050791380378437,51.27630206465848],[4.05082777764612,51.27628270511151],[4.050890044054438,51.27626094568132],[4.051075610189793,51.27623790502844],[4.05233087650952,51.276100383399054],[4.05290108630748,51.27605927694437],[4.053176681240496,51.276045355991045],[4.053774688638116,51.275984786404045],[4.054246968498174,51.275959631790485],[4.054608451732698,51.27594938815572],[4.054935286188622,51.27594773650788],[4.055128295307462,51.27596432965798],[4.055676664503558,51.27598409012119],[4.055941078776804,51.27600958972361],[4.056235085726932,51.27605250776474],[4.056523205299974,51.27610075160403],[4.056741196473638,51.27614549603993],[4.056874652599165,51.276189273708866],[4.057017045271216,51.27622146666316],[4.057239620009678,51.27630581756429],[4.057482800244365,51.27642096872133],[4.057951057271278,51.27668252690858],[4.058205832275092,51.2768427578354],[4.058276403973978,51.276880421833305],[4.058510836393163,51.277000864762606],[4.058554836834345,51.27701575077073],[4.058621945179745,51.2770246077366],[4.058658640802672,51.27655036661351],[4.058669037197536,51.27648845586252],[4.058703271330905,51.27639535303662],[4.058736023333077,51.27620514372416],[4.058775045078504,51.27540370134614],[4.059341712195304,51.27449590884977],[4.059396757027644,51.27442641671318],[4.059545894004117,51.274374179690824],[4.059924583457601,51.27416544197833],[4.060236920632983,51.273921785311224],[4.060379595153577,51.27394408865445],[4.06037641776387,51.27405372764437],[4.060427476241412,51.274171176838856],[4.060597896197411,51.27432414793401],[4.060684096063346,51.274366483536994],[4.060793428392164,51.27440189093303],[4.060955980970941,51.2744307129711],[4.061186445756769,51.274440531165],[4.061396589059005,51.27436021967337],[4.061608110698771,51.27423227772765],[4.0617631836565,51.2741729136909],[4.061926516464298,51.27417477395302],[4.062068620368854,51.27421684620627],[4.062260927365101,51.27435657940279],[4.0623694547363,51.27441984442679],[4.062476757680424,51.27447590359342],[4.062629256319641,51.27450550780663],[4.062771099038099,51.27450712225857],[4.062992104068641,51.27444760799188],[4.06310179902492,51.27442098793266],[4.063211523207405,51.274442912848144],[4.063637021092348,51.274399208474044],[4.063917554746261,51.274412287654854],[4.064299346609757,51.27444269890961],[4.064720550226944,51.27444838547137],[4.065064229520192,51.274458583586174]]]]}},{"type":"Feature","properties":{"gezicht_uri":"https://linkeddata.cultureelerfgoed.nl/cho-kennis/id/gezicht/10134381","gezichtsnummer":"1511","naam":"Dreischor"},"geometry":{"type":"MultiPolygon","coordinates":[[[[3.98551812177523,51.686953630529025],[3.986917499315282,51.68963760080009],[3.985413328952622,51.690008856528635],[3.985339543580936,51.6898227865313],[3.985189562538438,51.689855151659806],[3.985080429803969,51.68982957298374],[3.984507451600871,51.689882941788156],[3.98456966982913,51.69002212761872],[3.983569140105021,51.69028971748334],[3.983516479630758,51.69026211732688],[3.98314766810471,51.69030803800018],[3.983049958166578,51.69005425725888],[3.9830341699559,51.69000372590264],[3.982315479749318,51.69013804153131],[3.982235136562153,51.69002380802035],[3.982223296092073,51.689985909423434],[3.982101442404995,51.689857693298194],[3.981883002677096,51.689672582136154],[3.981755088237314,51.68955328255175],[3.981696261507773,51.68949144686881],[3.98133570355628,51.688992687808295],[3.981112478692123,51.68868256147761],[3.98104851985545,51.688553241408194],[3.981033767904472,51.68846946046992],[3.981024359000831,51.68835338092892],[3.9812412917036,51.68830744156497],[3.981129932444318,51.6877487458331],[3.981068048429546,51.687506180996444],[3.98551812177523,51.686953630529025]]]]}},{"type":"Feature","properties":{"gezicht_uri":"https://linkeddata.cultureelerfgoed.nl/cho-kennis/id/gezicht/10134382","gezichtsnummer":"1512","naam":"Colijnsplaat"},"geometry":{"type":"MultiPolygon","coordinates":[[[[3.84996476302553,51.59747044995909],[3.849864334484264,51.59787817259698],[3.850415392917975,51.59793126484678],[3.850262672562986,51.59873206049972],[3.850532080170144,51.59913115905158],[3.850704380277171,51.59928625231837],[3.850922428193801,51.599454532279346],[3.850781078769324,51.59953628174337],[3.850720385549899,51.59953818127344],[3.850726911975987,51.59960119668899],[3.850544850748503,51.60054364831704],[3.850472743028827,51.601010178221145],[3.849530696324081,51.601289968263664],[3.849503537173223,51.60145232928253],[3.849330638101216,51.60161277378158],[3.849215272326242,51.60165171135497],[3.848376907783743,51.60164068231948],[3.848371053471888,51.6018132124077],[3.846770003327547,51.60181550707739],[3.846757218872968,51.601596882706566],[3.845981063959757,51.60162441376803],[3.84596507679437,51.60150014163113],[3.844825021558538,51.6015309593227],[3.844469224033117,51.60048972339906],[3.844442401040828,51.600344631132785],[3.844401338204943,51.600024046712505],[3.844567954835624,51.59945448319135],[3.844627033207922,51.599330302055535],[3.844732740075957,51.59898108789181],[3.845741787419751,51.59906541428825],[3.845898772122185,51.598481338103056],[3.84605332501686,51.5978837447235],[3.846353504698752,51.597758245160826],[3.846390009462364,51.597618482790445],[3.846601648938713,51.59763475627404],[3.846615214420046,51.597617854073285],[3.846680020086983,51.597622303846975],[3.846714553672718,51.59745554553311],[3.846965057495626,51.597475027348054],[3.847022758059571,51.59726362430311],[3.848310146650747,51.597354291669376],[3.849060399277672,51.597407314706466],[3.849353945179795,51.5974345495289],[3.849773292281122,51.597455346740816],[3.84996476302553,51.59747044995909]]]]}},{"type":"Feature","properties":{"gezicht_uri":"https://linkeddata.cultureelerfgoed.nl/cho-kennis/id/gezicht/10134383","gezichtsnummer":"1513","naam":"Brouwershaven"},"geometry":{"type":"MultiPolygon","coordinates":[[[[3.914432555409599,51.729053049278285],[3.914108686082384,51.729306983363045],[3.913868908602972,51.72951253044538],[3.913703751118829,51.72969384419508],[3.913672996396436,51.72988224182767],[3.913018640957289,51.72961600574626],[3.91133868801644,51.72972431007609],[3.91078043439604,51.72970738853564],[3.909049915971527,51.72963522815474],[3.907925378042295,51.72958148174437],[3.907814123741395,51.72953063355246],[3.907769170575634,51.72948871316159],[3.907714818229321,51.72938014997254],[3.907632054329554,51.72925504645943],[3.907539985362312,51.72910465409428],[3.907372188876376,51.72887958936485],[3.907124683633278,51.728613063690865],[3.90705172829278,51.728497972350176],[3.906899382894618,51.72828748566555],[3.906814204647593,51.72819201718352],[3.906615081001839,51.727951272910914],[3.90653187687152,51.72779559785029],[3.906503281432964,51.72769634926997],[3.906482771047975,51.72752708282618],[3.906504846664747,51.72738352584539],[3.906567139698344,51.727205417068866],[3.906645820335971,51.72701313174118],[3.906744165013646,51.72679502455805],[3.906787418766663,51.72671196642364],[3.906870918579423,51.7265934577708],[3.907121361268219,51.72628377846426],[3.907413698672504,51.72593237595916],[3.90796869110881,51.725295718227116],[3.908189333187659,51.72505578050605],[3.908304982292797,51.72492778797622],[3.908586267906205,51.72464816112352],[3.908783759225116,51.72445197991321],[3.909170509670561,51.72413412756695],[3.909360908608513,51.72393336107072],[3.909753592355432,51.723655136575935],[3.909980798454298,51.7235681040311],[3.910203163733204,51.72349629259281],[3.910420365425225,51.72344958693698],[3.910952354619549,51.72333762662095],[3.911567576364435,51.72320333891033],[3.912247874632493,51.723070766242984],[3.913082142485383,51.72287719881763],[3.913405945260038,51.72275721404057],[3.913511262572277,51.7227234788198],[3.913702717804955,51.722711503268805],[3.91391092014102,51.72271861645204],[3.914013952142041,51.72275497200679],[3.914123574258175,51.72281118775201],[3.91510527206545,51.72337909231911],[3.915363747570365,51.723531569285434],[3.915529626601695,51.723593884226126],[3.915713060527095,51.72360607689188],[3.915992324978277,51.72365363364096],[3.916254022482593,51.723707261985766],[3.916515428172235,51.72376987581056],[3.916748524705852,51.723857305007364],[3.916900843514222,51.72398057797044],[3.917006116655691,51.72408168503929],[3.917105719535645,51.72417912496893],[3.917355685473318,51.72428204713408],[3.917552248270955,51.72442475269361],[3.917700508476144,51.72458393258735],[3.917743405500343,51.72464470179662],[3.917716236233153,51.72472347066889],[3.917668942601274,51.72493143924508],[3.917648029201472,51.72508490132597],[3.917678709063354,51.72525429305049],[3.917736384544356,51.725439305877636],[3.91783314367377,51.725668858491986],[3.917948377687938,51.7258644817161],[3.918075057865806,51.7261087928691],[3.918195789840265,51.726313474487334],[3.91823259546183,51.72642810548261],[3.91833681215371,51.72660650966768],[3.918499597257698,51.72680902120726],[3.918658111611252,51.726875734102606],[3.918910522798668,51.72699306697135],[3.919122419010044,51.7271098916551],[3.919540560254094,51.72738392281549],[3.919759537015731,51.727550278486035],[3.91982640213556,51.72772012270165],[3.919831390309723,51.72778940604515],[3.919776495606322,51.72787501991473],[3.91965433650733,51.72798136663905],[3.919484232525382,51.728048456863455],[3.919317635158256,51.728096712353256],[3.918992871728552,51.728156470406546],[3.918653286528795,51.728226829471645],[3.918130408132433,51.728324555705356],[3.917977007082746,51.728367580924875],[3.917878930348378,51.728445460684014],[3.917796127980423,51.728543309313345],[3.917720385199742,51.72864664025863],[3.917631912247,51.72891881835919],[3.917569660341459,51.72909693314404],[3.91752098750319,51.729347136029695],[3.91744861974253,51.72956917352948],[3.917407400278847,51.72976822841633],[3.917334972669537,51.729903064751625],[3.917145841044978,51.72997620577934],[3.916961591373392,51.729988277620166],[3.91685804341582,51.729967200910295],[3.914842857377819,51.72921193014926],[3.914432555409599,51.729053049278285]]]]}},{"type":"Feature","properties":{"gezicht_uri":"https://linkeddata.cultureelerfgoed.nl/cho-kennis/id/gezicht/10134384","gezichtsnummer":"1514","naam":"Borssele"},"geometry":{"type":"MultiPolygon","coordinates":[[[[3.737911757754098,51.4215585141511],[3.737495174402596,51.422421081977674],[3.738729304811937,51.422649805115924],[3.740167740076162,51.42291556370729],[3.739739177126538,51.423831911602456],[3.738392180545035,51.42358182525236],[3.73849889225978,51.424090385101636],[3.738246262607129,51.42411738024122],[3.73842313048986,51.42475369487978],[3.738499444771637,51.425148547530725],[3.738497397127101,51.425205157273645],[3.738333462384547,51.425483335980104],[3.739890374076126,51.42577594484865],[3.739466536860368,51.42664021512217],[3.736617683321959,51.42612344601048],[3.736615926146308,51.426171968607214],[3.735830301350044,51.42602509387898],[3.735661194142568,51.426643927116004],[3.734970429903428,51.426498389942296],[3.733890141500825,51.42626821281481],[3.733606488936721,51.42619856228049],[3.73372652308884,51.42598180042838],[3.732898739197852,51.425847793508986],[3.731837948184196,51.425675411475396],[3.731171776997153,51.42556616173228],[3.732564815869989,51.424508898817585],[3.731147575959298,51.424253236811175],[3.732067442912759,51.422048393094975],[3.732501936364909,51.4220024153835],[3.733066104118452,51.42194928520171],[3.733364813244632,51.42192025778545],[3.734505524566907,51.42182944525738],[3.735955291028437,51.421701642865465],[3.736868062195625,51.421591397058194],[3.736932567787483,51.42155724784739],[3.737008845766481,51.42139650233908],[3.737911757754098,51.4215585141511]]]]}},{"type":"Feature","properties":{"gezicht_uri":"https://linkeddata.cultureelerfgoed.nl/cho-kennis/id/gezicht/10134552","gezichtsnummer":"1653","naam":"Goes"},"geometry":{"type":"MultiPolygon","coordinates":[[[[3.891515199720174,51.50564783175219],[3.891709288708678,51.50570335828678],[3.891574263874794,51.50582299316339],[3.891536468866269,51.50631515792498],[3.891619350001538,51.50642319978532],[3.891809737340882,51.50632854668023],[3.892103033130091,51.50625858476174],[3.892187991023692,51.50625967249626],[3.892477003076515,51.506320008944876],[3.892652996714657,51.506356423369155],[3.892729780442325,51.50638707289048],[3.892851521210408,51.50645245946283],[3.893208128678703,51.506691659888205],[3.89340797131691,51.50683535855052],[3.893549779240829,51.50694774875685],[3.89358867593711,51.507035448682934],[3.893564213115746,51.507122338186385],[3.893488582932521,51.507231947027485],[3.893108701949241,51.50752555312886],[3.892974613364204,51.50766048450077],[3.892952009280932,51.50769076105331],[3.892922575213159,51.50779736468607],[3.892548031339146,51.50775301558857],[3.89253087075066,51.50827511143447],[3.892472361271293,51.50825818063505],[3.892280165644958,51.50823234652336],[3.89215323647894,51.50823701450582],[3.892215615174742,51.50831153061738],[3.892091122659296,51.5083297146392],[3.89182642314951,51.50831823437017],[3.891709928543365,51.508312247563985],[3.891248122711279,51.508292847598106],[3.891012194636067,51.508282633046875],[3.891012218803545,51.508457038232976],[3.891032488812563,51.50849775267962],[3.890465569987734,51.50856420529066],[3.890503358486595,51.50872920557918],[3.890353180042437,51.508739866594865],[3.889964033554008,51.508788817493354],[3.889858190359822,51.50832807424812],[3.889498254697391,51.50801510334131],[3.889156507238699,51.507981052919384],[3.888309763520116,51.50779578242947],[3.887951763753185,51.50777410577293],[3.887585360343756,51.5079635838838],[3.887448327006592,51.50805621848727],[3.887195792067048,51.50837481504935],[3.887260738960433,51.508589610064185],[3.887287894600713,51.50890191007329],[3.88705781345426,51.508889065667326],[3.886484082572256,51.508899673841604],[3.886467721401275,51.5088715947355],[3.885438774254637,51.50892489247917],[3.885449029821169,51.50874522533597],[3.885475094532302,51.50847945795947],[3.885500343603114,51.508282003719856],[3.885535538246056,51.50804512158128],[3.885423867039627,51.50784950252585],[3.885284628939737,51.507659821764676],[3.885172751974671,51.507470492766544],[3.885131926582124,51.507398048010046],[3.884996090813808,51.50723627949572],[3.884862497547717,51.50705026678894],[3.884862942854971,51.50703678758749],[3.884803338982071,51.506878696548924],[3.884773529510542,51.5066472711984],[3.884746154712979,51.50625495697758],[3.884740305606748,51.50608317358961],[3.884714030045297,51.50591921833364],[3.884674810003598,51.50579824829104],[3.884602397198752,51.505722699884394],[3.88455609644566,51.505685245263784],[3.884381077400557,51.50557601245638],[3.884127634982418,51.50544239604826],[3.883895495954665,51.505318043295624],[3.883738872170332,51.50521893526971],[3.883599973809515,51.50510657033686],[3.88354781191262,51.505028585022316],[3.883540168814402,51.50495476895145],[3.883578913965718,51.50491571206229],[3.88364439355754,51.50489587831518],[3.883827797681964,51.504882057818875],[3.883995945069596,51.50463250376862],[3.884127318813542,51.504580255177316],[3.884545975958254,51.504422026287784],[3.884838839809567,51.50432151121171],[3.885535746126941,51.50406886799734],[3.885794137210653,51.50396521024087],[3.88601695672453,51.50323719181944],[3.886131484984718,51.502996834416194],[3.88611662249103,51.502879773950305],[3.886114734954298,51.50280603206177],[3.886057024952778,51.5024160251319],[3.886019907505029,51.50214405131132],[3.88598232946263,51.50184240469707],[3.885946075566844,51.50163157363164],[3.885962399130102,51.50148614623386],[3.886105811007817,51.50133066579921],[3.886149538983654,51.50131504603594],[3.886269500850427,51.50125905244083],[3.886356541385423,51.501240393374395],[3.886431855877,51.50122787649574],[3.886582827555788,51.501236109828646],[3.886838773604909,51.5012933386535],[3.886958946507413,51.50131825665134],[3.88746943096237,51.5014317949923],[3.888642128951826,51.50173183292492],[3.888835707976485,51.50162733677592],[3.889125645673673,51.501483621863194],[3.889972322271267,51.50105487320458],[3.890342417340756,51.50088251632177],[3.890567370819782,51.50091866275057],[3.890935949490061,51.50096743726912],[3.891077395624555,51.5010025125633],[3.891198389231081,51.5010463155871],[3.89138120582268,51.5010936074839],[3.892072131886821,51.50128315462443],[3.892337691336177,51.501354878338034],[3.892400422739001,51.501374560324145],[3.892534000218341,51.501386159243125],[3.892570349835427,51.501375836610805],[3.892719919930548,51.50133909433518],[3.892902871075368,51.50129468812658],[3.893055467853375,51.501253489188755],[3.893258870763998,51.501200354192726],[3.893449196923901,51.50115064753249],[3.893592976859736,51.50111472907089],[3.893754240728721,51.501072741103464],[3.89391688509526,51.50103256855943],[3.893954644416537,51.50102316252404],[3.893999602718463,51.50101384853995],[3.894058634488275,51.50101460344438],[3.894131769264984,51.5010245285992],[3.894234874402473,51.50104292786982],[3.894323227673359,51.50107192636734],[3.894347350358586,51.50108302271607],[3.894385576135987,51.501103289309725],[3.894406760260762,51.50111614606438],[3.894422155691847,51.5011298278025],[3.894443133389389,51.50114897486954],[3.894479182156552,51.50119168845058],[3.894503830506147,51.50123066030133],[3.894526626211808,51.50128219437904],[3.894540016342185,51.501356982058866],[3.894539445500089,51.501462157061596],[3.894527267641961,51.50156988066526],[3.894511915163111,51.50168655362368],[3.894491913406601,51.5018571067837],[3.894494138921133,51.501920963808445],[3.894499131431517,51.501944401476166],[3.894511411572033,51.50196523532533],[3.894540851720735,51.501989884515744],[3.894591505991101,51.50202649180407],[3.894674893139774,51.502075204399226],[3.894932313815934,51.50221963660327],[3.895052488912297,51.50228859693563],[3.895145572688106,51.502349120018835],[3.895228607281509,51.502408615627985],[3.895273532668089,51.502444250415316],[3.895308349723726,51.50248065502615],[3.895323716408363,51.50249523526412],[3.895341756463641,51.5025161426132],[3.895361030052333,51.50254335867611],[3.895370372097986,51.50256595287849],[3.895378274302999,51.50258852868426],[3.895381621159747,51.50261823823984],[3.895379031760091,51.50265326591523],[3.895372505982631,51.502676556379015],[3.895364746676765,51.50269353812589],[3.895355576987535,51.5027096028589],[3.89534799452748,51.50272119290141],[3.895335974594242,51.50273632222307],[3.895310642233673,51.502762069379855],[3.895294361664722,51.50277534627248],[3.895267854703892,51.502792987468304],[3.895247284019821,51.50280531054523],[3.895195945699125,51.5028334223701],[3.895121392696488,51.502866631492],[3.895070349048348,51.50288575708986],[3.895001909108689,51.502908256328304],[3.894907463158912,51.5029331201495],[3.894782662070753,51.50296119189744],[3.894740552231679,51.50297144159938],[3.894601234347618,51.503002923581704],[3.894448839523891,51.50303783419876],[3.894251454687814,51.50308295732199],[3.894043901892456,51.503130647073796],[3.89392059861424,51.503156939074636],[3.893821802454245,51.50318264538776],[3.893768055220189,51.5031963418821],[3.893740314114493,51.50320767399502],[3.893721153190604,51.503220913833125],[3.893707840260446,51.50323153148447],[3.893689912620139,51.503251080050205],[3.893680624187374,51.50327073911463],[3.893658341268622,51.50333518167163],[3.893632853918229,51.50340947217126],[3.893596933204313,51.50349441713832],[3.893526908663887,51.5036966940688],[3.893500010517947,51.50377006750058],[3.893471613366881,51.50384521973885],[3.893446627170698,51.503904233712454],[3.893424520693529,51.5039632845205],[3.893409377503264,51.5040296163574],[3.893273644149452,51.50443422518384],[3.89311588386092,51.50454458096618],[3.893030479538743,51.504601023787814],[3.89291292447945,51.50467143902715],[3.892839422855016,51.504716347106964],[3.892767479118746,51.504757679103285],[3.892676727720603,51.50480146732186],[3.892598588206099,51.50481215411568],[3.89250331729865,51.504818126598714],[3.892464528094902,51.504814933091076],[3.892412809165247,51.50481067506085],[3.89238290317957,51.504931656439005],[3.891807577765747,51.50543042379598],[3.891675235101977,51.50551233537143],[3.891572134120561,51.50558113642514],[3.891515199720174,51.50564783175219]]]]}},{"type":"Feature","properties":{"gezicht_uri":"https://linkeddata.cultureelerfgoed.nl/cho-kennis/id/gezicht/10134573","gezichtsnummer":"260","naam":"Oostsingel"},"geometry":{"type":"MultiPolygon","coordinates":[[[[3.894032432434398,51.50387486742199],[3.894013442544383,51.503926766236475],[3.893988368491499,51.50398847617827],[3.893569719941931,51.50392828316655],[3.893569690429462,51.503929181783086],[3.893446627170698,51.503904233712454],[3.893471613366881,51.50384521973885],[3.893526908663887,51.5036966940688],[3.893596933204313,51.50349441713832],[3.893632853918229,51.50340947217126],[3.893658341268622,51.50333518167163],[3.893680624187374,51.50327073911463],[3.893689912620139,51.503251080050205],[3.893707840260446,51.50323153148447],[3.893721153190604,51.503220913833125],[3.893740314114493,51.50320767399502],[3.893768055220189,51.5031963418821],[3.893821802454245,51.50318264538776],[3.89392059861424,51.503156939074636],[3.894043901892456,51.503130647073796],[3.894251454687814,51.50308295732199],[3.894448839523891,51.50303783419876],[3.894601234347618,51.503002923581704],[3.894740552231679,51.50297144159938],[3.894782662070753,51.50296119189744],[3.894907463158912,51.5029331201495],[3.895001909108689,51.502908256328304],[3.895070349048348,51.50288575708986],[3.895121392696488,51.502866631492],[3.895195945699125,51.5028334223701],[3.895247284019821,51.50280531054523],[3.895267854703892,51.502792987468304],[3.895294361664722,51.50277534627248],[3.895310642233673,51.502762069379855],[3.895335974594242,51.50273632222307],[3.89534799452748,51.50272119290141],[3.895355576987535,51.5027096028589],[3.895364746676765,51.50269353812589],[3.895372505982631,51.502676556379015],[3.895379031760091,51.50265326591523],[3.895381621159747,51.50261823823984],[3.895378274302999,51.50258852868426],[3.895370372097986,51.50256595287849],[3.895361030052333,51.50254335867611],[3.895341756463641,51.5025161426132],[3.895323716408363,51.50249523526412],[3.895308349723726,51.50248065502615],[3.895273532668089,51.502444250415316],[3.895228607281509,51.502408615627985],[3.895145572688106,51.502349120018835],[3.895052488912297,51.50228859693563],[3.894932313815934,51.50221963660327],[3.894674893139774,51.502075204399226],[3.894591505991101,51.50202649180407],[3.894540851720735,51.501989884515744],[3.894511411572033,51.50196523532533],[3.894499131431517,51.501944401476166],[3.894494138921133,51.501920963808445],[3.894491913406601,51.5018571067837],[3.894511915163111,51.50168655362368],[3.894527267641961,51.50156988066526],[3.894539445500089,51.501462157061596],[3.894540016342185,51.501356982058866],[3.894526626211808,51.50128219437904],[3.894503830506147,51.50123066030133],[3.894479182156552,51.50119168845058],[3.894443133389389,51.50114897486954],[3.894422155691847,51.5011298278025],[3.894537138764357,51.50109354002195],[3.894654912790393,51.50105998478785],[3.89465215114289,51.50105635351032],[3.894732903009267,51.50100973903153],[3.894792691408702,51.50107523080378],[3.894795453068589,51.501078862078025],[3.894837054929859,51.50112793948108],[3.894841256399866,51.50113158915658],[3.894884416100002,51.50117709047676],[3.894888617578326,51.50118074015056],[3.894926195046602,51.50122077614554],[3.894934656985072,51.501226278255785],[3.894952170525519,51.50121931013119],[3.894975177943197,51.501220503161235],[3.89506432326817,51.50126928907936],[3.895053979285024,51.501277247836676],[3.89515749342415,51.50132711629762],[3.895232535814877,51.501366731931064],[3.895294855835294,51.50139899300862],[3.895034485715843,51.50138847396961],[3.895058903552177,51.50139058400065],[3.895071773415819,51.50139344544838],[3.8950846138007,51.501397205511886],[3.895094486122987,51.50140362462721],[3.895104328968047,51.50141094235888],[3.895108383085833,51.50141908511089],[3.895108029326477,51.5014298685173],[3.895065154479716,51.50146348239039],[3.894978456320739,51.501603516478035],[3.894971286711461,51.5016025258573],[3.895091696090099,51.501664297208904],[3.895188012037349,51.50171407364844],[3.895261801246872,51.50166017788003],[3.895411799012792,51.50174210482009],[3.895342476698432,51.501791562785606],[3.895445815479525,51.50184682269859],[3.895476931672527,51.50186430111153],[3.895468086398446,51.50187048106493],[3.895536166586587,51.50190281559442],[3.8954242343483,51.50197780008001],[3.895334370849343,51.50203868252791],[3.895402421717509,51.502071915752886],[3.89549318583627,51.50211532804099],[3.89550878823921,51.502122719316496],[3.895634929601958,51.50218546230795],[3.895619706056432,51.502210439665504],[3.895739090638407,51.50225961132132],[3.89608578987203,51.5023611305875],[3.89631983270621,51.50242794768036],[3.896291238435091,51.50246534031272],[3.896259587672895,51.50250808787296],[3.89622943561745,51.50254905657461],[3.896185706202142,51.5026087307628],[3.896143563826934,51.50266393023312],[3.89610885631077,51.502712032682574],[3.896072738327187,51.50275921811652],[3.896069681843517,51.502764573046434],[3.89603656134272,51.502808200773714],[3.896016929842066,51.50283581887085],[3.895994330208765,51.50286609604012],[3.895979283412412,51.502885681738846],[3.895950629641389,51.50292487151916],[3.895944605016084,51.50293288552001],[3.895911454806058,51.5029774118277],[3.895908457219433,51.50298096951844],[3.895905430166819,51.50298542582646],[3.895836131928652,51.5030780360976],[3.895778853313379,51.50315551696024],[3.895665987859651,51.50312710549814],[3.89546167850841,51.50307594987668],[3.895367590641629,51.50304598002519],[3.895316227163602,51.5030309398812],[3.895291867390221,51.50302703266638],[3.895271650343157,51.503028572341194],[3.895261423905999,51.50303293664585],[3.895246701003558,51.50304263745993],[3.895233359001538,51.503054153904074],[3.895213903782406,51.503076380160586],[3.895167115908948,51.503141408864586],[3.895070954838333,51.503262443243706],[3.895070925356087,51.503263341860766],[3.89503187673784,51.5032241861278],[3.894955381865348,51.50327265322937],[3.894928874482002,51.503290294345945],[3.89487221821804,51.503304853163264],[3.894703866020828,51.50334315615196],[3.894700956784528,51.50334401796032],[3.894586292544197,51.50337042108848],[3.894503570862305,51.50338914150446],[3.894419409237594,51.503407843453786],[3.894323610549374,51.503429992538194],[3.894242358027855,51.50344783256036],[3.894194458610731,51.50345890703942],[3.894158332400445,51.50355014250016],[3.894158214398367,51.50355373696716],[3.894137784908147,51.50360561739309],[3.894134728139264,51.503610972270906],[3.894115797481974,51.50366107387048],[3.89411423959295,51.50366464992579],[3.894081228844228,51.503748733249495],[3.894081140337597,51.50375142909961],[3.894057565368847,51.503811360236355],[3.894032432434398,51.50387486742199]]]]}},{"type":"Feature","properties":{"gezicht_uri":"https://linkeddata.cultureelerfgoed.nl/cho-kennis/id/gezicht/10134592","gezichtsnummer":"254","naam":"Middelburg - Noordweg"},"geometry":{"type":"MultiPolygon","coordinates":[[[[3.606127203553763,51.52210387828013],[3.60612246342929,51.522077733601805],[3.606123061989467,51.522062458914945],[3.605912989723606,51.522053860781796],[3.605590750435364,51.52203905599546],[3.605518355691792,51.52197411919078],[3.605435984771316,51.5219063329965],[3.605323931589023,51.52182370910813],[3.605174924525275,51.52172793457991],[3.605015695177515,51.5216356000571],[3.604841746557892,51.52155113210881],[3.603958275241443,51.52114835782133],[3.603196530311855,51.52080227815154],[3.602739652402683,51.52058312266097],[3.602392195737969,51.52040339767783],[3.602162587827519,51.5202686273084],[3.602106376691908,51.52030552818328],[3.601449422573088,51.519897206013454],[3.601511288737056,51.51986308906777],[3.600957998891122,51.51949410908231],[3.600903510444923,51.519523843335456],[3.600798142754548,51.51945480293836],[3.599751967052777,51.51875731594861],[3.599551885708714,51.5186050111888],[3.599396133227931,51.51846147614357],[3.5993076724532,51.51836572168088],[3.599137396287752,51.51815183804753],[3.599049299089626,51.518010237408575],[3.599012014195386,51.51793234823105],[3.598943214484597,51.51773979715296],[3.598902202382177,51.517536882948704],[3.598891256921656,51.517338924396014],[3.598898494034032,51.51719159106144],[3.599091431641405,51.5160599446319],[3.599490713797332,51.51371144637347],[3.599657101975462,51.51274122157483],[3.599687172053278,51.51256277095576],[3.59988172558813,51.51171884398161],[3.600196333626742,51.51045959490191],[3.600266784118683,51.51046337018633],[3.600542005703743,51.509362649349335],[3.601033155123859,51.507385960412996],[3.601086436896748,51.50716650824317],[3.601146655834686,51.5070271776063],[3.601236941152866,51.50685594103397],[3.601289953107766,51.506753361138784],[3.601375275758,51.50663509250491],[3.601441880521014,51.506516537542794],[3.601462849335828,51.506496180090856],[3.601490840715428,51.50648042528504],[3.601537373074434,51.50646944927394],[3.601576283003508,51.506469145274195],[3.601621933267975,51.50648063198579],[3.601859904198796,51.506584065427894],[3.602183517720194,51.506744548754675],[3.602486735328545,51.50687415172273],[3.60266427912437,51.50693889975748],[3.602741112474784,51.506963449296954],[3.602881362691925,51.50702403084168],[3.602972806052182,51.5070434091911],[3.603121102025559,51.50708253619889],[3.603162539592219,51.507091260780705],[3.603481781929119,51.50717974967715],[3.604447732719815,51.507456125198296],[3.605792751359318,51.50783896990785],[3.606156041201278,51.50794340720451],[3.606778891168938,51.50708532404486],[3.607215221643729,51.50720076133301],[3.608341555560871,51.50621368904991],[3.608470862333413,51.50603854641868],[3.608810018964244,51.50613361742842],[3.608956982707039,51.50617001956786],[3.609164774848439,51.505903469502876],[3.609190550513407,51.505907458203794],[3.609284842774712,51.50566974718137],[3.609313533010868,51.50567288118826],[3.60932536795679,51.50562810898138],[3.609346122582475,51.505576280202845],[3.60952040565352,51.505613996670675],[3.609543301627299,51.50561794145188],[3.609646157943303,51.50564018547967],[3.60978497377389,51.505663875870056],[3.609706065890711,51.50580292617084],[3.609656410188382,51.505893873150704],[3.609616622377228,51.505953503653906],[3.609595446701138,51.505979253669864],[3.609562225786743,51.50601830602287],[3.609210488609789,51.50639234883156],[3.609154615970521,51.506458027592146],[3.608910438433003,51.50677077402613],[3.6088417461574,51.50686952218936],[3.608688276623921,51.507073066738734],[3.608900385996487,51.50713833167687],[3.609051110353104,51.50718917570615],[3.608957448652146,51.50730013036151],[3.608626978951128,51.50764572587842],[3.608445798425739,51.50782097753783],[3.608345215881696,51.50792463390996],[3.608065381401758,51.50819098400089],[3.607673404026093,51.508561712148364],[3.607453618746425,51.50876604258851],[3.60730558389813,51.508904037721585],[3.607756816950328,51.509154557194734],[3.60770631340848,51.50919334567675],[3.607841941011153,51.50926194209928],[3.60776713136474,51.50936958694193],[3.607386753228252,51.509958959758684],[3.607199862397091,51.51024290742889],[3.606671910919112,51.51011168860516],[3.606473883179458,51.51082700865899],[3.606656753178585,51.51086665824792],[3.606657348622661,51.510888244491795],[3.607133963369195,51.511006094027984],[3.60723784847278,51.51103914431729],[3.607295795995276,51.51106789811224],[3.60737182984023,51.51111311042307],[3.607454536025088,51.511171910103556],[3.607428018914111,51.511186789764835],[3.608424195555544,51.51194548162879],[3.608827100713153,51.512253698469955],[3.608957575675947,51.51234379214792],[3.60966752307063,51.51283289465395],[3.609788588706386,51.51290576222835],[3.611602788811207,51.51386117887836],[3.611906538392281,51.51401593794967],[3.61317154904187,51.51479395813701],[3.613426803317686,51.51493628878547],[3.609401396998042,51.51779608178321],[3.611312222719557,51.51805351291472],[3.612903803310042,51.51825751415302],[3.612512335767719,51.51990581202229],[3.611578568381522,51.519756761695454],[3.610835479095241,51.51963308047019],[3.609994907654958,51.5217078796285],[3.609314499908783,51.52138105911077],[3.60851533460658,51.5209957859083],[3.608377703463638,51.52094064589832],[3.606891285766216,51.52036777920353],[3.606894204094093,51.520330063679346],[3.6066456459538,51.5202372686343],[3.606630176182602,51.52041144807943],[3.606613008789453,51.52118077135873],[3.60687218716545,51.5211865206688],[3.606855356509108,51.52220488527375],[3.606496721021933,51.52219941770089],[3.606498800930023,51.522109544627305],[3.606127203553763,51.52210387828013]]]]}},{"type":"Feature","properties":{"gezicht_uri":"https://linkeddata.cultureelerfgoed.nl/cho-kennis/id/gezicht/10134594","gezichtsnummer":"323","naam":"Middelburg"},"geometry":{"type":"MultiPolygon","coordinates":[[[[3.617111167574252,51.50579764637549],[3.617063310470759,51.50584277223728],[3.617088841980708,51.505853048812625],[3.616880845895487,51.50608904181329],[3.616755005111781,51.50621300031271],[3.616277831771732,51.50670203786004],[3.616113962279142,51.50687756363305],[3.615764446942749,51.50723277938783],[3.61572501132831,51.50724656584951],[3.61568603076126,51.50724867159282],[3.615046221052354,51.50695666204058],[3.614702752968884,51.50678692299659],[3.613970550053938,51.50635235438652],[3.613616378200445,51.50616177140502],[3.61342157911192,51.50609587897593],[3.61324620162168,51.50604916128475],[3.613129014743487,51.506024904625605],[3.613004909478563,51.50599335034273],[3.612734892219577,51.50593530425832],[3.611836747575418,51.506025041870004],[3.611144805272784,51.50607295692787],[3.611123767080141,51.50594766925973],[3.611096091578338,51.50580789585644],[3.610886550339047,51.50582448730218],[3.610785695039737,51.50582475102103],[3.610682346297844,51.50581508718727],[3.609647597723851,51.50564020739871],[3.609346122582475,51.505576280202845],[3.60926033310734,51.50555969007906],[3.609402206937276,51.50532090539882],[3.609426683476014,51.50528441709802],[3.609460571364669,51.50522829302395],[3.609521078549131,51.50504401032213],[3.609427915571048,51.5050318032899],[3.609288645172434,51.505019793158084],[3.608841687860628,51.504992308326344],[3.608783464968754,51.50500760439459],[3.608668777215777,51.504956409815065],[3.608170799617977,51.504870606122225],[3.607861570401308,51.50482094164505],[3.607613690503775,51.504749735196626],[3.607534119365218,51.50472155092392],[3.607442504892071,51.50466980775324],[3.607125312246942,51.504529215987034],[3.606860477317347,51.50441279697234],[3.606680163354205,51.504345315876634],[3.606571027503965,51.50429959814942],[3.606432147179311,51.504277700988084],[3.606265912032994,51.504255386415394],[3.60604766750171,51.50427363446581],[3.605764807296588,51.504323262024265],[3.605600008522935,51.504337829431456],[3.605464039593735,51.504351937505675],[3.605327401645501,51.50438311714683],[3.605146342870431,51.504408224359956],[3.604955980443914,51.504413410196655],[3.603667164054658,51.5039226281523],[3.603455676392541,51.50384207910991],[3.604109152679316,51.503157994462754],[3.603101491670363,51.5022947972871],[3.604547660723681,51.50171002846722],[3.60417177255444,51.50141389559735],[3.602629998426735,51.50065401786178],[3.602108640523123,51.50006436224041],[3.600827222832854,51.49986585158179],[3.60094855955288,51.499563829042394],[3.600937121778399,51.49934158859925],[3.601134168535884,51.49824866082257],[3.601214168713067,51.497972078104915],[3.601464073818601,51.49766033418636],[3.602558792989752,51.497806536945674],[3.602961353762659,51.496760801363244],[3.602317272439531,51.496510010463055],[3.602864402368601,51.495707430883996],[3.603057553512783,51.495593506385156],[3.603338545682553,51.49548002479675],[3.605526209305744,51.495080090505134],[3.606098685321162,51.494253608955205],[3.605698329472051,51.494105450211066],[3.605939887874804,51.49349059006037],[3.606634125281157,51.49360007644773],[3.607058007000021,51.49366228199881],[3.607965527579221,51.493768719187706],[3.608905457855454,51.49381990193395],[3.609604236342804,51.49396090641141],[3.609814636074496,51.49403153863413],[3.610027634615511,51.49414626342458],[3.610150653008848,51.4942784981769],[3.610265070660454,51.49440970282888],[3.610538461882768,51.49478517095139],[3.610838535634983,51.49495696035493],[3.611017763396609,51.4949408073538],[3.61400897547129,51.4947264542844],[3.614586004031568,51.494296482014086],[3.615484421467148,51.49463737363611],[3.616734484640086,51.495121145893805],[3.617282666426489,51.495320955162065],[3.617604896295552,51.49492396590074],[3.618994435955768,51.49537746204872],[3.618681557595784,51.49579347669023],[3.620896557419272,51.496540852977645],[3.623118758312999,51.497290093340396],[3.624093095620226,51.497607790263466],[3.625335901074446,51.49802303144819],[3.62537476890699,51.498023618003636],[3.625609684561794,51.498094591248005],[3.627594182404857,51.49881138843867],[3.626584377326025,51.49966913741083],[3.62632405799605,51.49977039975313],[3.626016247860036,51.50001928759198],[3.625272488020263,51.50040364560773],[3.624739329969801,51.50059428743237],[3.624879233079986,51.500849930074686],[3.624045205436254,51.50110974868819],[3.624308220020977,51.50149671367267],[3.624669085851364,51.50140326691142],[3.625778618156981,51.50206372757295],[3.625853728889633,51.50217004897743],[3.625859247933161,51.502287907139305],[3.625814865117065,51.50239242585609],[3.625701633313648,51.50252647338354],[3.625539682168819,51.50261663155635],[3.625476325971778,51.50269029634059],[3.625175260602978,51.50354524036333],[3.624530742026601,51.50382050930354],[3.624130506107512,51.50440873529753],[3.622683314903769,51.50402186114418],[3.622514412349443,51.50403099606802],[3.621760941396612,51.504032192324125],[3.621341712036583,51.504366591022354],[3.620900679594232,51.50474291360327],[3.620263277642104,51.505464193898746],[3.620050302892212,51.505495134518775],[3.62001563522029,51.50546044607577],[3.619925181500118,51.50548964458421],[3.619637943481375,51.505726241007764],[3.617940206261151,51.50541013586974],[3.617623699789386,51.50539904613352],[3.617111167574252,51.50579764637549]]]]}}]}