{"type":"FeatureCollection","name":"rijksmonumenten","features":[{"type":"Feature","properties":{"cho_uri":"https://linkeddata.cultureelerfgoed.nl/cho-kennis/id/rijksmonument/41873","rijksmonumentnummer":"517392","naam":"Hotel Spoorzicht","geometry_bron":"Point","monumentenregister_url":"https://monumentenregister.cultureelerfgoed.nl/monumenten/517392","oorspronkelijke_functie":"Logement","oorspronkelijke_functie_kort":"Logement","huidige_functie":"Hotel-café-restaurant","type":null,"datum_inschrijving_monumentenregister":"2001-11-05","monument_aard":"onroerend gebouwd"},"geometry":{"type":"Point","coordinates":[6.747261570287022,53.33334647162668]}},{"type":"Feature","properties":{"cho_uri":"https://linkeddata.cultureelerfgoed.nl/cho-kennis/id/rijksmonument/59001","rijksmonumentnummer":"483444","naam":"Noorderbegraafplaats","geometry_bron":"Point","monumentenregister_url":"https://monumentenregister.cultureelerfgoed.nl/monumenten/483444","oorspronkelijke_functie":"Dienstwoning(K)","oorspronkelijke_functie_kort":"Dienstwoning","huidige_functie":null,"type":"Benedenwoning","datum_inschrijving_monumentenregister":"1995-04-13","monument_aard":"onroerend gebouwd"},"geometry":{"type":"Point","coordinates":[6.552222686142,53.23057995957798]}},{"type":"Feature","properties":{"cho_uri":"https://linkeddata.cultureelerfgoed.nl/cho-kennis/id/rijksmonument/45239","rijksmonumentnummer":"30486","naam":"Joodse begraafplaats","geometry_bron":"Point","monumentenregister_url":"https://monumentenregister.cultureelerfgoed.nl/monumenten/30486","oorspronkelijke_functie":"Begraafplaats en -onderdelen","oorspronkelijke_functie_kort":"Begraafplaats en -onderdelen","huidige_functie":null,"type":null,"datum_inschrijving_monumentenregister":"1973-06-19","monument_aard":"onroerend gebouwd"},"geometry":{"type":"Point","coordinates":[7.212213537403216,53.179207112632106]}},{"type":"Feature","properties":{"cho_uri":"https://linkeddata.cultureelerfgoed.nl/cho-kennis/id/rijksmonument/22634","rijksmonumentnummer":"517390","naam":null,"geometry_bron":"Point","monumentenregister_url":"https://monumentenregister.cultureelerfgoed.nl/monumenten/517390","oorspronkelijke_functie":"Woonhuis","oorspronkelijke_functie_kort":"Woonhuis","huidige_functie":"Woonhuis","type":"Rentenierswoning","datum_inschrijving_monumentenregister":"2001-11-05","monument_aard":"onroerend gebouwd"},"geometry":{"type":"Point","coordinates":[6.747775762532358,53.334239434278814]}},{"type":"Feature","properties":{"cho_uri":"https://linkeddata.cultureelerfgoed.nl/cho-kennis/id/rijksmonument/54208","rijksmonumentnummer":"517376","naam":null,"geometry_bron":"Point","monumentenregister_url":"https://monumentenregister.cultureelerfgoed.nl/monumenten/517376","oorspronkelijke_functie":"Woonhuis","oorspronkelijke_functie_kort":"Woonhuis","huidige_functie":"Woonhuis","type":"Rentenierswoning","datum_inschrijving_monumentenregister":"2001-11-05","monument_aard":"onroerend gebouwd"},"geometry":{"type":"Point","coordinates":[6.747564776803749,53.33373858783657]}},{"type":"Feature","properties":{"cho_uri":"https://linkeddata.cultureelerfgoed.nl/cho-kennis/id/rijksmonument/21386","rijksmonumentnummer":"39017","naam":null,"geometry_bron":"Point","monumentenregister_url":"https://monumentenregister.cultureelerfgoed.nl/monumenten/39017","oorspronkelijke_functie":"Kerk en kerkonderdeel","oorspronkelijke_functie_kort":"Kerk en kerkonderdeel","huidige_functie":null,"type":null,"datum_inschrijving_monumentenregister":"1973-06-13","monument_aard":"onroerend gebouwd"},"geometry":{"type":"Point","coordinates":[7.03619731078167,53.14259078593488]}},{"type":"Feature","properties":{"cho_uri":"https://linkeddata.cultureelerfgoed.nl/cho-kennis/id/rijksmonument/23834","rijksmonumentnummer":"30485","naam":null,"geometry_bron":"Polygon","monumentenregister_url":"https://monumentenregister.cultureelerfgoed.nl/monumenten/30485","oorspronkelijke_functie":"Gracht (B)","oorspronkelijke_functie_kort":"Gracht","huidige_functie":null,"type":null,"datum_inschrijving_monumentenregister":"1973-06-19","monument_aard":"onroerend gebouwd"},"geometry":{"type":"Polygon","coordinates":[[[7.212468047755531,53.178946925283924],[7.2125655101918,53.1789166808982],[7.212592083481288,53.17897919021485],[7.212697164930993,53.1792004852384],[7.212735527139494,53.17922326916675],[7.212746712650278,53.17924017548324],[7.212793311503445,53.179351812178915],[7.213982618724968,53.18002395300324],[7.214001128809028,53.180037152530986],[7.21401591194349,53.18006838423413],[7.214003783084895,53.18010002596907],[7.213980581732013,53.18011745608615],[7.21352825852783,53.180353532963935],[7.213380207936384,53.18042589198992],[7.213208609827749,53.18043659435064],[7.213911254180271,53.18006997876378],[7.21269895209986,53.17938470580106],[7.212645615332469,53.179255196263746],[7.212617549739262,53.17926371248188],[7.212468047755531,53.178946925283924]]]}},{"type":"Feature","properties":{"cho_uri":"https://linkeddata.cultureelerfgoed.nl/cho-kennis/id/rijksmonument/35773","rijksmonumentnummer":"30487","naam":null,"geometry_bron":"Polygon","monumentenregister_url":"https://monumentenregister.cultureelerfgoed.nl/monumenten/30487","oorspronkelijke_functie":"Omwalling","oorspronkelijke_functie_kort":"Omwalling","huidige_functie":null,"type":null,"datum_inschrijving_monumentenregister":"1979-07-24","monument_aard":"onroerend gebouwd"},"geometry":{"type":"Polygon","coordinates":[[[7.211990868203514,53.179444916801145],[7.212438728230583,53.17931586716573],[7.212617549739262,53.17926371248188],[7.212645615332469,53.179255196263746],[7.21269895209986,53.17938470580106],[7.213911254180271,53.18006997876378],[7.213208609827749,53.18043659435064],[7.21295970639074,53.18056531364576],[7.212942040896458,53.18078488234481],[7.211804723651532,53.18038786228674],[7.211417560200767,53.18025354537432],[7.21146193987151,53.18020613416546],[7.211490592631139,53.18017603883734],[7.211510729059192,53.18015685830871],[7.211551039729358,53.18011939543417],[7.211595456985837,53.180072882368066],[7.211622728060053,53.18004550433622],[7.21167838651596,53.17998174357368],[7.211689627858726,53.17996449590314],[7.211707928158425,53.17993725435499],[7.211736201860358,53.179898177037586],[7.211747329545048,53.17987823478251],[7.21175569423759,53.179863727186955],[7.211766897647793,53.179845581315824],[7.211777911689687,53.17982294447883],[7.211790458695318,53.179801183081835],[7.211823084117833,53.17972339243778],[7.211861803435498,53.179648205351555],[7.211892195905107,53.179588424051104],[7.211911688021401,53.17955397417286],[7.211924310632303,53.17953400914654],[7.211934132418874,53.179518580591],[7.211946830759135,53.17950041194817],[7.211990868203514,53.179444916801145]]]}},{"type":"Feature","properties":{"cho_uri":"https://linkeddata.cultureelerfgoed.nl/cho-kennis/id/rijksmonument/73600","rijksmonumentnummer":"513633","naam":null,"geometry_bron":"Point","monumentenregister_url":"https://monumentenregister.cultureelerfgoed.nl/monumenten/513633","oorspronkelijke_functie":"Baarhuisje","oorspronkelijke_functie_kort":"Baarhuisje","huidige_functie":"Baarhuisje","type":null,"datum_inschrijving_monumentenregister":"1999-10-14","monument_aard":"onroerend gebouwd"},"geometry":{"type":"Point","coordinates":[6.365650563214908,53.147820627001956]}},{"type":"Feature","properties":{"cho_uri":"https://linkeddata.cultureelerfgoed.nl/cho-kennis/id/rijksmonument/73601","rijksmonumentnummer":"513632","naam":null,"geometry_bron":"Point","monumentenregister_url":"https://monumentenregister.cultureelerfgoed.nl/monumenten/513632","oorspronkelijke_functie":"Begraafplaatshek","oorspronkelijke_functie_kort":"Begraafplaatshek","huidige_functie":"Begraafplaatshek","type":null,"datum_inschrijving_monumentenregister":"1999-10-14","monument_aard":"onroerend gebouwd"},"geometry":{"type":"Point","coordinates":[6.365650563214908,53.147820627001956]}},{"type":"Feature","properties":{"cho_uri":"https://linkeddata.cultureelerfgoed.nl/cho-kennis/id/rijksmonument/73602","rijksmonumentnummer":"513631","naam":null,"geometry_bron":"Point","monumentenregister_url":"https://monumentenregister.cultureelerfgoed.nl/monumenten/513631","oorspronkelijke_functie":"Begraafplaats","oorspronkelijke_functie_kort":"Begraafplaats","huidige_functie":"Begraafplaats","type":null,"datum_inschrijving_monumentenregister":"1999-10-14","monument_aard":"onroerend gebouwd"},"geometry":{"type":"Point","coordinates":[6.365650563214908,53.147820627001956]}},{"type":"Feature","properties":{"cho_uri":"https://linkeddata.cultureelerfgoed.nl/cho-kennis/id/rijksmonument/75466","rijksmonumentnummer":"510795","naam":null,"geometry_bron":"Point","monumentenregister_url":"https://monumentenregister.cultureelerfgoed.nl/monumenten/510795","oorspronkelijke_functie":"Begraafplaatshek","oorspronkelijke_functie_kort":"Begraafplaatshek","huidige_functie":"Begraafplaatshek","type":null,"datum_inschrijving_monumentenregister":"1998-07-22","monument_aard":"onroerend gebouwd"},"geometry":{"type":"Point","coordinates":[6.534948715837119,53.33161646560781]}},{"type":"Feature","properties":{"cho_uri":"https://linkeddata.cultureelerfgoed.nl/cho-kennis/id/rijksmonument/75467","rijksmonumentnummer":"510794","naam":null,"geometry_bron":"Point","monumentenregister_url":"https://monumentenregister.cultureelerfgoed.nl/monumenten/510794","oorspronkelijke_functie":"Begraafplaats","oorspronkelijke_functie_kort":"Begraafplaats","huidige_functie":"Begraafplaats","type":null,"datum_inschrijving_monumentenregister":"1998-07-22","monument_aard":"onroerend gebouwd"},"geometry":{"type":"Point","coordinates":[6.535171673456985,53.33153346241314]}}]}