{"type":"FeatureCollection","name":"rijksmonumenten","features":[{"type":"Feature","properties":{"cho_uri":"https://linkeddata.cultureelerfgoed.nl/cho-kennis/id/rijksmonument/12405","rijksmonumentnummer":"518800","naam":"Joods Kerkhof","geometry_bron":"Point","monumentenregister_url":"https://monumentenregister.cultureelerfgoed.nl/monumenten/518800","oorspronkelijke_functie":"Begraafplaats","oorspronkelijke_functie_kort":"Begraafplaats","huidige_functie":null,"type":"Particuliere begraafplaats","datum_inschrijving_monumentenregister":"2002-08-05","monument_aard":"onroerend gebouwd"},"geometry":{"type":"Point","coordinates":[5.457735877716209,51.45072541916712]}},{"type":"Feature","properties":{"cho_uri":"https://linkeddata.cultureelerfgoed.nl/cho-kennis/id/rijksmonument/27743","rijksmonumentnummer":"514154","naam":"Graf Le Sage ten Broek","geometry_bron":"Point","monumentenregister_url":"https://monumentenregister.cultureelerfgoed.nl/monumenten/514154","oorspronkelijke_functie":"Grafmonument","oorspronkelijke_functie_kort":"Grafmonument","huidige_functie":null,"type":"Erebegraafplaats","datum_inschrijving_monumentenregister":"2000-04-14","monument_aard":"onroerend gebouwd"},"geometry":{"type":"Point","coordinates":[5.745441187276273,51.75547655890742]}},{"type":"Feature","properties":{"cho_uri":"https://linkeddata.cultureelerfgoed.nl/cho-kennis/id/rijksmonument/19542","rijksmonumentnummer":"385761","naam":null,"geometry_bron":"Point","monumentenregister_url":"https://monumentenregister.cultureelerfgoed.nl/monumenten/385761","oorspronkelijke_functie":"Begraafplaats en -onderdelen","oorspronkelijke_functie_kort":"Begraafplaats en -onderdelen","huidige_functie":null,"type":null,"datum_inschrijving_monumentenregister":"1991-11-15","monument_aard":"onroerend gebouwd"},"geometry":{"type":"Point","coordinates":[5.479347738676474,51.736403142647525]}},{"type":"Feature","properties":{"cho_uri":"https://linkeddata.cultureelerfgoed.nl/cho-kennis/id/rijksmonument/29766","rijksmonumentnummer":"517339","naam":null,"geometry_bron":"Point","monumentenregister_url":"https://monumentenregister.cultureelerfgoed.nl/monumenten/517339","oorspronkelijke_functie":"Begraafplaats","oorspronkelijke_functie_kort":"Begraafplaats","huidige_functie":null,"type":null,"datum_inschrijving_monumentenregister":"2001-12-18","monument_aard":"onroerend gebouwd"},"geometry":{"type":"Point","coordinates":[5.12980580022297,51.73569790608981]}},{"type":"Feature","properties":{"cho_uri":"https://linkeddata.cultureelerfgoed.nl/cho-kennis/id/rijksmonument/30571","rijksmonumentnummer":"520427","naam":null,"geometry_bron":"Polygon","monumentenregister_url":"https://monumentenregister.cultureelerfgoed.nl/monumenten/520427","oorspronkelijke_functie":"Begraafplaats","oorspronkelijke_functie_kort":"Begraafplaats","huidige_functie":null,"type":null,"datum_inschrijving_monumentenregister":"2002-04-23","monument_aard":"onroerend gebouwd"},"geometry":{"type":"Polygon","coordinates":[[[4.904236778097854,51.807033421492804],[4.904243979564711,51.8070379453869],[4.904572271799837,51.8072532226085],[4.904470122763482,51.80731392438213],[4.90444822952502,51.80732731709848],[4.904343170669891,51.80738890564382],[4.904124302486378,51.807245986381275],[4.904117091370404,51.80724236129182],[4.904200824896147,51.8071411357142],[4.904233839757918,51.80703700480671],[4.904236778097854,51.807033421492804]]]}},{"type":"Feature","properties":{"cho_uri":"https://linkeddata.cultureelerfgoed.nl/cho-kennis/id/rijksmonument/57587","rijksmonumentnummer":"518797","naam":"Christelijk Nationale","geometry_bron":"Point","monumentenregister_url":"https://monumentenregister.cultureelerfgoed.nl/monumenten/518797","oorspronkelijke_functie":"Schoolgebouw","oorspronkelijke_functie_kort":"Schoolgebouw","huidige_functie":null,"type":"Basisschool","datum_inschrijving_monumentenregister":"2002-08-05","monument_aard":"onroerend gebouwd"},"geometry":{"type":"Point","coordinates":[5.458456235269984,51.451399130896235]}},{"type":"Feature","properties":{"cho_uri":"https://linkeddata.cultureelerfgoed.nl/cho-kennis/id/rijksmonument/47209","rijksmonumentnummer":"46806","naam":null,"geometry_bron":"Point","monumentenregister_url":"https://monumentenregister.cultureelerfgoed.nl/monumenten/46806","oorspronkelijke_functie":"Begraafplaats en -onderdelen","oorspronkelijke_functie_kort":"Begraafplaats en -onderdelen","huidige_functie":null,"type":null,"datum_inschrijving_monumentenregister":"1985-06-11","monument_aard":"onroerend gebouwd"},"geometry":{"type":"Point","coordinates":[5.185819345199731,51.566032562613486]}},{"type":"Feature","properties":{"cho_uri":"https://linkeddata.cultureelerfgoed.nl/cho-kennis/id/rijksmonument/71450","rijksmonumentnummer":"519859","naam":"Joodse Begraafplaats","geometry_bron":"Polygon","monumentenregister_url":"https://monumentenregister.cultureelerfgoed.nl/monumenten/519859","oorspronkelijke_functie":"Begraafplaats en -onderdelen","oorspronkelijke_functie_kort":"Begraafplaats en -onderdelen","huidige_functie":null,"type":null,"datum_inschrijving_monumentenregister":"2000-09-11","monument_aard":"onroerend gebouwd"},"geometry":{"type":"Polygon","coordinates":[[[5.31434448143566,51.49564143844356],[5.314085550980183,51.49547049267698],[5.314134586518277,51.495423782346485],[5.314449703589434,51.495578583387186],[5.31434448143566,51.49564143844356]]]}},{"type":"Feature","properties":{"cho_uri":"https://linkeddata.cultureelerfgoed.nl/cho-kennis/id/rijksmonument/71451","rijksmonumentnummer":"519858","naam":"Joodse Begraafplaats","geometry_bron":"Polygon","monumentenregister_url":"https://monumentenregister.cultureelerfgoed.nl/monumenten/519858","oorspronkelijke_functie":"Begraafplaats en -onderdelen","oorspronkelijke_functie_kort":"Begraafplaats en -onderdelen","huidige_functie":null,"type":null,"datum_inschrijving_monumentenregister":"2000-09-11","monument_aard":"onroerend gebouwd"},"geometry":{"type":"Polygon","coordinates":[[[5.31434448143566,51.49564143844356],[5.314085550980183,51.49547049267698],[5.314134586518277,51.495423782346485],[5.314449703589434,51.495578583387186],[5.31434448143566,51.49564143844356]]]}},{"type":"Feature","properties":{"cho_uri":"https://linkeddata.cultureelerfgoed.nl/cho-kennis/id/rijksmonument/71452","rijksmonumentnummer":"519857","naam":"Joodse Begraafplaats","geometry_bron":"Polygon","monumentenregister_url":"https://monumentenregister.cultureelerfgoed.nl/monumenten/519857","oorspronkelijke_functie":"Begraafplaats en -onderdelen","oorspronkelijke_functie_kort":"Begraafplaats en -onderdelen","huidige_functie":null,"type":null,"datum_inschrijving_monumentenregister":"2000-09-11","monument_aard":"onroerend gebouwd"},"geometry":{"type":"Polygon","coordinates":[[[5.31434448143566,51.49564143844356],[5.314085550980183,51.49547049267698],[5.314134586518277,51.495423782346485],[5.314449703589434,51.495578583387186],[5.31434448143566,51.49564143844356]]]}},{"type":"Feature","properties":{"cho_uri":"https://linkeddata.cultureelerfgoed.nl/cho-kennis/id/rijksmonument/71453","rijksmonumentnummer":"519856","naam":"Joodse Begraafplaats","geometry_bron":"Polygon","monumentenregister_url":"https://monumentenregister.cultureelerfgoed.nl/monumenten/519856","oorspronkelijke_functie":"Begraafplaats en -onderdelen","oorspronkelijke_functie_kort":"Begraafplaats en -onderdelen","huidige_functie":null,"type":null,"datum_inschrijving_monumentenregister":"2000-09-11","monument_aard":"onroerend gebouwd"},"geometry":{"type":"Polygon","coordinates":[[[5.31434448143566,51.49564143844356],[5.314085550980183,51.49547049267698],[5.314134586518277,51.495423782346485],[5.314449703589434,51.495578583387186],[5.31434448143566,51.49564143844356]]]}},{"type":"Feature","properties":{"cho_uri":"https://linkeddata.cultureelerfgoed.nl/cho-kennis/id/rijksmonument/71456","rijksmonumentnummer":"519163","naam":"Joodse Begraafplaats","geometry_bron":"Polygon","monumentenregister_url":"https://monumentenregister.cultureelerfgoed.nl/monumenten/519163","oorspronkelijke_functie":"Begraafplaats","oorspronkelijke_functie_kort":"Begraafplaats","huidige_functie":null,"type":null,"datum_inschrijving_monumentenregister":"2000-09-11","monument_aard":"onroerend gebouwd"},"geometry":{"type":"Polygon","coordinates":[[[5.31434448143566,51.49564143844356],[5.314085550980183,51.49547049267698],[5.314134586518277,51.495423782346485],[5.314449703589434,51.495578583387186],[5.31434448143566,51.49564143844356]]]}},{"type":"Feature","properties":{"cho_uri":"https://linkeddata.cultureelerfgoed.nl/cho-kennis/id/rijksmonument/75094","rijksmonumentnummer":"525880","naam":"Complex Berkenheuveldreef","geometry_bron":"Point","monumentenregister_url":"https://monumentenregister.cultureelerfgoed.nl/monumenten/525880","oorspronkelijke_functie":"Begraafplaats en -onderdelen","oorspronkelijke_functie_kort":"Begraafplaats en -onderdelen","huidige_functie":null,"type":null,"datum_inschrijving_monumentenregister":"2002-04-22","monument_aard":"onroerend gebouwd"},"geometry":{"type":"Point","coordinates":[5.27916738604906,51.65472851307679]}},{"type":"Feature","properties":{"cho_uri":"https://linkeddata.cultureelerfgoed.nl/cho-kennis/id/rijksmonument/75095","rijksmonumentnummer":"521288","naam":"Complex Berkenheuveldreef","geometry_bron":"Point","monumentenregister_url":"https://monumentenregister.cultureelerfgoed.nl/monumenten/521288","oorspronkelijke_functie":"Gedenkteken(D6)","oorspronkelijke_functie_kort":"Gedenkteken","huidige_functie":null,"type":null,"datum_inschrijving_monumentenregister":"2002-04-22","monument_aard":"onroerend gebouwd"},"geometry":{"type":"Point","coordinates":[5.27916738604906,51.65472851307679]}},{"type":"Feature","properties":{"cho_uri":"https://linkeddata.cultureelerfgoed.nl/cho-kennis/id/rijksmonument/79902","rijksmonumentnummer":"525637","naam":"Sombre Hadass","geometry_bron":"Point","monumentenregister_url":"https://monumentenregister.cultureelerfgoed.nl/monumenten/525637","oorspronkelijke_functie":"Grafmonument","oorspronkelijke_functie_kort":"Grafmonument","huidige_functie":null,"type":null,"datum_inschrijving_monumentenregister":"2001-12-18","monument_aard":"onroerend gebouwd"},"geometry":{"type":"Point","coordinates":[4.38648001726659,51.371718786943234]}},{"type":"Feature","properties":{"cho_uri":"https://linkeddata.cultureelerfgoed.nl/cho-kennis/id/rijksmonument/79903","rijksmonumentnummer":"525636","naam":"Sombre Hadass","geometry_bron":"Point","monumentenregister_url":"https://monumentenregister.cultureelerfgoed.nl/monumenten/525636","oorspronkelijke_functie":"Grafmonument","oorspronkelijke_functie_kort":"Grafmonument","huidige_functie":null,"type":null,"datum_inschrijving_monumentenregister":"2001-12-18","monument_aard":"onroerend gebouwd"},"geometry":{"type":"Point","coordinates":[4.38648001726659,51.371718786943234]}},{"type":"Feature","properties":{"cho_uri":"https://linkeddata.cultureelerfgoed.nl/cho-kennis/id/rijksmonument/79904","rijksmonumentnummer":"525635","naam":"Sombre Hadass","geometry_bron":"Point","monumentenregister_url":"https://monumentenregister.cultureelerfgoed.nl/monumenten/525635","oorspronkelijke_functie":"Begraafplaatshek","oorspronkelijke_functie_kort":"Begraafplaatshek","huidige_functie":null,"type":null,"datum_inschrijving_monumentenregister":"2001-12-18","monument_aard":"onroerend gebouwd"},"geometry":{"type":"Point","coordinates":[4.38648001726659,51.371718786943234]}},{"type":"Feature","properties":{"cho_uri":"https://linkeddata.cultureelerfgoed.nl/cho-kennis/id/rijksmonument/79905","rijksmonumentnummer":"525634","naam":"Sombre Hadass","geometry_bron":"Point","monumentenregister_url":"https://monumentenregister.cultureelerfgoed.nl/monumenten/525634","oorspronkelijke_functie":"Poortgebouw","oorspronkelijke_functie_kort":"Poortgebouw","huidige_functie":null,"type":null,"datum_inschrijving_monumentenregister":"2001-12-18","monument_aard":"onroerend gebouwd"},"geometry":{"type":"Point","coordinates":[4.38648001726659,51.371718786943234]}},{"type":"Feature","properties":{"cho_uri":"https://linkeddata.cultureelerfgoed.nl/cho-kennis/id/rijksmonument/79906","rijksmonumentnummer":"516694","naam":"Sombre Hadass","geometry_bron":"Point","monumentenregister_url":"https://monumentenregister.cultureelerfgoed.nl/monumenten/516694","oorspronkelijke_functie":"Grafmonument","oorspronkelijke_functie_kort":"Grafmonument","huidige_functie":null,"type":null,"datum_inschrijving_monumentenregister":"2001-12-18","monument_aard":"onroerend gebouwd"},"geometry":{"type":"Point","coordinates":[4.38648001726659,51.371718786943234]}},{"type":"Feature","properties":{"cho_uri":"https://linkeddata.cultureelerfgoed.nl/cho-kennis/id/rijksmonument/79907","rijksmonumentnummer":"516693","naam":"Sombre Hadass","geometry_bron":"Point","monumentenregister_url":"https://monumentenregister.cultureelerfgoed.nl/monumenten/516693","oorspronkelijke_functie":"Grafmonument","oorspronkelijke_functie_kort":"Grafmonument","huidige_functie":null,"type":null,"datum_inschrijving_monumentenregister":"2001-12-18","monument_aard":"onroerend gebouwd"},"geometry":{"type":"Point","coordinates":[4.38648001726659,51.371718786943234]}},{"type":"Feature","properties":{"cho_uri":"https://linkeddata.cultureelerfgoed.nl/cho-kennis/id/rijksmonument/71448","rijksmonumentnummer":"519861","naam":null,"geometry_bron":"Polygon","monumentenregister_url":"https://monumentenregister.cultureelerfgoed.nl/monumenten/519861","oorspronkelijke_functie":"Begraafplaats en -onderdelen","oorspronkelijke_functie_kort":"Begraafplaats en -onderdelen","huidige_functie":null,"type":null,"datum_inschrijving_monumentenregister":"2000-09-11","monument_aard":"onroerend gebouwd"},"geometry":{"type":"Polygon","coordinates":[[[5.31434448143566,51.49564143844356],[5.314085550980183,51.49547049267698],[5.314134586518277,51.495423782346485],[5.314449703589434,51.495578583387186],[5.31434448143566,51.49564143844356]]]}},{"type":"Feature","properties":{"cho_uri":"https://linkeddata.cultureelerfgoed.nl/cho-kennis/id/rijksmonument/71449","rijksmonumentnummer":"519860","naam":null,"geometry_bron":"Polygon","monumentenregister_url":"https://monumentenregister.cultureelerfgoed.nl/monumenten/519860","oorspronkelijke_functie":"Begraafplaats en -onderdelen","oorspronkelijke_functie_kort":"Begraafplaats en -onderdelen","huidige_functie":null,"type":null,"datum_inschrijving_monumentenregister":"2000-09-11","monument_aard":"onroerend gebouwd"},"geometry":{"type":"Polygon","coordinates":[[[5.31434448143566,51.49564143844356],[5.314085550980183,51.49547049267698],[5.314134586518277,51.495423782346485],[5.314449703589434,51.495578583387186],[5.31434448143566,51.49564143844356]]]}},{"type":"Feature","properties":{"cho_uri":"https://linkeddata.cultureelerfgoed.nl/cho-kennis/id/rijksmonument/71454","rijksmonumentnummer":"519862","naam":null,"geometry_bron":"Polygon","monumentenregister_url":"https://monumentenregister.cultureelerfgoed.nl/monumenten/519862","oorspronkelijke_functie":"Begraafplaats en -onderdelen","oorspronkelijke_functie_kort":"Begraafplaats en -onderdelen","huidige_functie":null,"type":null,"datum_inschrijving_monumentenregister":"2000-09-11","monument_aard":"onroerend gebouwd"},"geometry":{"type":"Polygon","coordinates":[[[5.31434448143566,51.49564143844356],[5.314085550980183,51.49547049267698],[5.314134586518277,51.495423782346485],[5.314449703589434,51.495578583387186],[5.31434448143566,51.49564143844356]]]}},{"type":"Feature","properties":{"cho_uri":"https://linkeddata.cultureelerfgoed.nl/cho-kennis/id/rijksmonument/71455","rijksmonumentnummer":"519164","naam":null,"geometry_bron":"Polygon","monumentenregister_url":"https://monumentenregister.cultureelerfgoed.nl/monumenten/519164","oorspronkelijke_functie":"Grafmonument","oorspronkelijke_functie_kort":"Grafmonument","huidige_functie":null,"type":null,"datum_inschrijving_monumentenregister":"2000-09-11","monument_aard":"onroerend gebouwd"},"geometry":{"type":"Polygon","coordinates":[[[5.31434448143566,51.49564143844356],[5.314085550980183,51.49547049267698],[5.314134586518277,51.495423782346485],[5.314449703589434,51.495578583387186],[5.31434448143566,51.49564143844356]]]}},{"type":"Feature","properties":{"cho_uri":"https://linkeddata.cultureelerfgoed.nl/cho-kennis/id/rijksmonument/72578","rijksmonumentnummer":"525640","naam":null,"geometry_bron":"Point","monumentenregister_url":"https://monumentenregister.cultureelerfgoed.nl/monumenten/525640","oorspronkelijke_functie":"Grafmonument","oorspronkelijke_functie_kort":"Grafmonument","huidige_functie":null,"type":null,"datum_inschrijving_monumentenregister":"2001-12-18","monument_aard":"onroerend gebouwd"},"geometry":{"type":"Point","coordinates":[4.385108969241695,51.37529373533272]}},{"type":"Feature","properties":{"cho_uri":"https://linkeddata.cultureelerfgoed.nl/cho-kennis/id/rijksmonument/72579","rijksmonumentnummer":"525639","naam":null,"geometry_bron":"Point","monumentenregister_url":"https://monumentenregister.cultureelerfgoed.nl/monumenten/525639","oorspronkelijke_functie":"Begraafplaats en -onderdelen","oorspronkelijke_functie_kort":"Begraafplaats en -onderdelen","huidige_functie":null,"type":null,"datum_inschrijving_monumentenregister":"2001-12-18","monument_aard":"onroerend gebouwd"},"geometry":{"type":"Point","coordinates":[4.38511136345738,51.37529385099499]}},{"type":"Feature","properties":{"cho_uri":"https://linkeddata.cultureelerfgoed.nl/cho-kennis/id/rijksmonument/72580","rijksmonumentnummer":"525638","naam":null,"geometry_bron":"Point","monumentenregister_url":"https://monumentenregister.cultureelerfgoed.nl/monumenten/525638","oorspronkelijke_functie":"Begraafplaatsaula","oorspronkelijke_functie_kort":"Begraafplaatsaula","huidige_functie":null,"type":null,"datum_inschrijving_monumentenregister":"2001-12-18","monument_aard":"onroerend gebouwd"},"geometry":{"type":"Point","coordinates":[4.38511136345738,51.37529385099499]}},{"type":"Feature","properties":{"cho_uri":"https://linkeddata.cultureelerfgoed.nl/cho-kennis/id/rijksmonument/72581","rijksmonumentnummer":"516691","naam":null,"geometry_bron":"Point","monumentenregister_url":"https://monumentenregister.cultureelerfgoed.nl/monumenten/516691","oorspronkelijke_functie":"Grafmonument","oorspronkelijke_functie_kort":"Grafmonument","huidige_functie":null,"type":null,"datum_inschrijving_monumentenregister":"2001-12-18","monument_aard":"onroerend gebouwd"},"geometry":{"type":"Point","coordinates":[4.385108969241695,51.37529373533272]}},{"type":"Feature","properties":{"cho_uri":"https://linkeddata.cultureelerfgoed.nl/cho-kennis/id/rijksmonument/75096","rijksmonumentnummer":"521287","naam":null,"geometry_bron":"Point","monumentenregister_url":"https://monumentenregister.cultureelerfgoed.nl/monumenten/521287","oorspronkelijke_functie":"Poortgebouw","oorspronkelijke_functie_kort":"Poortgebouw","huidige_functie":null,"type":null,"datum_inschrijving_monumentenregister":"2002-04-22","monument_aard":"onroerend gebouwd"},"geometry":{"type":"Point","coordinates":[5.279469763728059,51.655187206425346]}}]}