{"type":"FeatureCollection","name":"rijksmonumenten","features":[{"type":"Feature","properties":{"cho_uri":"https://linkeddata.cultureelerfgoed.nl/cho-kennis/id/rijksmonument/12185","rijksmonumentnummer":"31961","naam":null,"geometry_bron":"Point","monumentenregister_url":"https://monumentenregister.cultureelerfgoed.nl/monumenten/31961","oorspronkelijke_functie":"Woonhuis(K)","oorspronkelijke_functie_kort":"Woonhuis","huidige_functie":null,"type":null,"datum_inschrijving_monumentenregister":"1973-12-12","monument_aard":"onroerend gebouwd"},"geometry":{"type":"Point","coordinates":[4.902424118128451,52.29546748362695]}},{"type":"Feature","properties":{"cho_uri":"https://linkeddata.cultureelerfgoed.nl/cho-kennis/id/rijksmonument/13718","rijksmonumentnummer":"511950","naam":null,"geometry_bron":"Point","monumentenregister_url":"https://monumentenregister.cultureelerfgoed.nl/monumenten/511950","oorspronkelijke_functie":"Tuinmuur","oorspronkelijke_functie_kort":"Tuinmuur","huidige_functie":null,"type":null,"datum_inschrijving_monumentenregister":"1999-09-16","monument_aard":"onroerend gebouwd"},"geometry":{"type":"Point","coordinates":[5.110171770810536,52.32797103836539]}},{"type":"Feature","properties":{"cho_uri":"https://linkeddata.cultureelerfgoed.nl/cho-kennis/id/rijksmonument/18081","rijksmonumentnummer":"31962","naam":null,"geometry_bron":"Point","monumentenregister_url":"https://monumentenregister.cultureelerfgoed.nl/monumenten/31962","oorspronkelijke_functie":"Woonhuis(K)","oorspronkelijke_functie_kort":"Woonhuis","huidige_functie":null,"type":null,"datum_inschrijving_monumentenregister":"1973-12-12","monument_aard":"onroerend gebouwd"},"geometry":{"type":"Point","coordinates":[4.902642050309988,52.29560385755972]}},{"type":"Feature","properties":{"cho_uri":"https://linkeddata.cultureelerfgoed.nl/cho-kennis/id/rijksmonument/23670","rijksmonumentnummer":"17354","naam":null,"geometry_bron":"Point","monumentenregister_url":"https://monumentenregister.cultureelerfgoed.nl/monumenten/17354","oorspronkelijke_functie":"Woonhuis(K)","oorspronkelijke_functie_kort":"Woonhuis","huidige_functie":null,"type":null,"datum_inschrijving_monumentenregister":"1971-06-24","monument_aard":"onroerend gebouwd"},"geometry":{"type":"Point","coordinates":[5.121139065593273,52.24554331653044]}},{"type":"Feature","properties":{"cho_uri":"https://linkeddata.cultureelerfgoed.nl/cho-kennis/id/rijksmonument/23863","rijksmonumentnummer":"511294","naam":null,"geometry_bron":"Point","monumentenregister_url":"https://monumentenregister.cultureelerfgoed.nl/monumenten/511294","oorspronkelijke_functie":"Diaconiewoning","oorspronkelijke_functie_kort":"Diaconiewoning","huidige_functie":null,"type":null,"datum_inschrijving_monumentenregister":"1998-11-03","monument_aard":"onroerend gebouwd"},"geometry":{"type":"Point","coordinates":[4.90177298916206,52.2959867699907]}},{"type":"Feature","properties":{"cho_uri":"https://linkeddata.cultureelerfgoed.nl/cho-kennis/id/rijksmonument/25932","rijksmonumentnummer":"14405","naam":null,"geometry_bron":"Point","monumentenregister_url":"https://monumentenregister.cultureelerfgoed.nl/monumenten/14405","oorspronkelijke_functie":"Woonhuis(K)","oorspronkelijke_functie_kort":"Woonhuis","huidige_functie":null,"type":null,"datum_inschrijving_monumentenregister":"1967-11-15","monument_aard":"onroerend gebouwd"},"geometry":{"type":"Point","coordinates":[5.057539605929415,52.513392816420435]}},{"type":"Feature","properties":{"cho_uri":"https://linkeddata.cultureelerfgoed.nl/cho-kennis/id/rijksmonument/28662","rijksmonumentnummer":"31967","naam":null,"geometry_bron":"Point","monumentenregister_url":"https://monumentenregister.cultureelerfgoed.nl/monumenten/31967","oorspronkelijke_functie":"Begraafplaats en -onderdelen","oorspronkelijke_functie_kort":"Begraafplaats en -onderdelen","huidige_functie":null,"type":null,"datum_inschrijving_monumentenregister":"1970-12-15","monument_aard":"onroerend gebouwd"},"geometry":{"type":"Point","coordinates":[4.902891420117606,52.295631179391435]}},{"type":"Feature","properties":{"cho_uri":"https://linkeddata.cultureelerfgoed.nl/cho-kennis/id/rijksmonument/28726","rijksmonumentnummer":"31968","naam":null,"geometry_bron":"Point","monumentenregister_url":"https://monumentenregister.cultureelerfgoed.nl/monumenten/31968","oorspronkelijke_functie":"Kerk","oorspronkelijke_functie_kort":"Kerk","huidige_functie":null,"type":null,"datum_inschrijving_monumentenregister":"1970-12-15","monument_aard":"onroerend gebouwd"},"geometry":{"type":"Point","coordinates":[4.90212812652303,52.29568264088583]}},{"type":"Feature","properties":{"cho_uri":"https://linkeddata.cultureelerfgoed.nl/cho-kennis/id/rijksmonument/28941","rijksmonumentnummer":"31954","naam":null,"geometry_bron":"Point","monumentenregister_url":"https://monumentenregister.cultureelerfgoed.nl/monumenten/31954","oorspronkelijke_functie":"Boerderij (M)","oorspronkelijke_functie_kort":"Boerderij","huidige_functie":null,"type":null,"datum_inschrijving_monumentenregister":"1970-12-15","monument_aard":"onroerend gebouwd"},"geometry":{"type":"Point","coordinates":[4.904509320681977,52.2964826507893]}},{"type":"Feature","properties":{"cho_uri":"https://linkeddata.cultureelerfgoed.nl/cho-kennis/id/rijksmonument/36986","rijksmonumentnummer":"511951","naam":"Boschlust","geometry_bron":"Point","monumentenregister_url":"https://monumentenregister.cultureelerfgoed.nl/monumenten/511951","oorspronkelijke_functie":"Café","oorspronkelijke_functie_kort":"Café","huidige_functie":"Woonhuis","type":null,"datum_inschrijving_monumentenregister":"1999-09-16","monument_aard":"onroerend gebouwd"},"geometry":{"type":"Point","coordinates":[5.111954214772088,52.32677084677681]}},{"type":"Feature","properties":{"cho_uri":"https://linkeddata.cultureelerfgoed.nl/cho-kennis/id/rijksmonument/30699","rijksmonumentnummer":"14402","naam":"Pietersbrug","geometry_bron":"Polygon","monumentenregister_url":"https://monumentenregister.cultureelerfgoed.nl/monumenten/14402","oorspronkelijke_functie":"Brug(C) ","oorspronkelijke_functie_kort":"Brug","huidige_functie":null,"type":"Ophaalbrug (C)","datum_inschrijving_monumentenregister":"1967-11-15","monument_aard":"onroerend gebouwd"},"geometry":{"type":"Polygon","coordinates":[[[5.058266061613126,52.513561996716724],[5.05833084382058,52.5135666699079],[5.058307770758368,52.51369782138913],[5.058241515273515,52.513693144102696],[5.058266061613126,52.513561996716724]]]}},{"type":"Feature","properties":{"cho_uri":"https://linkeddata.cultureelerfgoed.nl/cho-kennis/id/rijksmonument/35070","rijksmonumentnummer":"14358","naam":"Oosterbaansbrug","geometry_bron":"Polygon","monumentenregister_url":"https://monumentenregister.cultureelerfgoed.nl/monumenten/14358","oorspronkelijke_functie":"Brug(C) ","oorspronkelijke_functie_kort":"Brug","huidige_functie":null,"type":"Ophaalbrug (C)","datum_inschrijving_monumentenregister":"1967-11-15","monument_aard":"onroerend gebouwd"},"geometry":{"type":"Polygon","coordinates":[[[5.058340816939046,52.513018468719075],[5.058424701388305,52.513029485936585],[5.058387058722855,52.51313902743049],[5.058303167384514,52.51312890890373],[5.058340816939046,52.513018468719075]]]}},{"type":"Feature","properties":{"cho_uri":"https://linkeddata.cultureelerfgoed.nl/cho-kennis/id/rijksmonument/30884","rijksmonumentnummer":"31966","naam":null,"geometry_bron":"Point","monumentenregister_url":"https://monumentenregister.cultureelerfgoed.nl/monumenten/31966","oorspronkelijke_functie":"Woonhuis","oorspronkelijke_functie_kort":"Woonhuis","huidige_functie":null,"type":null,"datum_inschrijving_monumentenregister":"1970-12-15","monument_aard":"onroerend gebouwd"},"geometry":{"type":"Point","coordinates":[4.902955705399576,52.29645832378222]}},{"type":"Feature","properties":{"cho_uri":"https://linkeddata.cultureelerfgoed.nl/cho-kennis/id/rijksmonument/33235","rijksmonumentnummer":"29968","naam":null,"geometry_bron":"Point","monumentenregister_url":"https://monumentenregister.cultureelerfgoed.nl/monumenten/29968","oorspronkelijke_functie":"Omwalling","oorspronkelijke_functie_kort":"Omwalling","huidige_functie":null,"type":null,"datum_inschrijving_monumentenregister":"1967-11-21","monument_aard":"onroerend gebouwd"},"geometry":{"type":"Point","coordinates":[5.037449781610919,52.45705685140767]}},{"type":"Feature","properties":{"cho_uri":"https://linkeddata.cultureelerfgoed.nl/cho-kennis/id/rijksmonument/34076","rijksmonumentnummer":"502409","naam":null,"geometry_bron":"Point","monumentenregister_url":"https://monumentenregister.cultureelerfgoed.nl/monumenten/502409","oorspronkelijke_functie":"Stadhuis","oorspronkelijke_functie_kort":"Stadhuis","huidige_functie":null,"type":null,"datum_inschrijving_monumentenregister":"1996-12-16","monument_aard":"onroerend gebouwd"},"geometry":{"type":"Point","coordinates":[5.106261288008831,52.773847229368386]}},{"type":"Feature","properties":{"cho_uri":"https://linkeddata.cultureelerfgoed.nl/cho-kennis/id/rijksmonument/35512","rijksmonumentnummer":"31960","naam":null,"geometry_bron":"Point","monumentenregister_url":"https://monumentenregister.cultureelerfgoed.nl/monumenten/31960","oorspronkelijke_functie":"Werk-woonhuis","oorspronkelijke_functie_kort":"Werk-woonhuis","huidige_functie":null,"type":null,"datum_inschrijving_monumentenregister":"1970-12-15","monument_aard":"onroerend gebouwd"},"geometry":{"type":"Point","coordinates":[4.902102340899406,52.29535897282823]}},{"type":"Feature","properties":{"cho_uri":"https://linkeddata.cultureelerfgoed.nl/cho-kennis/id/rijksmonument/40686","rijksmonumentnummer":"31963","naam":null,"geometry_bron":"Point","monumentenregister_url":"https://monumentenregister.cultureelerfgoed.nl/monumenten/31963","oorspronkelijke_functie":"Dienstwoning(K)","oorspronkelijke_functie_kort":"Dienstwoning","huidige_functie":null,"type":null,"datum_inschrijving_monumentenregister":"1970-12-15","monument_aard":"onroerend gebouwd"},"geometry":{"type":"Point","coordinates":[4.902891420117606,52.295631179391435]}},{"type":"Feature","properties":{"cho_uri":"https://linkeddata.cultureelerfgoed.nl/cho-kennis/id/rijksmonument/41852","rijksmonumentnummer":"511953","naam":"Het Rechthuis","geometry_bron":"Point","monumentenregister_url":"https://monumentenregister.cultureelerfgoed.nl/monumenten/511953","oorspronkelijke_functie":"Hotel","oorspronkelijke_functie_kort":"Hotel","huidige_functie":"Hotel","type":"Villa","datum_inschrijving_monumentenregister":"1999-09-16","monument_aard":"onroerend gebouwd"},"geometry":{"type":"Point","coordinates":[5.112326608510719,52.32585496779069]}},{"type":"Feature","properties":{"cho_uri":"https://linkeddata.cultureelerfgoed.nl/cho-kennis/id/rijksmonument/42006","rijksmonumentnummer":"31951","naam":null,"geometry_bron":"Point","monumentenregister_url":"https://monumentenregister.cultureelerfgoed.nl/monumenten/31951","oorspronkelijke_functie":"Woonhuis","oorspronkelijke_functie_kort":"Woonhuis","huidige_functie":null,"type":null,"datum_inschrijving_monumentenregister":"1970-12-15","monument_aard":"onroerend gebouwd"},"geometry":{"type":"Point","coordinates":[4.901813083147855,52.29504254876903]}},{"type":"Feature","properties":{"cho_uri":"https://linkeddata.cultureelerfgoed.nl/cho-kennis/id/rijksmonument/45873","rijksmonumentnummer":"14424","naam":null,"geometry_bron":"Point","monumentenregister_url":"https://monumentenregister.cultureelerfgoed.nl/monumenten/14424","oorspronkelijke_functie":"Woonhuis(K)","oorspronkelijke_functie_kort":"Woonhuis","huidige_functie":null,"type":null,"datum_inschrijving_monumentenregister":"1967-11-15","monument_aard":"onroerend gebouwd"},"geometry":{"type":"Point","coordinates":[5.056903226296143,52.5137864909582]}},{"type":"Feature","properties":{"cho_uri":"https://linkeddata.cultureelerfgoed.nl/cho-kennis/id/rijksmonument/47970","rijksmonumentnummer":"31965","naam":null,"geometry_bron":"Point","monumentenregister_url":"https://monumentenregister.cultureelerfgoed.nl/monumenten/31965","oorspronkelijke_functie":"Woonhuis","oorspronkelijke_functie_kort":"Woonhuis","huidige_functie":null,"type":null,"datum_inschrijving_monumentenregister":"1970-12-15","monument_aard":"onroerend gebouwd"},"geometry":{"type":"Point","coordinates":[4.903145206132606,52.296513690252816]}},{"type":"Feature","properties":{"cho_uri":"https://linkeddata.cultureelerfgoed.nl/cho-kennis/id/rijksmonument/49471","rijksmonumentnummer":"31977","naam":null,"geometry_bron":"Polygon","monumentenregister_url":"https://monumentenregister.cultureelerfgoed.nl/monumenten/31977","oorspronkelijke_functie":"Brug(C) ","oorspronkelijke_functie_kort":"Brug","huidige_functie":null,"type":null,"datum_inschrijving_monumentenregister":"1970-12-09","monument_aard":"onroerend gebouwd"},"geometry":{"type":"Polygon","coordinates":[[[4.901969591497987,52.29507374970135],[4.902044720644701,52.29503990414525],[4.902075218286599,52.295066093995025],[4.902080905012003,52.29508229543624],[4.902117226735391,52.295112104302206],[4.902160799140241,52.29514913316791],[4.902213235147252,52.295179906879035],[4.902216156975763,52.29518081764555],[4.902248110828928,52.2952079122054],[4.902172981552252,52.29524175788952],[4.901969591497987,52.29507374970135]]]}},{"type":"Feature","properties":{"cho_uri":"https://linkeddata.cultureelerfgoed.nl/cho-kennis/id/rijksmonument/51191","rijksmonumentnummer":"511295","naam":null,"geometry_bron":"Point","monumentenregister_url":"https://monumentenregister.cultureelerfgoed.nl/monumenten/511295","oorspronkelijke_functie":"Verenigingsgebouw","oorspronkelijke_functie_kort":"Verenigingsgebouw","huidige_functie":"Café","type":null,"datum_inschrijving_monumentenregister":"1999-11-23","monument_aard":"onroerend gebouwd"},"geometry":{"type":"Point","coordinates":[4.903418270881008,52.29432177478993]}},{"type":"Feature","properties":{"cho_uri":"https://linkeddata.cultureelerfgoed.nl/cho-kennis/id/rijksmonument/57791","rijksmonumentnummer":"14423","naam":null,"geometry_bron":"Point","monumentenregister_url":"https://monumentenregister.cultureelerfgoed.nl/monumenten/14423","oorspronkelijke_functie":"Woonhuis(K)","oorspronkelijke_functie_kort":"Woonhuis","huidige_functie":null,"type":null,"datum_inschrijving_monumentenregister":"1967-11-15","monument_aard":"onroerend gebouwd"},"geometry":{"type":"Point","coordinates":[5.05765289542726,52.513915188011865]}},{"type":"Feature","properties":{"cho_uri":"https://linkeddata.cultureelerfgoed.nl/cho-kennis/id/rijksmonument/61326","rijksmonumentnummer":"31971","naam":null,"geometry_bron":"Point","monumentenregister_url":"https://monumentenregister.cultureelerfgoed.nl/monumenten/31971","oorspronkelijke_functie":"Boerderij (M)","oorspronkelijke_functie_kort":"Boerderij","huidige_functie":null,"type":null,"datum_inschrijving_monumentenregister":"1970-12-15","monument_aard":"onroerend gebouwd"},"geometry":{"type":"Point","coordinates":[4.908213148363585,52.294179515323385]}},{"type":"Feature","properties":{"cho_uri":"https://linkeddata.cultureelerfgoed.nl/cho-kennis/id/rijksmonument/72432","rijksmonumentnummer":"511287","naam":"St. Urbanuskerk","geometry_bron":"Point","monumentenregister_url":"https://monumentenregister.cultureelerfgoed.nl/monumenten/511287","oorspronkelijke_functie":"Kerk","oorspronkelijke_functie_kort":"Kerk","huidige_functie":null,"type":"Kruisbasiliek","datum_inschrijving_monumentenregister":"1998-11-03","monument_aard":"onroerend gebouwd"},"geometry":{"type":"Point","coordinates":[4.90178673007981,52.294728528620396]}},{"type":"Feature","properties":{"cho_uri":"https://linkeddata.cultureelerfgoed.nl/cho-kennis/id/rijksmonument/77282","rijksmonumentnummer":"527225","naam":"Begraafplaats","geometry_bron":"Polygon","monumentenregister_url":"https://monumentenregister.cultureelerfgoed.nl/monumenten/527225","oorspronkelijke_functie":"Begraafplaats","oorspronkelijke_functie_kort":"Begraafplaats","huidige_functie":null,"type":"Begraafplaats en -onderdelen","datum_inschrijving_monumentenregister":"2006-01-24","monument_aard":"onroerend gebouwd"},"geometry":{"type":"Polygon","coordinates":[[[5.180120124677441,52.282340586153055],[5.180058354946273,52.282388113063256],[5.180012788525553,52.28241769282778],[5.179918699515694,52.28248223977213],[5.179799635001997,52.282560224474416],[5.179626193738495,52.28267136831313],[5.179624724106771,52.28267226450893],[5.179111313435333,52.28246644182122],[5.178829023807691,52.28235090172397],[5.178496586613512,52.28230447814039],[5.178609917430232,52.28219952139007],[5.178904058132731,52.281974447231114],[5.178661262468014,52.28187515420463],[5.178359948542593,52.28175508555278],[5.178486471140844,52.28164925342606],[5.178685084213323,52.28148243156932],[5.179359373988079,52.28175325073974],[5.179806938616371,52.28193648758775],[5.179923945699462,52.28198522651608],[5.180351011613772,52.282165729044515],[5.18031718989537,52.28219083559028],[5.180137776732798,52.28232623665772],[5.180120124677441,52.282340586153055]]]}},{"type":"Feature","properties":{"cho_uri":"https://linkeddata.cultureelerfgoed.nl/cho-kennis/id/rijksmonument/78833","rijksmonumentnummer":"513300","naam":"Grafmonument Outshoorn","geometry_bron":"Point","monumentenregister_url":"https://monumentenregister.cultureelerfgoed.nl/monumenten/513300","oorspronkelijke_functie":"Grafmonument","oorspronkelijke_functie_kort":"Grafmonument","huidige_functie":null,"type":"Praalgraf","datum_inschrijving_monumentenregister":"1999-11-16","monument_aard":"onroerend gebouwd"},"geometry":{"type":"Point","coordinates":[4.640654132600337,52.39506662437138]}},{"type":"Feature","properties":{"cho_uri":"https://linkeddata.cultureelerfgoed.nl/cho-kennis/id/rijksmonument/66652","rijksmonumentnummer":"509015","naam":"Ned.Isra%litische begraafplaats","geometry_bron":"Point","monumentenregister_url":"https://monumentenregister.cultureelerfgoed.nl/monumenten/509015","oorspronkelijke_functie":"Opslaggebouw","oorspronkelijke_functie_kort":"Opslaggebouw","huidige_functie":null,"type":null,"datum_inschrijving_monumentenregister":"1998-11-03","monument_aard":"onroerend gebouwd"},"geometry":{"type":"Point","coordinates":[4.968609518722174,52.34522485043724]}},{"type":"Feature","properties":{"cho_uri":"https://linkeddata.cultureelerfgoed.nl/cho-kennis/id/rijksmonument/67552","rijksmonumentnummer":"464869","naam":"Courtine II-III","geometry_bron":"Polygon","monumentenregister_url":"https://monumentenregister.cultureelerfgoed.nl/monumenten/464869","oorspronkelijke_functie":"Omwalling","oorspronkelijke_functie_kort":"Omwalling","huidige_functie":null,"type":null,"datum_inschrijving_monumentenregister":"1993-11-04","monument_aard":"onroerend gebouwd"},"geometry":{"type":"Polygon","coordinates":[[[5.275845125434796,52.70199268554067],[5.275916251197252,52.701947817500155],[5.276003652648375,52.701902065914986],[5.276172591813764,52.701788988536194],[5.276208170258719,52.701760263609394],[5.276240805712412,52.70172524510397],[5.276300254025686,52.701617457680285],[5.276443747265358,52.70162118588781],[5.276445301362715,52.701591530572415],[5.276445342103834,52.701575354195775],[5.276384686553503,52.70157529780793],[5.276300358278441,52.70157611805135],[5.276304946063161,52.701516808800086],[5.276328623287564,52.701514134761815],[5.276344919359643,52.701505163024876],[5.276346428211328,52.70149348146212],[5.276330202382016,52.70147459388338],[5.276299277758112,52.7014179476556],[5.276221175821248,52.701296551830964],[5.276154902629451,52.701177863043405],[5.276110666215406,52.7011203056672],[5.276003132167764,52.700937771340016],[5.275972162882716,52.70089909877451],[5.275830481433791,52.700765061657506],[5.275777324073911,52.70072546961133],[5.275595750952259,52.70057162372373],[5.275514591026075,52.70049066559134],[5.275508673557721,52.70049066004524],[5.27537730467531,52.70037460583801],[5.277434652581691,52.70055535792125],[5.2774424307248,52.700402587796816],[5.277408177319823,52.70108645923688],[5.27740513777144,52.70111880926903],[5.277390070116423,52.70122843553849],[5.277363104371576,52.70136321415009],[5.277382332038443,52.70136502924966],[5.27737613615476,52.70147646106517],[5.277367248529907,52.70148094632286],[5.277361054836027,52.70159147944671],[5.277387347494826,52.70172630712732],[5.277375404494696,52.701769433224634],[5.277363454737216,52.70181525538299],[5.277330620280309,52.70193025738714],[5.277326137125478,52.70194822704595],[5.277320167813554,52.701968891402956],[5.275845125434796,52.70199268554067]]]}},{"type":"Feature","properties":{"cho_uri":"https://linkeddata.cultureelerfgoed.nl/cho-kennis/id/rijksmonument/67553","rijksmonumentnummer":"464868","naam":"Bastion II","geometry_bron":"Polygon","monumentenregister_url":"https://monumentenregister.cultureelerfgoed.nl/monumenten/464868","oorspronkelijke_functie":"Omwalling","oorspronkelijke_functie_kort":"Omwalling","huidige_functie":null,"type":null,"datum_inschrijving_monumentenregister":"1993-11-04","monument_aard":"onroerend gebouwd"},"geometry":{"type":"Polygon","coordinates":[[[5.277454219337325,52.699828335734345],[5.277442279163303,52.69987056317117],[5.27744634714069,52.70001885077669],[5.277447707624736,52.700066482601365],[5.277448781038069,52.70022914648132],[5.2774379926322,52.70040258370915],[5.2774424307248,52.700402587796816],[5.277434652581691,52.70055535792125],[5.27537730467531,52.70037460583801],[5.275293170786706,52.70029993558938],[5.275200154169,52.70022795300144],[5.275114546087856,52.70015148385776],[5.275059926803235,52.70010559927861],[5.274965488967116,52.70001114791403],[5.27494037441295,52.69999764390628],[5.274887124682123,52.699994897659856],[5.274882693516843,52.69999219741318],[5.274857771844186,52.69990320360218],[5.274857868266501,52.69986545870881],[5.274871361428763,52.69979537359983],[5.274910042359362,52.69971003449329],[5.2749664109754,52.699649875357075],[5.2750331095802,52.699599611509136],[5.27513824327163,52.69956016805587],[5.275187091107806,52.69954853101009],[5.275194455740484,52.69956111959498],[5.275200368506058,52.69956292253273],[5.275302449538021,52.69956032236214],[5.275407518927748,52.69954604193529],[5.275471162308861,52.69953351996212],[5.27563844569489,52.69948694480068],[5.275798300196728,52.69945294412176],[5.275879724885059,52.69942875557903],[5.276027807957158,52.69936958026884],[5.276029285014742,52.699370480337],[5.276057342306741,52.69939027769316],[5.276101713126924,52.699393913829404],[5.277454219337325,52.699828335734345]]]}},{"type":"Feature","properties":{"cho_uri":"https://linkeddata.cultureelerfgoed.nl/cho-kennis/id/rijksmonument/67554","rijksmonumentnummer":"464867","naam":"Courtine I-II","geometry_bron":"Point","monumentenregister_url":"https://monumentenregister.cultureelerfgoed.nl/monumenten/464867","oorspronkelijke_functie":"Omwalling","oorspronkelijke_functie_kort":"Omwalling","huidige_functie":null,"type":null,"datum_inschrijving_monumentenregister":"1993-11-04","monument_aard":"onroerend gebouwd"},"geometry":{"type":"Point","coordinates":[5.27714250364055,52.69947397580432]}},{"type":"Feature","properties":{"cho_uri":"https://linkeddata.cultureelerfgoed.nl/cho-kennis/id/rijksmonument/78839","rijksmonumentnummer":"513294","naam":"Joodse Begraafplaats","geometry_bron":"Point","monumentenregister_url":"https://monumentenregister.cultureelerfgoed.nl/monumenten/513294","oorspronkelijke_functie":"Begraafplaats","oorspronkelijke_functie_kort":"Begraafplaats","huidige_functie":null,"type":null,"datum_inschrijving_monumentenregister":"1999-11-16","monument_aard":"onroerend gebouwd"},"geometry":{"type":"Point","coordinates":[4.639818725660223,52.395816334426556]}},{"type":"Feature","properties":{"cho_uri":"https://linkeddata.cultureelerfgoed.nl/cho-kennis/id/rijksmonument/68708","rijksmonumentnummer":"511292","naam":null,"geometry_bron":"Point","monumentenregister_url":"https://monumentenregister.cultureelerfgoed.nl/monumenten/511292","oorspronkelijke_functie":"Wagenschuur (G)","oorspronkelijke_functie_kort":"Wagenschuur","huidige_functie":"Wagenschuur (G)","type":null,"datum_inschrijving_monumentenregister":"1998-11-03","monument_aard":"onroerend gebouwd"},"geometry":{"type":"Point","coordinates":[4.90203478102853,52.29617658911215]}},{"type":"Feature","properties":{"cho_uri":"https://linkeddata.cultureelerfgoed.nl/cho-kennis/id/rijksmonument/74694","rijksmonumentnummer":"524894","naam":null,"geometry_bron":"Point","monumentenregister_url":"https://monumentenregister.cultureelerfgoed.nl/monumenten/524894","oorspronkelijke_functie":"Begraafplaatshek","oorspronkelijke_functie_kort":"Begraafplaatshek","huidige_functie":"Begraafplaatshek","type":null,"datum_inschrijving_monumentenregister":"2002-05-10","monument_aard":"onroerend gebouwd"},"geometry":{"type":"Point","coordinates":[4.72846825420608,52.62521979297623]}},{"type":"Feature","properties":{"cho_uri":"https://linkeddata.cultureelerfgoed.nl/cho-kennis/id/rijksmonument/74695","rijksmonumentnummer":"524893","naam":null,"geometry_bron":"Point","monumentenregister_url":"https://monumentenregister.cultureelerfgoed.nl/monumenten/524893","oorspronkelijke_functie":"Baarhuisje","oorspronkelijke_functie_kort":"Baarhuisje","huidige_functie":"Baarhuisje","type":null,"datum_inschrijving_monumentenregister":"2002-05-10","monument_aard":"onroerend gebouwd"},"geometry":{"type":"Point","coordinates":[4.727932581642782,52.625486442587295]}},{"type":"Feature","properties":{"cho_uri":"https://linkeddata.cultureelerfgoed.nl/cho-kennis/id/rijksmonument/78835","rijksmonumentnummer":"513298","naam":null,"geometry_bron":"Point","monumentenregister_url":"https://monumentenregister.cultureelerfgoed.nl/monumenten/513298","oorspronkelijke_functie":"Grafteken","oorspronkelijke_functie_kort":"Grafteken","huidige_functie":"Grafteken","type":null,"datum_inschrijving_monumentenregister":"1999-11-16","monument_aard":"onroerend gebouwd"},"geometry":{"type":"Point","coordinates":[4.639074043135941,52.39554199620944]}},{"type":"Feature","properties":{"cho_uri":"https://linkeddata.cultureelerfgoed.nl/cho-kennis/id/rijksmonument/78837","rijksmonumentnummer":"513296","naam":null,"geometry_bron":"Point","monumentenregister_url":"https://monumentenregister.cultureelerfgoed.nl/monumenten/513296","oorspronkelijke_functie":"Grafteken","oorspronkelijke_functie_kort":"Grafteken","huidige_functie":"Grafteken","type":null,"datum_inschrijving_monumentenregister":"1999-11-16","monument_aard":"onroerend gebouwd"},"geometry":{"type":"Point","coordinates":[4.640714560392045,52.39496813890966]}},{"type":"Feature","properties":{"cho_uri":"https://linkeddata.cultureelerfgoed.nl/cho-kennis/id/rijksmonument/78838","rijksmonumentnummer":"513295","naam":null,"geometry_bron":"Point","monumentenregister_url":"https://monumentenregister.cultureelerfgoed.nl/monumenten/513295","oorspronkelijke_functie":"Grafteken","oorspronkelijke_functie_kort":"Grafteken","huidige_functie":"Grafteken","type":null,"datum_inschrijving_monumentenregister":"1999-11-16","monument_aard":"onroerend gebouwd"},"geometry":{"type":"Point","coordinates":[4.640670640015516,52.394958874163734]}},{"type":"Feature","properties":{"cho_uri":"https://linkeddata.cultureelerfgoed.nl/cho-kennis/id/rijksmonument/78840","rijksmonumentnummer":"513293","naam":null,"geometry_bron":"Point","monumentenregister_url":"https://monumentenregister.cultureelerfgoed.nl/monumenten/513293","oorspronkelijke_functie":"Kapel(F1)","oorspronkelijke_functie_kort":"Kapel","huidige_functie":"Kapel(F1)","type":null,"datum_inschrijving_monumentenregister":"1999-11-16","monument_aard":"onroerend gebouwd"},"geometry":{"type":"Point","coordinates":[4.640834523089678,52.39656873332698]}},{"type":"Feature","properties":{"cho_uri":"https://linkeddata.cultureelerfgoed.nl/cho-kennis/id/rijksmonument/78841","rijksmonumentnummer":"513292","naam":null,"geometry_bron":"Point","monumentenregister_url":"https://monumentenregister.cultureelerfgoed.nl/monumenten/513292","oorspronkelijke_functie":"Grafmonument","oorspronkelijke_functie_kort":"Grafmonument","huidige_functie":"Grafmonument","type":null,"datum_inschrijving_monumentenregister":"1999-11-16","monument_aard":"onroerend gebouwd"},"geometry":{"type":"Point","coordinates":[4.640683362452538,52.395075796508586]}},{"type":"Feature","properties":{"cho_uri":"https://linkeddata.cultureelerfgoed.nl/cho-kennis/id/rijksmonument/78844","rijksmonumentnummer":"513289","naam":null,"geometry_bron":"Point","monumentenregister_url":"https://monumentenregister.cultureelerfgoed.nl/monumenten/513289","oorspronkelijke_functie":"Abri","oorspronkelijke_functie_kort":"Abri","huidige_functie":"Abri","type":null,"datum_inschrijving_monumentenregister":"1999-11-16","monument_aard":"onroerend gebouwd"},"geometry":{"type":"Point","coordinates":[4.639068884436818,52.395847550749956]}},{"type":"Feature","properties":{"cho_uri":"https://linkeddata.cultureelerfgoed.nl/cho-kennis/id/rijksmonument/78845","rijksmonumentnummer":"513288","naam":null,"geometry_bron":"Point","monumentenregister_url":"https://monumentenregister.cultureelerfgoed.nl/monumenten/513288","oorspronkelijke_functie":"Toegangshek","oorspronkelijke_functie_kort":"Toegangshek","huidige_functie":"Toegangshek","type":null,"datum_inschrijving_monumentenregister":"1999-11-16","monument_aard":"onroerend gebouwd"},"geometry":{"type":"Point","coordinates":[4.641129693548882,52.395617880860684]}},{"type":"Feature","properties":{"cho_uri":"https://linkeddata.cultureelerfgoed.nl/cho-kennis/id/rijksmonument/78847","rijksmonumentnummer":"513286","naam":null,"geometry_bron":"Point","monumentenregister_url":"https://monumentenregister.cultureelerfgoed.nl/monumenten/513286","oorspronkelijke_functie":"Toegangshek","oorspronkelijke_functie_kort":"Toegangshek","huidige_functie":"Toegangshek","type":null,"datum_inschrijving_monumentenregister":"1999-11-16","monument_aard":"onroerend gebouwd"},"geometry":{"type":"Point","coordinates":[4.638835227605778,52.39489336136982]}},{"type":"Feature","properties":{"cho_uri":"https://linkeddata.cultureelerfgoed.nl/cho-kennis/id/rijksmonument/75317","rijksmonumentnummer":"530995","naam":null,"geometry_bron":"Polygon","monumentenregister_url":"https://monumentenregister.cultureelerfgoed.nl/monumenten/530995","oorspronkelijke_functie":"Historische aanleg","oorspronkelijke_functie_kort":"Historische aanleg","huidige_functie":null,"type":"Tuin, park en plantsoen","datum_inschrijving_monumentenregister":"2010-06-14","monument_aard":"onroerend gebouwd"},"geometry":{"type":"Polygon","coordinates":[[[4.608270588179308,52.38946578883729],[4.608394968585589,52.3895771580186],[4.608478821088576,52.38965410656259],[4.608528099710702,52.38969217976238],[4.608668197100773,52.389828818095424],[4.608697101166419,52.38985597179866],[4.608714412056871,52.38987406138846],[4.608748907621895,52.38991743004568],[4.6087661712116,52.38993821568479],[4.608809211898368,52.38999691991362],[4.608895230495379,52.39011792306546],[4.608966797311955,52.390225349337356],[4.609008101436039,52.390299321493956],[4.60901505147906,52.39032183689779],[4.609014909485416,52.390329925068436],[4.609000805898861,52.39038016458905],[4.608344605054189,52.39060414307881],[4.608182188552532,52.39065071059538],[4.607987297780066,52.39070605210848],[4.60780142539986,52.390749768396105],[4.607652417645784,52.39078563796672],[4.607456372889003,52.390822995226586],[4.607356154925622,52.39084120988204],[4.607185239333751,52.3908697442809],[4.606769534572398,52.390950592834244],[4.60652179138526,52.3910037860462],[4.606412584998238,52.39103182733471],[4.606298924220985,52.39106253551824],[4.606186795545194,52.391089658539926],[4.606090904038076,52.3911123946092],[4.605980434098362,52.39112874290398],[4.605834614921285,52.391150250600184],[4.605668294078744,52.39116802766047],[4.605504990191755,52.39118133045487],[4.605331372045866,52.391196362505546],[4.605165209387515,52.39120515201006],[4.604993155113157,52.39121480115601],[4.60482268072604,52.3912181689633],[4.604688961125624,52.39121998181902],[4.604221970587497,52.39120970481514],[4.60409136348764,52.39120165088926],[4.603765500990241,52.39118601372626],[4.603564306375073,52.39118198616849],[4.603486469420591,52.391180572284796],[4.603464435597626,52.391180426464416],[4.603439495712851,52.391178463827366],[4.603173732213342,52.39117041309105],[4.602574534346397,52.391076565564724],[4.60228446841159,52.39103060263515],[4.601912398606983,52.39096971459455],[4.601760061505697,52.39094443698478],[4.60165905687883,52.390923993647185],[4.601439548420275,52.3908758002823],[4.601379593922591,52.39086012302518],[4.601351828021125,52.390851849664735],[4.60126581564282,52.390814428468225],[4.601214786287566,52.39079251883056],[4.601170910283244,52.3907814421309],[4.601119769451457,52.390765823241566],[4.601067239441357,52.39074570115815],[4.601022101825786,52.39072293175802],[4.600971263980886,52.39069023780548],[4.600907477087377,52.390642178422496],[4.600863936101456,52.39061222924187],[4.600728874909486,52.39052414970567],[4.600658925889666,52.39049222748116],[4.600548198733511,52.390440260957924],[4.600374612472186,52.39037079967928],[4.600208339301795,52.390303184323855],[4.600088767892708,52.390252956167856],[4.60004211451637,52.39023287268277],[4.599916683897566,52.39018170661321],[4.599816176734906,52.3901334024993],[4.599685062716623,52.39007141290878],[4.5996608740586,52.39002721132656],[4.599680783803662,52.38998150542992],[4.599728793794559,52.3899252009112],[4.599821843732776,52.38981436964775],[4.599849065658362,52.3897705099213],[4.599859922422841,52.38973822565572],[4.599864616363024,52.3897220786394],[4.599863498662633,52.389702297822176],[4.599859411296653,52.389684294840926],[4.599853934876256,52.38966178867251],[4.599839852761219,52.38962754101186],[4.599828309328362,52.38961577998635],[4.599790932896692,52.38956969315922],[4.599766393191015,52.38954526264593],[4.599696717824528,52.389498062220234],[4.599637069179048,52.38946530908231],[4.59955843718835,52.3894261381189],[4.599280248665984,52.389291266499036],[4.599232255610228,52.3892639834474],[4.5991799998298,52.389228582895704],[4.599119090778299,52.3891841368284],[4.598985937708666,52.389071800597705],[4.598896147520591,52.38899929966562],[4.59880051421108,52.38892496218007],[4.59873564700014,52.38885532342151],[4.59871110827077,52.388830892687885],[4.59869096010715,52.388807389975],[4.59868588403116,52.38876241664711],[4.598692159032597,52.38873998866652],[4.598693835684808,52.38872831555347],[4.598694091454394,52.388713936607516],[4.598697796435988,52.38867081933031],[4.598709834866473,52.388654721258995],[4.598763512187241,52.388610139131025],[4.598802293281312,52.38857714208158],[4.59882031886255,52.388554792325934],[4.598916305832403,52.388443981299616],[4.598940254558316,52.388418974583004],[4.598955278428795,52.38840019998775],[4.598986810937824,52.388361761883964],[4.59903777367168,52.38830457849438],[4.599035618967015,52.38826052341295],[4.599064883591892,52.38826700972422],[4.599089789685656,52.38827077064879],[4.599133918307166,52.38826746917084],[4.599169090198535,52.388272197187824],[4.599186652183953,52.388275909218834],[4.599202761323232,52.38827871278877],[4.599295057647394,52.38829280879049],[4.599371388614309,52.388296013016614],[4.599474094562304,52.388302987808494],[4.599692805812379,52.38831253161694],[4.599773591210518,52.38831306883492],[4.599872050401312,52.38831102713647],[4.599924928116259,52.388311378696265],[4.599973542990966,52.38830361277887],[4.600031082506416,52.38828961463411],[4.600085732208581,52.38827290088157],[4.60014185069329,52.388256196866166],[4.600223210353252,52.388224381136304],[4.600298678657376,52.38819342499243],[4.600374114953676,52.3881642661691],[4.600437704893185,52.38814042133433],[4.600458539514315,52.38812528031925],[4.600532650303518,52.38808802347448],[4.600572547603392,52.38807480665633],[4.600608054373962,52.38806066186995],[4.600643736525143,52.38803663154234],[4.600667763783178,52.38800713104882],[4.601155116100368,52.38827551025738],[4.601190065129956,52.3882928192593],[4.602257259887018,52.38825316100204],[4.602499695425648,52.38825027381653],[4.602715787524389,52.3882418188772],[4.603040636087765,52.38823048861918],[4.603087527170576,52.38823709065478],[4.603144111915761,52.38827701209374],[4.603141031208331,52.388285080808004],[4.603165429031122,52.38831759879526],[4.603164872714519,52.3883490527695],[4.603152851878418,52.38836425261318],[4.603159671487666,52.3883939578428],[4.603169508239673,52.38841918909706],[4.60318980165563,52.388434602889376],[4.603213159898341,52.38844284664736],[4.603277597740586,52.388454058724705],[4.603406886661422,52.388453116964364],[4.603474325785386,52.388460753638824],[4.603515214748846,52.38847450610044],[4.603529728305712,52.388484488841605],[4.603538318877191,52.38849712875457],[4.603542328195293,52.38851962504101],[4.603574538594291,52.3886088184201],[4.603615863987822,52.38868099509133],[4.603695172890463,52.388765107338735],[4.603803938391004,52.38884492045356],[4.603945272982378,52.388910568250836],[4.604021160790054,52.388938932661816],[4.604125052067507,52.38896208946728],[4.604318400398578,52.388993926737484],[4.604912824497601,52.38902391997116],[4.605097598400118,52.38904221747214],[4.605108181616163,52.38902521036081],[4.60538010376398,52.38884994433792],[4.605437737920531,52.38908041504614],[4.605942536372465,52.38902802151418],[4.606072111976918,52.389010900510684],[4.606664014054797,52.38893391232698],[4.606908552359204,52.38897866581466],[4.607084642336918,52.388906125227564],[4.607165903350099,52.388879696837016],[4.607253102896938,52.38884971234554],[4.607477347468835,52.38879546412607],[4.607549621122712,52.38877886298319],[4.607691198978205,52.388747438598166],[4.607705476523927,52.3887709011142],[4.607735437295712,52.38882143055198],[4.607776990890493,52.388881024181984],[4.607844257062501,52.38898213134707],[4.607887232407199,52.38904443066097],[4.607907306568017,52.38907242524578],[4.607930318461838,52.38910043915905],[4.607930286864839,52.389102236530384],[4.607928849607977,52.389100429493105],[4.607440366797688,52.38922753846346],[4.607514091834462,52.38937902055854],[4.607518308739611,52.389389833798404],[4.607531307215522,52.38940250243507],[4.60766274544657,52.38953009707685],[4.608270588179308,52.38946578883729]]]}},{"type":"Feature","properties":{"cho_uri":"https://linkeddata.cultureelerfgoed.nl/cho-kennis/id/rijksmonument/77287","rijksmonumentnummer":"513214","naam":null,"geometry_bron":"Point","monumentenregister_url":"https://monumentenregister.cultureelerfgoed.nl/monumenten/513214","oorspronkelijke_functie":"Grafmonument","oorspronkelijke_functie_kort":"Grafmonument","huidige_functie":null,"type":"Familiegraf","datum_inschrijving_monumentenregister":"2000-12-04","monument_aard":"onroerend gebouwd"},"geometry":{"type":"Point","coordinates":[5.179347600503924,52.28207768776968]}},{"type":"Feature","properties":{"cho_uri":"https://linkeddata.cultureelerfgoed.nl/cho-kennis/id/rijksmonument/77288","rijksmonumentnummer":"513213","naam":null,"geometry_bron":"Point","monumentenregister_url":"https://monumentenregister.cultureelerfgoed.nl/monumenten/513213","oorspronkelijke_functie":"Graf","oorspronkelijke_functie_kort":"Graf","huidige_functie":null,"type":"Familiegraf","datum_inschrijving_monumentenregister":"2000-12-04","monument_aard":"onroerend gebouwd"},"geometry":{"type":"Point","coordinates":[5.179347600503924,52.28207768776968]}},{"type":"Feature","properties":{"cho_uri":"https://linkeddata.cultureelerfgoed.nl/cho-kennis/id/rijksmonument/77289","rijksmonumentnummer":"513212","naam":null,"geometry_bron":"Point","monumentenregister_url":"https://monumentenregister.cultureelerfgoed.nl/monumenten/513212","oorspronkelijke_functie":"Graf","oorspronkelijke_functie_kort":"Graf","huidige_functie":null,"type":"Familiegraf","datum_inschrijving_monumentenregister":"2000-12-04","monument_aard":"onroerend gebouwd"},"geometry":{"type":"Point","coordinates":[5.179347600503924,52.28207768776968]}},{"type":"Feature","properties":{"cho_uri":"https://linkeddata.cultureelerfgoed.nl/cho-kennis/id/rijksmonument/79013","rijksmonumentnummer":"529524","naam":null,"geometry_bron":"Polygon","monumentenregister_url":"https://monumentenregister.cultureelerfgoed.nl/monumenten/529524","oorspronkelijke_functie":"Poortgebouw","oorspronkelijke_functie_kort":"Poortgebouw","huidige_functie":null,"type":"Particuliere begraafplaats","datum_inschrijving_monumentenregister":"2005-09-26","monument_aard":"onroerend gebouwd"},"geometry":{"type":"Polygon","coordinates":[[[4.599747364037239,52.39119531485055],[4.59965228328645,52.3912549015027],[4.599649329473228,52.391255780648905],[4.599521564802901,52.39133582200346],[4.59947251530277,52.391367852185525],[4.599424982575463,52.391397196067274],[4.59925710866456,52.39150213643631],[4.599677190929798,52.39175479436253],[4.600240061972685,52.39141250203377],[4.599875239977286,52.39119167114425],[4.599856351527437,52.39117986129411],[4.599747364037239,52.39119531485055]],[[4.600219496976615,52.39141236537084],[4.599864845790091,52.39119789356873],[4.599851769169987,52.39118971751779],[4.599754564954749,52.391203451843054],[4.59966245397675,52.39126126067058],[4.59965946822888,52.39126393718469],[4.599657999305675,52.39126392741595],[4.599531735492895,52.391342181182495],[4.59948268599303,52.39137421136869],[4.599435153265594,52.39140355525448],[4.599277673698424,52.3915022732665],[4.599677414468902,52.391742212790234],[4.600219496976615,52.39141236537084]]]}},{"type":"Feature","properties":{"cho_uri":"https://linkeddata.cultureelerfgoed.nl/cho-kennis/id/rijksmonument/79014","rijksmonumentnummer":"526405","naam":null,"geometry_bron":"Polygon","monumentenregister_url":"https://monumentenregister.cultureelerfgoed.nl/monumenten/526405","oorspronkelijke_functie":"Begraafplaats","oorspronkelijke_functie_kort":"Begraafplaats","huidige_functie":null,"type":"Particuliere begraafplaats","datum_inschrijving_monumentenregister":"2005-09-26","monument_aard":"onroerend gebouwd"},"geometry":{"type":"Polygon","coordinates":[[[4.599747364037239,52.39119531485055],[4.599856351527437,52.39117986129411],[4.599875239977286,52.39119167114425],[4.600240061972685,52.39141250203377],[4.599677190929798,52.39175479436253],[4.59925710866456,52.39150213643631],[4.599424982575463,52.391397196067274],[4.59947251530277,52.391367852185525],[4.599521564802901,52.39133582200346],[4.599649329473228,52.391255780648905],[4.59965228328645,52.3912549015027],[4.599747364037239,52.39119531485055]]]}},{"type":"Feature","properties":{"cho_uri":"https://linkeddata.cultureelerfgoed.nl/cho-kennis/id/rijksmonument/61923","rijksmonumentnummer":"7464","naam":null,"geometry_bron":"Point","monumentenregister_url":"https://monumentenregister.cultureelerfgoed.nl/monumenten/7464","oorspronkelijke_functie":"Begraafplaats en -onderdelen","oorspronkelijke_functie_kort":"Begraafplaats en -onderdelen","huidige_functie":null,"type":null,"datum_inschrijving_monumentenregister":"1969-12-16","monument_aard":"onroerend gebouwd"},"geometry":{"type":"Point","coordinates":[4.728469758584634,52.62521923836676]}},{"type":"Feature","properties":{"cho_uri":"https://linkeddata.cultureelerfgoed.nl/cho-kennis/id/rijksmonument/66651","rijksmonumentnummer":"509016","naam":null,"geometry_bron":"Point","monumentenregister_url":"https://monumentenregister.cultureelerfgoed.nl/monumenten/509016","oorspronkelijke_functie":"Baarhuisje","oorspronkelijke_functie_kort":"Baarhuisje","huidige_functie":null,"type":null,"datum_inschrijving_monumentenregister":"1998-11-03","monument_aard":"onroerend gebouwd"},"geometry":{"type":"Point","coordinates":[4.968609518722174,52.34522485043724]}},{"type":"Feature","properties":{"cho_uri":"https://linkeddata.cultureelerfgoed.nl/cho-kennis/id/rijksmonument/66653","rijksmonumentnummer":"509014","naam":null,"geometry_bron":"Point","monumentenregister_url":"https://monumentenregister.cultureelerfgoed.nl/monumenten/509014","oorspronkelijke_functie":"Dienstwoning(K4)","oorspronkelijke_functie_kort":"Dienstwoning","huidige_functie":null,"type":null,"datum_inschrijving_monumentenregister":"1998-11-03","monument_aard":"onroerend gebouwd"},"geometry":{"type":"Point","coordinates":[4.96860901525625,52.345225563418026]}},{"type":"Feature","properties":{"cho_uri":"https://linkeddata.cultureelerfgoed.nl/cho-kennis/id/rijksmonument/66654","rijksmonumentnummer":"509013","naam":null,"geometry_bron":"Point","monumentenregister_url":"https://monumentenregister.cultureelerfgoed.nl/monumenten/509013","oorspronkelijke_functie":"Begraafplaats","oorspronkelijke_functie_kort":"Begraafplaats","huidige_functie":null,"type":null,"datum_inschrijving_monumentenregister":"1998-11-03","monument_aard":"onroerend gebouwd"},"geometry":{"type":"Point","coordinates":[4.968609518722174,52.34522485043724]}},{"type":"Feature","properties":{"cho_uri":"https://linkeddata.cultureelerfgoed.nl/cho-kennis/id/rijksmonument/66691","rijksmonumentnummer":"511940","naam":null,"geometry_bron":"Point","monumentenregister_url":"https://monumentenregister.cultureelerfgoed.nl/monumenten/511940","oorspronkelijke_functie":"Baarhuisje","oorspronkelijke_functie_kort":"Baarhuisje","huidige_functie":null,"type":null,"datum_inschrijving_monumentenregister":"1999-09-03","monument_aard":"onroerend gebouwd"},"geometry":{"type":"Point","coordinates":[5.108782557954907,52.32492993862233]}},{"type":"Feature","properties":{"cho_uri":"https://linkeddata.cultureelerfgoed.nl/cho-kennis/id/rijksmonument/66692","rijksmonumentnummer":"511939","naam":null,"geometry_bron":"Point","monumentenregister_url":"https://monumentenregister.cultureelerfgoed.nl/monumenten/511939","oorspronkelijke_functie":"Begraafplaatsaula","oorspronkelijke_functie_kort":"Begraafplaatsaula","huidige_functie":null,"type":null,"datum_inschrijving_monumentenregister":"1999-09-03","monument_aard":"onroerend gebouwd"},"geometry":{"type":"Point","coordinates":[5.108782557954907,52.32492993862233]}},{"type":"Feature","properties":{"cho_uri":"https://linkeddata.cultureelerfgoed.nl/cho-kennis/id/rijksmonument/66693","rijksmonumentnummer":"30135","naam":null,"geometry_bron":"Point","monumentenregister_url":"https://monumentenregister.cultureelerfgoed.nl/monumenten/30135","oorspronkelijke_functie":"Begraafplaats en -onderdelen","oorspronkelijke_functie_kort":"Begraafplaats en -onderdelen","huidige_functie":null,"type":null,"datum_inschrijving_monumentenregister":"1978-03-15","monument_aard":"onroerend gebouwd"},"geometry":{"type":"Point","coordinates":[5.108782557954907,52.32492993862233]}},{"type":"Feature","properties":{"cho_uri":"https://linkeddata.cultureelerfgoed.nl/cho-kennis/id/rijksmonument/68707","rijksmonumentnummer":"511293","naam":null,"geometry_bron":"Point","monumentenregister_url":"https://monumentenregister.cultureelerfgoed.nl/monumenten/511293","oorspronkelijke_functie":"Hek","oorspronkelijke_functie_kort":"Hek","huidige_functie":null,"type":null,"datum_inschrijving_monumentenregister":"1998-11-03","monument_aard":"onroerend gebouwd"},"geometry":{"type":"Point","coordinates":[4.90203478102853,52.29617658911215]}},{"type":"Feature","properties":{"cho_uri":"https://linkeddata.cultureelerfgoed.nl/cho-kennis/id/rijksmonument/68709","rijksmonumentnummer":"511291","naam":null,"geometry_bron":"Point","monumentenregister_url":"https://monumentenregister.cultureelerfgoed.nl/monumenten/511291","oorspronkelijke_functie":"Toegangshek","oorspronkelijke_functie_kort":"Toegangshek","huidige_functie":null,"type":null,"datum_inschrijving_monumentenregister":"1998-11-03","monument_aard":"onroerend gebouwd"},"geometry":{"type":"Point","coordinates":[4.902035255086556,52.296175928262386]}},{"type":"Feature","properties":{"cho_uri":"https://linkeddata.cultureelerfgoed.nl/cho-kennis/id/rijksmonument/68710","rijksmonumentnummer":"511290","naam":null,"geometry_bron":"Point","monumentenregister_url":"https://monumentenregister.cultureelerfgoed.nl/monumenten/511290","oorspronkelijke_functie":"Pastorie(F)","oorspronkelijke_functie_kort":"Pastorie","huidige_functie":null,"type":null,"datum_inschrijving_monumentenregister":"1998-11-03","monument_aard":"onroerend gebouwd"},"geometry":{"type":"Point","coordinates":[4.902035255086556,52.296175928262386]}},{"type":"Feature","properties":{"cho_uri":"https://linkeddata.cultureelerfgoed.nl/cho-kennis/id/rijksmonument/68711","rijksmonumentnummer":"31964","naam":null,"geometry_bron":"Point","monumentenregister_url":"https://monumentenregister.cultureelerfgoed.nl/monumenten/31964","oorspronkelijke_functie":"Tuinkoepel","oorspronkelijke_functie_kort":"Tuinkoepel","huidige_functie":null,"type":null,"datum_inschrijving_monumentenregister":"1970-12-15","monument_aard":"onroerend gebouwd"},"geometry":{"type":"Point","coordinates":[4.902035255086556,52.296175928262386]}},{"type":"Feature","properties":{"cho_uri":"https://linkeddata.cultureelerfgoed.nl/cho-kennis/id/rijksmonument/72431","rijksmonumentnummer":"511288","naam":null,"geometry_bron":"Point","monumentenregister_url":"https://monumentenregister.cultureelerfgoed.nl/monumenten/511288","oorspronkelijke_functie":"Pastorie(F)","oorspronkelijke_functie_kort":"Pastorie","huidige_functie":null,"type":null,"datum_inschrijving_monumentenregister":"1998-11-03","monument_aard":"onroerend gebouwd"},"geometry":{"type":"Point","coordinates":[4.90230150624028,52.294613136090724]}},{"type":"Feature","properties":{"cho_uri":"https://linkeddata.cultureelerfgoed.nl/cho-kennis/id/rijksmonument/76384","rijksmonumentnummer":"513223","naam":null,"geometry_bron":"Point","monumentenregister_url":"https://monumentenregister.cultureelerfgoed.nl/monumenten/513223","oorspronkelijke_functie":"Grafmonument","oorspronkelijke_functie_kort":"Grafmonument","huidige_functie":null,"type":null,"datum_inschrijving_monumentenregister":"2000-12-04","monument_aard":"onroerend gebouwd"},"geometry":{"type":"Point","coordinates":[5.178468601978215,52.28202221346873]}},{"type":"Feature","properties":{"cho_uri":"https://linkeddata.cultureelerfgoed.nl/cho-kennis/id/rijksmonument/76385","rijksmonumentnummer":"513222","naam":null,"geometry_bron":"Point","monumentenregister_url":"https://monumentenregister.cultureelerfgoed.nl/monumenten/513222","oorspronkelijke_functie":"Grafmonument","oorspronkelijke_functie_kort":"Grafmonument","huidige_functie":null,"type":null,"datum_inschrijving_monumentenregister":"2000-12-04","monument_aard":"onroerend gebouwd"},"geometry":{"type":"Point","coordinates":[5.178468601978215,52.28202221346873]}},{"type":"Feature","properties":{"cho_uri":"https://linkeddata.cultureelerfgoed.nl/cho-kennis/id/rijksmonument/76386","rijksmonumentnummer":"513221","naam":null,"geometry_bron":"Point","monumentenregister_url":"https://monumentenregister.cultureelerfgoed.nl/monumenten/513221","oorspronkelijke_functie":"Begraafplaatshek","oorspronkelijke_functie_kort":"Begraafplaatshek","huidige_functie":null,"type":null,"datum_inschrijving_monumentenregister":"2000-12-04","monument_aard":"onroerend gebouwd"},"geometry":{"type":"Point","coordinates":[5.178468601978215,52.28202221346873]}},{"type":"Feature","properties":{"cho_uri":"https://linkeddata.cultureelerfgoed.nl/cho-kennis/id/rijksmonument/76387","rijksmonumentnummer":"513220","naam":null,"geometry_bron":"Point","monumentenregister_url":"https://monumentenregister.cultureelerfgoed.nl/monumenten/513220","oorspronkelijke_functie":"Baarhuisje","oorspronkelijke_functie_kort":"Baarhuisje","huidige_functie":null,"type":null,"datum_inschrijving_monumentenregister":"2000-12-04","monument_aard":"onroerend gebouwd"},"geometry":{"type":"Point","coordinates":[5.178468601978215,52.28202221346873]}},{"type":"Feature","properties":{"cho_uri":"https://linkeddata.cultureelerfgoed.nl/cho-kennis/id/rijksmonument/77283","rijksmonumentnummer":"513218","naam":null,"geometry_bron":"Point","monumentenregister_url":"https://monumentenregister.cultureelerfgoed.nl/monumenten/513218","oorspronkelijke_functie":"Grafmonument","oorspronkelijke_functie_kort":"Grafmonument","huidige_functie":null,"type":null,"datum_inschrijving_monumentenregister":"2000-12-04","monument_aard":"onroerend gebouwd"},"geometry":{"type":"Point","coordinates":[5.179347391563976,52.28207850688758]}},{"type":"Feature","properties":{"cho_uri":"https://linkeddata.cultureelerfgoed.nl/cho-kennis/id/rijksmonument/77284","rijksmonumentnummer":"513217","naam":null,"geometry_bron":"Point","monumentenregister_url":"https://monumentenregister.cultureelerfgoed.nl/monumenten/513217","oorspronkelijke_functie":"Grafhek","oorspronkelijke_functie_kort":"Grafhek","huidige_functie":null,"type":null,"datum_inschrijving_monumentenregister":"2000-12-04","monument_aard":"onroerend gebouwd"},"geometry":{"type":"Point","coordinates":[5.179347600503924,52.28207768776968]}},{"type":"Feature","properties":{"cho_uri":"https://linkeddata.cultureelerfgoed.nl/cho-kennis/id/rijksmonument/77285","rijksmonumentnummer":"513216","naam":null,"geometry_bron":"Point","monumentenregister_url":"https://monumentenregister.cultureelerfgoed.nl/monumenten/513216","oorspronkelijke_functie":"Grafhek","oorspronkelijke_functie_kort":"Grafhek","huidige_functie":null,"type":null,"datum_inschrijving_monumentenregister":"2000-12-04","monument_aard":"onroerend gebouwd"},"geometry":{"type":"Point","coordinates":[5.179347391563976,52.28207850688758]}},{"type":"Feature","properties":{"cho_uri":"https://linkeddata.cultureelerfgoed.nl/cho-kennis/id/rijksmonument/77286","rijksmonumentnummer":"513215","naam":null,"geometry_bron":"Point","monumentenregister_url":"https://monumentenregister.cultureelerfgoed.nl/monumenten/513215","oorspronkelijke_functie":"Grafhek","oorspronkelijke_functie_kort":"Grafhek","huidige_functie":null,"type":null,"datum_inschrijving_monumentenregister":"2000-12-04","monument_aard":"onroerend gebouwd"},"geometry":{"type":"Point","coordinates":[5.179347600503924,52.28207768776968]}},{"type":"Feature","properties":{"cho_uri":"https://linkeddata.cultureelerfgoed.nl/cho-kennis/id/rijksmonument/77290","rijksmonumentnummer":"513211","naam":null,"geometry_bron":"Point","monumentenregister_url":"https://monumentenregister.cultureelerfgoed.nl/monumenten/513211","oorspronkelijke_functie":"Grafmonument","oorspronkelijke_functie_kort":"Grafmonument","huidige_functie":null,"type":null,"datum_inschrijving_monumentenregister":"2000-12-04","monument_aard":"onroerend gebouwd"},"geometry":{"type":"Point","coordinates":[5.179347600503924,52.28207768776968]}},{"type":"Feature","properties":{"cho_uri":"https://linkeddata.cultureelerfgoed.nl/cho-kennis/id/rijksmonument/77291","rijksmonumentnummer":"513210","naam":null,"geometry_bron":"Point","monumentenregister_url":"https://monumentenregister.cultureelerfgoed.nl/monumenten/513210","oorspronkelijke_functie":"Begraafplaatshek","oorspronkelijke_functie_kort":"Begraafplaatshek","huidige_functie":null,"type":null,"datum_inschrijving_monumentenregister":"2000-12-04","monument_aard":"onroerend gebouwd"},"geometry":{"type":"Point","coordinates":[5.180005323789788,52.282403220359356]}},{"type":"Feature","properties":{"cho_uri":"https://linkeddata.cultureelerfgoed.nl/cho-kennis/id/rijksmonument/77292","rijksmonumentnummer":"513209","naam":null,"geometry_bron":"Point","monumentenregister_url":"https://monumentenregister.cultureelerfgoed.nl/monumenten/513209","oorspronkelijke_functie":"Baarhuisje","oorspronkelijke_functie_kort":"Baarhuisje","huidige_functie":null,"type":null,"datum_inschrijving_monumentenregister":"2000-12-04","monument_aard":"onroerend gebouwd"},"geometry":{"type":"Point","coordinates":[5.178513702625777,52.28177962383155]}},{"type":"Feature","properties":{"cho_uri":"https://linkeddata.cultureelerfgoed.nl/cho-kennis/id/rijksmonument/78834","rijksmonumentnummer":"513299","naam":null,"geometry_bron":"Point","monumentenregister_url":"https://monumentenregister.cultureelerfgoed.nl/monumenten/513299","oorspronkelijke_functie":"Begraafplaats","oorspronkelijke_functie_kort":"Begraafplaats","huidige_functie":null,"type":null,"datum_inschrijving_monumentenregister":"1999-11-16","monument_aard":"onroerend gebouwd"},"geometry":{"type":"Point","coordinates":[4.63981038890543,52.39631061386074]}},{"type":"Feature","properties":{"cho_uri":"https://linkeddata.cultureelerfgoed.nl/cho-kennis/id/rijksmonument/78836","rijksmonumentnummer":"513297","naam":null,"geometry_bron":"Point","monumentenregister_url":"https://monumentenregister.cultureelerfgoed.nl/monumenten/513297","oorspronkelijke_functie":"Voetgangersbrug","oorspronkelijke_functie_kort":"Voetgangersbrug","huidige_functie":null,"type":null,"datum_inschrijving_monumentenregister":"1999-11-16","monument_aard":"onroerend gebouwd"},"geometry":{"type":"Point","coordinates":[4.640317455754346,52.39673624235623]}}]}