{"type":"FeatureCollection","name":"rijksmonumenten","features":[{"type":"Feature","properties":{"cho_uri":"https://linkeddata.cultureelerfgoed.nl/cho-kennis/id/rijksmonument/19631","rijksmonumentnummer":"521645","naam":"Villa Maria","geometry_bron":"Point","monumentenregister_url":"https://monumentenregister.cultureelerfgoed.nl/monumenten/521645","oorspronkelijke_functie":"Woonhuis","oorspronkelijke_functie_kort":"Woonhuis","huidige_functie":"Woonhuis","type":"Villa","datum_inschrijving_monumentenregister":"2001-06-27","monument_aard":"onroerend gebouwd"},"geometry":{"type":"Point","coordinates":[5.873212325995507,50.996370178421174]}},{"type":"Feature","properties":{"cho_uri":"https://linkeddata.cultureelerfgoed.nl/cho-kennis/id/rijksmonument/36253","rijksmonumentnummer":"520567","naam":"Kepelse Meule","geometry_bron":"Point","monumentenregister_url":"https://monumentenregister.cultureelerfgoed.nl/monumenten/520567","oorspronkelijke_functie":"Molen","oorspronkelijke_functie_kort":"Molen","huidige_functie":null,"type":null,"datum_inschrijving_monumentenregister":"2002-04-22","monument_aard":"onroerend gebouwd"},"geometry":{"type":"Point","coordinates":[6.000211943943138,51.18034790396374]}},{"type":"Feature","properties":{"cho_uri":"https://linkeddata.cultureelerfgoed.nl/cho-kennis/id/rijksmonument/44075","rijksmonumentnummer":"36769","naam":"Kasteel Valkenburg","geometry_bron":"Polygon","monumentenregister_url":"https://monumentenregister.cultureelerfgoed.nl/monumenten/36769","oorspronkelijke_functie":"Kasteel, buitenplaats","oorspronkelijke_functie_kort":"Kasteel, buitenplaats","huidige_functie":null,"type":null,"datum_inschrijving_monumentenregister":"1967-03-14","monument_aard":"onroerend gebouwd"},"geometry":{"type":"Polygon","coordinates":[[[5.830148277909041,50.86217771667181],[5.830072832376587,50.862160027928056],[5.830069648009102,50.86212408457483],[5.830068098808937,50.862110607177506],[5.83007203290901,50.862076434333446],[5.830077198132898,50.862022481219974],[5.830087597318511,50.86192176583931],[5.830094096786895,50.86185881872614],[5.830097987862721,50.86182015160223],[5.830100570447192,50.861793175045115],[5.830036607853396,50.8617880267315],[5.830050492251702,50.8617547146633],[5.830068474029381,50.86170430801106],[5.830079853159572,50.8617060621984],[5.830076531276587,50.86165573715222],[5.830062294485425,50.86165219613363],[5.830088823434726,50.86160445340332],[5.830017673955756,50.861590343723826],[5.830143320225399,50.86136244354103],[5.83022284459893,50.86136123994066],[5.830413147029263,50.86135961165277],[5.830468561870707,50.86136209586393],[5.83046853605893,50.861359399296504],[5.830469844439092,50.861347708725745],[5.830637646893839,50.86136953744323],[5.830877976091128,50.86140097538277],[5.831061754730068,50.861459596614964],[5.83125835905633,50.86152266273839],[5.831415059286825,50.86157149963862],[5.83155037863209,50.861612328506844],[5.831560346181357,50.861614986862854],[5.831557531578332,50.86161769434749],[5.831468694634768,50.86168455353683],[5.831723746150426,50.86176986648112],[5.831803607746258,50.861803717164726],[5.831778310850234,50.86183168000012],[5.831686840385409,50.861920122816905],[5.831640403524,50.86196524578399],[5.831603804817986,50.86199954424919],[5.83156581168193,50.86203654472895],[5.831512342313452,50.86208888578484],[5.831479978308229,50.862120471269364],[5.831429306144858,50.86216830709292],[5.831381465770363,50.86221523312557],[5.831337834350142,50.86225674963604],[5.831332213660871,50.862263063450364],[5.831260435529696,50.86233165472076],[5.831253377320617,50.86233617627494],[5.831131975908788,50.86241394693955],[5.831075518612932,50.86245101815427],[5.831016229309466,50.86248899910164],[5.830968224521551,50.86251884670496],[5.830916131126067,50.86256668775689],[5.830913307814835,50.86256849637022],[5.830851349921845,50.862624465250995],[5.830847114945844,50.86262717816864],[5.830795004082472,50.86267322145487],[5.830820655084722,50.86268211192024],[5.830819260645866,50.86268481393738],[5.830812236783618,50.86269293088795],[5.830761675234804,50.8627524515467],[5.830730790795587,50.862790323364834],[5.830718051362994,50.86279486668096],[5.830647313035769,50.86282390246969],[5.830590725752749,50.862847490611976],[5.830535541478722,50.86286927556873],[5.830510079739435,50.86288015986835],[5.83049875193384,50.86288379885864],[5.830412398865613,50.8629137932627],[5.830416909199009,50.862939843747725],[5.830398454162134,50.86294081338445],[5.830294808123652,50.862944806215005],[5.830276344481603,50.8629448769764],[5.830257562631394,50.86291169006822],[5.830247440077057,50.86289285219467],[5.830224337239204,50.86285338961814],[5.830201208643516,50.862811230469404],[5.830182237729806,50.86275826872005],[5.83016767385124,50.86272057119213],[5.830137057112024,50.862637990725254],[5.830110701287126,50.86255539392741],[5.830115402260705,50.862452902595116],[5.830127943914262,50.86242768566071],[5.830167006251863,50.862353827119534],[5.830178161983484,50.862332211044915],[5.830209046570652,50.8622943393746],[5.83021897979291,50.86229340242278],[5.830230083888668,50.86226639320817],[5.830211603318557,50.86226466624723],[5.830230962377262,50.86220975984758],[5.83023508555649,50.862195361826565],[5.830148277909041,50.86217771667181]]]}},{"type":"Feature","properties":{"cho_uri":"https://linkeddata.cultureelerfgoed.nl/cho-kennis/id/rijksmonument/10393","rijksmonumentnummer":"28464","naam":null,"geometry_bron":"Polygon","monumentenregister_url":"https://monumentenregister.cultureelerfgoed.nl/monumenten/28464","oorspronkelijke_functie":"Begraafplaats en -onderdelen","oorspronkelijke_functie_kort":"Begraafplaats en -onderdelen","huidige_functie":null,"type":null,"datum_inschrijving_monumentenregister":"1967-01-17","monument_aard":"onroerend gebouwd"},"geometry":{"type":"Polygon","coordinates":[[[5.747241677237135,50.88001008281409],[5.747538095617314,50.88012331793235],[5.747593640539018,50.88014022365151],[5.747595152354146,50.88015190444938],[5.747598091989701,50.880164479682485],[5.747579838311775,50.88019240201896],[5.747554473504682,50.88021944762814],[5.747452839056216,50.88030515842058],[5.747339774663308,50.880382814753744],[5.747295931860353,50.88040901896831],[5.746974338032613,50.88016462429826],[5.747241677237135,50.88001008281409]]]}},{"type":"Feature","properties":{"cho_uri":"https://linkeddata.cultureelerfgoed.nl/cho-kennis/id/rijksmonument/15402","rijksmonumentnummer":"34841","naam":null,"geometry_bron":"Polygon","monumentenregister_url":"https://monumentenregister.cultureelerfgoed.nl/monumenten/34841","oorspronkelijke_functie":"Woonhuis(K)","oorspronkelijke_functie_kort":"Woonhuis","huidige_functie":null,"type":null,"datum_inschrijving_monumentenregister":"1967-01-16","monument_aard":"onroerend gebouwd"},"geometry":{"type":"Polygon","coordinates":[[[5.766347407659654,50.992474385800264],[5.766326464609465,50.99252569094128],[5.766303646660876,50.99252217007604],[5.766266077522902,50.99263015953549],[5.766231843145586,50.99262397935478],[5.766170510575374,50.992613393390045],[5.766224772432032,50.99245680941371],[5.766293218787047,50.992466473179356],[5.766347407659654,50.992474385800264]]]}},{"type":"Feature","properties":{"cho_uri":"https://linkeddata.cultureelerfgoed.nl/cho-kennis/id/rijksmonument/19736","rijksmonumentnummer":"21217","naam":null,"geometry_bron":"Polygon","monumentenregister_url":"https://monumentenregister.cultureelerfgoed.nl/monumenten/21217","oorspronkelijke_functie":"Kapel(F1)","oorspronkelijke_functie_kort":"Kapel","huidige_functie":null,"type":null,"datum_inschrijving_monumentenregister":"1967-03-14","monument_aard":"onroerend gebouwd"},"geometry":{"type":"Polygon","coordinates":[[[5.982306748728645,50.88483993051176],[5.982343195748672,50.88480109034724],[5.982420330187937,50.884832154859076],[5.982431905661634,50.88484827545789],[5.982415097323218,50.88486723882368],[5.982382427605727,50.88486830584334],[5.982306748728645,50.88483993051176]]]}},{"type":"Feature","properties":{"cho_uri":"https://linkeddata.cultureelerfgoed.nl/cho-kennis/id/rijksmonument/21485","rijksmonumentnummer":"37192","naam":null,"geometry_bron":"Point","monumentenregister_url":"https://monumentenregister.cultureelerfgoed.nl/monumenten/37192","oorspronkelijke_functie":"Begraafplaats en -onderdelen","oorspronkelijke_functie_kort":"Begraafplaats en -onderdelen","huidige_functie":null,"type":null,"datum_inschrijving_monumentenregister":"1971-04-20","monument_aard":"onroerend gebouwd"},"geometry":{"type":"Point","coordinates":[6.171507688242857,51.3554142108706]}},{"type":"Feature","properties":{"cho_uri":"https://linkeddata.cultureelerfgoed.nl/cho-kennis/id/rijksmonument/24522","rijksmonumentnummer":"33737","naam":null,"geometry_bron":"Polygon","monumentenregister_url":"https://monumentenregister.cultureelerfgoed.nl/monumenten/33737","oorspronkelijke_functie":"Woonhuis(K)","oorspronkelijke_functie_kort":"Woonhuis","huidige_functie":null,"type":null,"datum_inschrijving_monumentenregister":"1975-11-26","monument_aard":"onroerend gebouwd"},"geometry":{"type":"Polygon","coordinates":[[[5.872522418101296,50.99728997303452],[5.872530917255228,50.99728544296413],[5.872584713666044,50.997253756326465],[5.87268659372667,50.9973243419498],[5.872682348883755,50.99732705641739],[5.872617195022048,50.997362386261756],[5.872522418101296,50.99728997303452]]]}},{"type":"Feature","properties":{"cho_uri":"https://linkeddata.cultureelerfgoed.nl/cho-kennis/id/rijksmonument/26896","rijksmonumentnummer":"18280","naam":null,"geometry_bron":"Polygon","monumentenregister_url":"https://monumentenregister.cultureelerfgoed.nl/monumenten/18280","oorspronkelijke_functie":"Begraafplaats en -onderdelen","oorspronkelijke_functie_kort":"Begraafplaats en -onderdelen","huidige_functie":null,"type":null,"datum_inschrijving_monumentenregister":"1967-10-25","monument_aard":"onroerend gebouwd"},"geometry":{"type":"Polygon","coordinates":[[[5.773600124976724,51.035846029286844],[5.773094908591244,51.03578209365957],[5.773152924538656,51.035559875174116],[5.773658462743137,51.03566246165064],[5.773600124976724,51.035846029286844]]]}},{"type":"Feature","properties":{"cho_uri":"https://linkeddata.cultureelerfgoed.nl/cho-kennis/id/rijksmonument/27455","rijksmonumentnummer":"36782","naam":null,"geometry_bron":"Polygon","monumentenregister_url":"https://monumentenregister.cultureelerfgoed.nl/monumenten/36782","oorspronkelijke_functie":"Erfscheiding(D)","oorspronkelijke_functie_kort":"Erfscheiding","huidige_functie":null,"type":null,"datum_inschrijving_monumentenregister":"1967-03-14","monument_aard":"onroerend gebouwd"},"geometry":{"type":"Polygon","coordinates":[[[5.83192902868468,50.8624405469865],[5.831964612994574,50.86244850009848],[5.831960403999368,50.862453909623845],[5.831926239950644,50.86244595104724],[5.83192902868468,50.8624405469865]]]}},{"type":"Feature","properties":{"cho_uri":"https://linkeddata.cultureelerfgoed.nl/cho-kennis/id/rijksmonument/27664","rijksmonumentnummer":"33726","naam":null,"geometry_bron":"Polygon","monumentenregister_url":"https://monumentenregister.cultureelerfgoed.nl/monumenten/33726","oorspronkelijke_functie":"Woonhuis(K)","oorspronkelijke_functie_kort":"Woonhuis","huidige_functie":null,"type":null,"datum_inschrijving_monumentenregister":"1974-10-15","monument_aard":"onroerend gebouwd"},"geometry":{"type":"Polygon","coordinates":[[[5.872107632452159,50.99726474319023],[5.872152948847892,50.997239384498606],[5.872269062833918,50.9973090120078],[5.87228341087061,50.997318839750335],[5.872231019683292,50.99734872257823],[5.872107641900467,50.99726564204349],[5.872107632452159,50.99726474319023]]]}},{"type":"Feature","properties":{"cho_uri":"https://linkeddata.cultureelerfgoed.nl/cho-kennis/id/rijksmonument/30445","rijksmonumentnummer":"33728","naam":null,"geometry_bron":"Polygon","monumentenregister_url":"https://monumentenregister.cultureelerfgoed.nl/monumenten/33728","oorspronkelijke_functie":"Woonhuis(K)","oorspronkelijke_functie_kort":"Woonhuis","huidige_functie":null,"type":null,"datum_inschrijving_monumentenregister":"1975-11-26","monument_aard":"onroerend gebouwd"},"geometry":{"type":"Polygon","coordinates":[[[5.872366968764096,50.99727264630555],[5.87224078938911,50.99719407210959],[5.872269107327432,50.99717777347034],[5.872287747435835,50.99718938102616],[5.872317480304841,50.99717217755741],[5.872321734607498,50.99717036195642],[5.872300207885922,50.99715517092236],[5.872308688132555,50.997148843161796],[5.872440602934937,50.997230988831504],[5.872366968764096,50.99727264630555]]]}},{"type":"Feature","properties":{"cho_uri":"https://linkeddata.cultureelerfgoed.nl/cho-kennis/id/rijksmonument/37907","rijksmonumentnummer":"34847","naam":null,"geometry_bron":"Polygon","monumentenregister_url":"https://monumentenregister.cultureelerfgoed.nl/monumenten/34847","oorspronkelijke_functie":"Boerderij (M)","oorspronkelijke_functie_kort":"Boerderij","huidige_functie":null,"type":null,"datum_inschrijving_monumentenregister":"1967-01-16","monument_aard":"onroerend gebouwd"},"geometry":{"type":"Polygon","coordinates":[[[5.766388284714665,50.992595601804034],[5.766365466726815,50.992592080951034],[5.766380853032626,50.99255787285678],[5.766340914202605,50.992550812495104],[5.766350714224183,50.99253010600325],[5.766326464609465,50.99252569094128],[5.766347407659654,50.992474385800264],[5.766347392885034,50.99247258807359],[5.766504306852909,50.9925017376206],[5.766456753477978,50.992607962062884],[5.766388284714665,50.992595601804034]]]}},{"type":"Feature","properties":{"cho_uri":"https://linkeddata.cultureelerfgoed.nl/cho-kennis/id/rijksmonument/41555","rijksmonumentnummer":"36783","naam":null,"geometry_bron":"Polygon","monumentenregister_url":"https://monumentenregister.cultureelerfgoed.nl/monumenten/36783","oorspronkelijke_functie":"Woonhuis(K)","oorspronkelijke_functie_kort":"Woonhuis","huidige_functie":null,"type":null,"datum_inschrijving_monumentenregister":"1967-03-14","monument_aard":"onroerend gebouwd"},"geometry":{"type":"Polygon","coordinates":[[[5.832151661768666,50.861516531478294],[5.832151653132044,50.86151563262264],[5.832330355571382,50.86134145915962],[5.83241739580393,50.86138337177855],[5.832342806093432,50.86145467122101],[5.83234993318555,50.861457340445696],[5.832309126537807,50.861497048671644],[5.832301999441919,50.86149437944441],[5.832241482175453,50.86155214130799],[5.832238667616094,50.86155484880914],[5.832151661768666,50.861516531478294]]]}},{"type":"Feature","properties":{"cho_uri":"https://linkeddata.cultureelerfgoed.nl/cho-kennis/id/rijksmonument/45870","rijksmonumentnummer":"33727","naam":null,"geometry_bron":"Polygon","monumentenregister_url":"https://monumentenregister.cultureelerfgoed.nl/monumenten/33727","oorspronkelijke_functie":"Woonhuis(K)","oorspronkelijke_functie_kort":"Woonhuis","huidige_functie":null,"type":null,"datum_inschrijving_monumentenregister":"1967-07-19","monument_aard":"onroerend gebouwd"},"geometry":{"type":"Polygon","coordinates":[[[5.872170098400456,50.997244706063334],[5.872249401965714,50.997200328298746],[5.872365544358482,50.997272652270944],[5.872284835277667,50.997318833785926],[5.872269072285385,50.99730991086101],[5.872170098400456,50.997244706063334]]]}},{"type":"Feature","properties":{"cho_uri":"https://linkeddata.cultureelerfgoed.nl/cho-kennis/id/rijksmonument/45921","rijksmonumentnummer":"36763","naam":null,"geometry_bron":"Polygon","monumentenregister_url":"https://monumentenregister.cultureelerfgoed.nl/monumenten/36763","oorspronkelijke_functie":"Fort, vesting en -onderdelen","oorspronkelijke_functie_kort":"Fort, vesting en -onderdelen","huidige_functie":null,"type":null,"datum_inschrijving_monumentenregister":"1967-03-14","monument_aard":"onroerend gebouwd"},"geometry":{"type":"Polygon","coordinates":[[[5.832036152434737,50.86191158819703],[5.831960611655835,50.86188401327293],[5.831937801372175,50.86187511213346],[5.831947639508898,50.861864287620975],[5.831963331287786,50.86187141836617],[5.832004034955086,50.86182092399318],[5.832089569193608,50.86185385376625],[5.832044578942936,50.86190166799664],[5.832036152434737,50.86191158819703]]]}},{"type":"Feature","properties":{"cho_uri":"https://linkeddata.cultureelerfgoed.nl/cho-kennis/id/rijksmonument/49034","rijksmonumentnummer":"33738","naam":null,"geometry_bron":"Polygon","monumentenregister_url":"https://monumentenregister.cultureelerfgoed.nl/monumenten/33738","oorspronkelijke_functie":"Woonhuis(K)","oorspronkelijke_functie_kort":"Woonhuis","huidige_functie":null,"type":null,"datum_inschrijving_monumentenregister":"1968-09-17","monument_aard":"onroerend gebouwd"},"geometry":{"type":"Polygon","coordinates":[[[5.872792700872287,50.997119848555286],[5.872950388217277,50.99721447011352],[5.873019242363946,50.99726002492009],[5.872958409398341,50.99729983130127],[5.872800617664992,50.997195322369244],[5.872738970984423,50.99715782726138],[5.872792700872287,50.997119848555286]]]}},{"type":"Feature","properties":{"cho_uri":"https://linkeddata.cultureelerfgoed.nl/cho-kennis/id/rijksmonument/65324","rijksmonumentnummer":"506573","naam":"Grafmonument De Stuers","geometry_bron":"Polygon","monumentenregister_url":"https://monumentenregister.cultureelerfgoed.nl/monumenten/506573","oorspronkelijke_functie":"Grafmonument","oorspronkelijke_functie_kort":"Grafmonument","huidige_functie":"Grafmonument","type":"Familiegraf","datum_inschrijving_monumentenregister":"1997-02-11","monument_aard":"onroerend gebouwd"},"geometry":{"type":"Polygon","coordinates":[[[5.663209547160972,50.83992006551233],[5.663253688529737,50.83994243209951],[5.663216945047064,50.839970385198505],[5.663172798314708,50.83994711972866],[5.663209547160972,50.83992006551233]]]}},{"type":"Feature","properties":{"cho_uri":"https://linkeddata.cultureelerfgoed.nl/cho-kennis/id/rijksmonument/79717","rijksmonumentnummer":"507239","naam":"Grafkelder Wehry","geometry_bron":"Polygon","monumentenregister_url":"https://monumentenregister.cultureelerfgoed.nl/monumenten/507239","oorspronkelijke_functie":"Grafkelder","oorspronkelijke_functie_kort":"Grafkelder","huidige_functie":"Grafkelder","type":"Familiegraf","datum_inschrijving_monumentenregister":"1997-05-29","monument_aard":"onroerend gebouwd"},"geometry":{"type":"Polygon","coordinates":[[[5.826169513210049,50.86152771463149],[5.826180858067244,50.86152587377775],[5.826394618274352,50.861601467449894],[5.826688151579899,50.861701926384875],[5.826851982973562,50.86175433790249],[5.827115445414718,50.861828842339094],[5.827170664224218,50.86181065443885],[5.827051690985888,50.86169604939848],[5.826942745364514,50.8615903949827],[5.82686531852019,50.86151338504037],[5.82680940877392,50.861458765445384],[5.82669987563887,50.86129108972511],[5.826518411113443,50.861026607298584],[5.826508316073834,50.86101046566493],[5.82626324840624,50.86107791439694],[5.826161290520342,50.86110976266717],[5.826169513210049,50.86152771463149]],[[5.826593328339092,50.86143801356275],[5.826623605319366,50.861485539582795],[5.826693051860101,50.86146999449704],[5.826659883170505,50.861417086155484],[5.826647160774153,50.861423426735456],[5.826632711077454,50.861397413889954],[5.826590214951825,50.86140926096054],[5.82660750509728,50.861435263015466],[5.826593328339092,50.86143801356275]]]}},{"type":"Feature","properties":{"cho_uri":"https://linkeddata.cultureelerfgoed.nl/cho-kennis/id/rijksmonument/79718","rijksmonumentnummer":"507238","naam":"Grafkelder Palmen","geometry_bron":"Polygon","monumentenregister_url":"https://monumentenregister.cultureelerfgoed.nl/monumenten/507238","oorspronkelijke_functie":"Grafkelder","oorspronkelijke_functie_kort":"Grafkelder","huidige_functie":"Grafkelder","type":"Familiegraf","datum_inschrijving_monumentenregister":"1997-05-29","monument_aard":"onroerend gebouwd"},"geometry":{"type":"Polygon","coordinates":[[[5.826169513210049,50.86152771463149],[5.826180858067244,50.86152587377775],[5.826394618274352,50.861601467449894],[5.826688151579899,50.861701926384875],[5.826851982973562,50.86175433790249],[5.827115445414718,50.861828842339094],[5.827170664224218,50.86181065443885],[5.827051690985888,50.86169604939848],[5.826942745364514,50.8615903949827],[5.82686531852019,50.86151338504037],[5.82680940877392,50.861458765445384],[5.82669987563887,50.86129108972511],[5.826518411113443,50.861026607298584],[5.826508316073834,50.86101046566493],[5.82626324840624,50.86107791439694],[5.826161290520342,50.86110976266717],[5.826169513210049,50.86152771463149]],[[5.826593328339092,50.86143801356275],[5.826623605319366,50.861485539582795],[5.826693051860101,50.86146999449704],[5.826659883170505,50.861417086155484],[5.826647160774153,50.861423426735456],[5.826632711077454,50.861397413889954],[5.826590214951825,50.86140926096054],[5.82660750509728,50.861435263015466],[5.826593328339092,50.86143801356275]]]}},{"type":"Feature","properties":{"cho_uri":"https://linkeddata.cultureelerfgoed.nl/cho-kennis/id/rijksmonument/79719","rijksmonumentnummer":"507237","naam":"Familiegraf De Guasco","geometry_bron":"Polygon","monumentenregister_url":"https://monumentenregister.cultureelerfgoed.nl/monumenten/507237","oorspronkelijke_functie":"Grafkelder","oorspronkelijke_functie_kort":"Grafkelder","huidige_functie":"Grafkelder","type":"Familiegraf","datum_inschrijving_monumentenregister":"1997-05-29","monument_aard":"onroerend gebouwd"},"geometry":{"type":"Polygon","coordinates":[[[5.826169513210049,50.86152771463149],[5.826180858067244,50.86152587377775],[5.826394618274352,50.861601467449894],[5.826688151579899,50.861701926384875],[5.826851982973562,50.86175433790249],[5.827115445414718,50.861828842339094],[5.827170664224218,50.86181065443885],[5.827051690985888,50.86169604939848],[5.826942745364514,50.8615903949827],[5.82686531852019,50.86151338504037],[5.82680940877392,50.861458765445384],[5.82669987563887,50.86129108972511],[5.826518411113443,50.861026607298584],[5.826508316073834,50.86101046566493],[5.82626324840624,50.86107791439694],[5.826161290520342,50.86110976266717],[5.826169513210049,50.86152771463149]],[[5.826593328339092,50.86143801356275],[5.826623605319366,50.861485539582795],[5.826693051860101,50.86146999449704],[5.826659883170505,50.861417086155484],[5.826647160774153,50.861423426735456],[5.826632711077454,50.861397413889954],[5.826590214951825,50.86140926096054],[5.82660750509728,50.861435263015466],[5.826593328339092,50.86143801356275]]]}},{"type":"Feature","properties":{"cho_uri":"https://linkeddata.cultureelerfgoed.nl/cho-kennis/id/rijksmonument/54411","rijksmonumentnummer":"512807","naam":"Herdenkingsmon.Belg.geïnterneerden","geometry_bron":"Polygon","monumentenregister_url":"https://monumentenregister.cultureelerfgoed.nl/monumenten/512807","oorspronkelijke_functie":"Grafmonument","oorspronkelijke_functie_kort":"Grafmonument","huidige_functie":"Grafmonument","type":null,"datum_inschrijving_monumentenregister":"1999-07-20","monument_aard":"onroerend gebouwd"},"geometry":{"type":"Polygon","coordinates":[[[5.983420716857832,50.88516229136971],[5.983470449544432,50.88516203499195],[5.983470785375449,50.88518810131456],[5.983421052660849,50.8851883576925],[5.983420716857832,50.88516229136971]]]}},{"type":"Feature","properties":{"cho_uri":"https://linkeddata.cultureelerfgoed.nl/cho-kennis/id/rijksmonument/65318","rijksmonumentnummer":"506579","naam":"Ommuring en poorten begraafplaats","geometry_bron":"Point","monumentenregister_url":"https://monumentenregister.cultureelerfgoed.nl/monumenten/506579","oorspronkelijke_functie":"Begraafplaats","oorspronkelijke_functie_kort":"Begraafplaats","huidige_functie":"Begraafplaats","type":null,"datum_inschrijving_monumentenregister":"1997-02-11","monument_aard":"onroerend gebouwd"},"geometry":{"type":"Point","coordinates":[5.663002615771854,50.84032333703043]}},{"type":"Feature","properties":{"cho_uri":"https://linkeddata.cultureelerfgoed.nl/cho-kennis/id/rijksmonument/65319","rijksmonumentnummer":"506578","naam":"Grafmonument F. Becks","geometry_bron":"Point","monumentenregister_url":"https://monumentenregister.cultureelerfgoed.nl/monumenten/506578","oorspronkelijke_functie":"Grafmonument","oorspronkelijke_functie_kort":"Grafmonument","huidige_functie":"Grafmonument","type":null,"datum_inschrijving_monumentenregister":"1997-02-11","monument_aard":"onroerend gebouwd"},"geometry":{"type":"Point","coordinates":[5.660901338118167,50.84028338977602]}},{"type":"Feature","properties":{"cho_uri":"https://linkeddata.cultureelerfgoed.nl/cho-kennis/id/rijksmonument/65320","rijksmonumentnummer":"506577","naam":"Grafmonument H.J. Beckers","geometry_bron":"Point","monumentenregister_url":"https://monumentenregister.cultureelerfgoed.nl/monumenten/506577","oorspronkelijke_functie":"Grafmonument","oorspronkelijke_functie_kort":"Grafmonument","huidige_functie":"Grafmonument","type":null,"datum_inschrijving_monumentenregister":"1997-02-11","monument_aard":"onroerend gebouwd"},"geometry":{"type":"Point","coordinates":[5.660972477574496,50.84031018766477]}},{"type":"Feature","properties":{"cho_uri":"https://linkeddata.cultureelerfgoed.nl/cho-kennis/id/rijksmonument/65321","rijksmonumentnummer":"506576","naam":"Grafmonument Bosch van Drakenstein","geometry_bron":"Polygon","monumentenregister_url":"https://monumentenregister.cultureelerfgoed.nl/monumenten/506576","oorspronkelijke_functie":"Grafmonument","oorspronkelijke_functie_kort":"Grafmonument","huidige_functie":"Grafmonument","type":null,"datum_inschrijving_monumentenregister":"1997-02-11","monument_aard":"onroerend gebouwd"},"geometry":{"type":"Polygon","coordinates":[[[5.66220192289977,50.839492802715974],[5.66221900591584,50.83950085198982],[5.662200658053319,50.83951887328513],[5.662182160785992,50.83951172625559],[5.66220192289977,50.839492802715974]]]}},{"type":"Feature","properties":{"cho_uri":"https://linkeddata.cultureelerfgoed.nl/cho-kennis/id/rijksmonument/65323","rijksmonumentnummer":"506574","naam":"Graven Van Meeuwen, MacPherson","geometry_bron":"Point","monumentenregister_url":"https://monumentenregister.cultureelerfgoed.nl/monumenten/506574","oorspronkelijke_functie":"Grafmonument","oorspronkelijke_functie_kort":"Grafmonument","huidige_functie":"Grafmonument","type":null,"datum_inschrijving_monumentenregister":"1997-02-11","monument_aard":"onroerend gebouwd"},"geometry":{"type":"Point","coordinates":[5.662599248473041,50.8393355299573]}},{"type":"Feature","properties":{"cho_uri":"https://linkeddata.cultureelerfgoed.nl/cho-kennis/id/rijksmonument/65326","rijksmonumentnummer":"506571","naam":"Grafmonument Behr","geometry_bron":"Polygon","monumentenregister_url":"https://monumentenregister.cultureelerfgoed.nl/monumenten/506571","oorspronkelijke_functie":"Grafmonument","oorspronkelijke_functie_kort":"Grafmonument","huidige_functie":"Uitvaartcentra en begraafplaatsen","type":null,"datum_inschrijving_monumentenregister":"1997-02-11","monument_aard":"onroerend gebouwd"},"geometry":{"type":"Polygon","coordinates":[[[5.661813956693079,50.839901817536344],[5.66181965105898,50.83990450064698],[5.661815413586499,50.839908106243236],[5.6618097192204,50.839905423132365],[5.661813956693079,50.839901817536344]]]}},{"type":"Feature","properties":{"cho_uri":"https://linkeddata.cultureelerfgoed.nl/cho-kennis/id/rijksmonument/65327","rijksmonumentnummer":"506570","naam":"Kapel Begraafplaats Tongerseweg","geometry_bron":"Point","monumentenregister_url":"https://monumentenregister.cultureelerfgoed.nl/monumenten/506570","oorspronkelijke_functie":"Kapel(F1)","oorspronkelijke_functie_kort":"Kapel","huidige_functie":"Kapel(F1)","type":null,"datum_inschrijving_monumentenregister":"1997-02-11","monument_aard":"onroerend gebouwd"},"geometry":{"type":"Point","coordinates":[5.662629991553808,50.83973096436484]}},{"type":"Feature","properties":{"cho_uri":"https://linkeddata.cultureelerfgoed.nl/cho-kennis/id/rijksmonument/74218","rijksmonumentnummer":"520498","naam":"Graf Guillaume","geometry_bron":"Point","monumentenregister_url":"https://monumentenregister.cultureelerfgoed.nl/monumenten/520498","oorspronkelijke_functie":"Grafmonument","oorspronkelijke_functie_kort":"Grafmonument","huidige_functie":"Grafmonument","type":null,"datum_inschrijving_monumentenregister":"2002-05-27","monument_aard":"onroerend gebouwd"},"geometry":{"type":"Point","coordinates":[5.999073495768465,51.18184607915958]}},{"type":"Feature","properties":{"cho_uri":"https://linkeddata.cultureelerfgoed.nl/cho-kennis/id/rijksmonument/74219","rijksmonumentnummer":"520497","naam":"Graf Nizet","geometry_bron":"Polygon","monumentenregister_url":"https://monumentenregister.cultureelerfgoed.nl/monumenten/520497","oorspronkelijke_functie":"Grafmonument","oorspronkelijke_functie_kort":"Grafmonument","huidige_functie":"Grafmonument","type":null,"datum_inschrijving_monumentenregister":"2002-05-27","monument_aard":"onroerend gebouwd"},"geometry":{"type":"Polygon","coordinates":[[[6.000570323155738,51.18105897763589],[6.000620375951621,51.181058713352925],[6.000620880552944,51.18109646446476],[6.000570827715902,51.18109672874802],[6.000570323155738,51.18105897763589]]]}},{"type":"Feature","properties":{"cho_uri":"https://linkeddata.cultureelerfgoed.nl/cho-kennis/id/rijksmonument/74220","rijksmonumentnummer":"520496","naam":"Mausoleum Van de Winkel-Höppener","geometry_bron":"Polygon","monumentenregister_url":"https://monumentenregister.cultureelerfgoed.nl/monumenten/520496","oorspronkelijke_functie":"Grafmonument","oorspronkelijke_functie_kort":"Grafmonument","huidige_functie":"Grafmonument","type":null,"datum_inschrijving_monumentenregister":"2002-05-27","monument_aard":"onroerend gebouwd"},"geometry":{"type":"Polygon","coordinates":[[[5.999946294854578,51.18220207515674],[5.999962940163752,51.18216333468869],[6.000013114196322,51.18217205902587],[5.99999505081295,51.182211705880746],[5.999953481437681,51.182204733949625],[5.999946306856079,51.1822029739928],[5.999946294854578,51.18220207515674]]]}},{"type":"Feature","properties":{"cho_uri":"https://linkeddata.cultureelerfgoed.nl/cho-kennis/id/rijksmonument/74221","rijksmonumentnummer":"520495","naam":"Grafkapel Familie Bongaerts","geometry_bron":"Polygon","monumentenregister_url":"https://monumentenregister.cultureelerfgoed.nl/monumenten/520495","oorspronkelijke_functie":"Grafkapel(H)","oorspronkelijke_functie_kort":"Grafkapel","huidige_functie":"Grafkapel(H)","type":null,"datum_inschrijving_monumentenregister":"2002-05-27","monument_aard":"onroerend gebouwd"},"geometry":{"type":"Polygon","coordinates":[[[5.999654529879175,51.18209484685714],[5.999669829257361,51.18206240582276],[5.999720015121378,51.18207202912295],[5.999706133891395,51.182103563787734],[5.999686196289269,51.18210996119944],[5.999666126725749,51.182106471410584],[5.999654529879175,51.18209484685714]]]}},{"type":"Feature","properties":{"cho_uri":"https://linkeddata.cultureelerfgoed.nl/cho-kennis/id/rijksmonument/74222","rijksmonumentnummer":"520494","naam":"Grafmon. Leendert Willem de Leeuw","geometry_bron":"Polygon","monumentenregister_url":"https://monumentenregister.cultureelerfgoed.nl/monumenten/520494","oorspronkelijke_functie":"Grafmonument","oorspronkelijke_functie_kort":"Grafmonument","huidige_functie":"Grafmonument","type":null,"datum_inschrijving_monumentenregister":"2005-06-27","monument_aard":"onroerend gebouwd"},"geometry":{"type":"Polygon","coordinates":[[[6.000809231222136,51.18202672958278],[6.000860715181375,51.18202645764091],[6.000861232013682,51.182065107586446],[6.0008097480111,51.18206537952861],[6.000809231222136,51.18202672958278]]]}},{"type":"Feature","properties":{"cho_uri":"https://linkeddata.cultureelerfgoed.nl/cho-kennis/id/rijksmonument/74223","rijksmonumentnummer":"520493","naam":"Graf Zouaaf Küppers","geometry_bron":"Polygon","monumentenregister_url":"https://monumentenregister.cultureelerfgoed.nl/monumenten/520493","oorspronkelijke_functie":"Grafmonument","oorspronkelijke_functie_kort":"Grafmonument","huidige_functie":"Grafmonument","type":null,"datum_inschrijving_monumentenregister":"2002-05-27","monument_aard":"onroerend gebouwd"},"geometry":{"type":"Polygon","coordinates":[[[6.001055940321201,51.18154541393354],[6.001105993643794,51.18154514944051],[6.001106510675498,51.181583799385095],[6.001056457310765,51.18158406387837],[6.001055940321201,51.18154541393354]]]}},{"type":"Feature","properties":{"cho_uri":"https://linkeddata.cultureelerfgoed.nl/cho-kennis/id/rijksmonument/74224","rijksmonumentnummer":"520492","naam":"Mon. P.J.H.Cuypers-Alberdingk Thijm","geometry_bron":"Polygon","monumentenregister_url":"https://monumentenregister.cultureelerfgoed.nl/monumenten/520492","oorspronkelijke_functie":"Grafmonument","oorspronkelijke_functie_kort":"Grafmonument","huidige_functie":"Grafmonument","type":null,"datum_inschrijving_monumentenregister":"2002-05-27","monument_aard":"onroerend gebouwd"},"geometry":{"type":"Polygon","coordinates":[[[5.999977198900964,51.18183875680643],[6.000027252551561,51.18183849277752],[6.000027768679353,51.18187714272812],[5.999977714986618,51.18187740675732],[5.999977198900964,51.18183875680643]]]}},{"type":"Feature","properties":{"cho_uri":"https://linkeddata.cultureelerfgoed.nl/cho-kennis/id/rijksmonument/74225","rijksmonumentnummer":"520491","naam":"Lijkenhuisje Kapel in 't Zand","geometry_bron":"Polygon","monumentenregister_url":"https://monumentenregister.cultureelerfgoed.nl/monumenten/520491","oorspronkelijke_functie":"Baarhuisje","oorspronkelijke_functie_kort":"Baarhuisje","huidige_functie":"Opslaggebouw","type":null,"datum_inschrijving_monumentenregister":"2002-05-27","monument_aard":"onroerend gebouwd"},"geometry":{"type":"Polygon","coordinates":[[[6.000618461158899,51.18219942683274],[6.000617067087386,51.18220213089193],[6.000586914521447,51.18219330110492],[6.000512236201944,51.18217032399205],[6.000512224189374,51.18216942515607],[6.00051503636787,51.18216581471213],[6.000540033613847,51.18210995097806],[6.000618894057052,51.182124815895676],[6.000617512002432,51.18212841879085],[6.000649058599304,51.18213454451043],[6.000618461158899,51.18219942683274]]]}},{"type":"Feature","properties":{"cho_uri":"https://linkeddata.cultureelerfgoed.nl/cho-kennis/id/rijksmonument/74226","rijksmonumentnummer":"520490","naam":"Kapel Stolzenberg","geometry_bron":"Polygon","monumentenregister_url":"https://monumentenregister.cultureelerfgoed.nl/monumenten/520490","oorspronkelijke_functie":"Grafkapel(H)","oorspronkelijke_functie_kort":"Grafkapel","huidige_functie":"Grafkapel(H)","type":null,"datum_inschrijving_monumentenregister":"2002-05-27","monument_aard":"onroerend gebouwd"},"geometry":{"type":"Polygon","coordinates":[[[6.000393265854124,51.181508463148475],[6.00044331914144,51.18150819894095],[6.00044383561466,51.18154684888944],[6.000393782285208,51.181547113097224],[6.000393265854124,51.181508463148475]]]}},{"type":"Feature","properties":{"cho_uri":"https://linkeddata.cultureelerfgoed.nl/cho-kennis/id/rijksmonument/74227","rijksmonumentnummer":"520489","naam":"Graf met de handjes","geometry_bron":"Polygon","monumentenregister_url":"https://monumentenregister.cultureelerfgoed.nl/monumenten/520489","oorspronkelijke_functie":"Grafmonument","oorspronkelijke_functie_kort":"Grafmonument","huidige_functie":"Grafmonument","type":null,"datum_inschrijving_monumentenregister":"2002-05-27","monument_aard":"onroerend gebouwd"},"geometry":{"type":"Polygon","coordinates":[[[5.999697791849964,51.181157066744845],[5.999749274842504,51.181156795296985],[5.999749778728885,51.181194546413735],[5.999698295694011,51.18119481786188],[5.999697791849964,51.181157066744845]]]}},{"type":"Feature","properties":{"cho_uri":"https://linkeddata.cultureelerfgoed.nl/cho-kennis/id/rijksmonument/65558","rijksmonumentnummer":"529500","naam":"Neubourg","geometry_bron":"Polygon","monumentenregister_url":"https://monumentenregister.cultureelerfgoed.nl/monumenten/529500","oorspronkelijke_functie":"Historische aanleg","oorspronkelijke_functie_kort":"Historische aanleg","huidige_functie":null,"type":"Tuin, park en plantsoen","datum_inschrijving_monumentenregister":"2006-11-27","monument_aard":"onroerend gebouwd"},"geometry":{"type":"Polygon","coordinates":[[[5.879619156394315,50.81141498793165],[5.87901740911621,50.81126294207712],[5.878351701188516,50.811099479465796],[5.877688768755613,50.81092970902058],[5.877037019672676,50.81074370735154],[5.876422331862996,50.810573725105975],[5.876324083456797,50.810539983295584],[5.876288199667858,50.81050058405864],[5.876314888905102,50.81047530214875],[5.876310471752493,50.81046003972109],[5.876307056165959,50.81040522189644],[5.876297994376781,50.8103531246455],[5.87627474600044,50.810301087452316],[5.876238748700173,50.81025090200258],[5.876188564900749,50.81020077658941],[5.876132839251023,50.81016325906777],[5.87607576136117,50.81013203947108],[5.876004478053888,50.81009908217172],[5.875934651390565,50.810069714225975],[5.875867671592275,50.81004123308632],[5.875802129467577,50.81001454360749],[5.875793570207379,50.8100100853577],[5.875733693305479,50.80998247299061],[5.875670960239952,50.80995307488949],[5.875606761275109,50.80991918850253],[5.875542524545498,50.80988170668038],[5.875483971970897,50.80984509968836],[5.875403865405093,50.80978251594815],[5.875370962191461,50.80975658718338],[5.875325187159049,50.80972082500807],[5.875280755163313,50.809677866022014],[5.875234904609357,50.809634913011784],[5.875190434948729,50.80958835859141],[5.87514598429116,50.809543601853626],[5.875001037959517,50.80938600936134],[5.874843192647156,50.80921588668194],[5.874834406808981,50.80918985596312],[5.874807131588551,50.80915940883551],[5.874752779686714,50.809117390409234],[5.874701180097488,50.8090672703353],[5.874635139337896,50.80899294114691],[5.874551924241826,50.80890430213768],[5.874562914263982,50.80887009796335],[5.874558582849703,50.80886292511789],[5.874501696502937,50.808849681740185],[5.874490234241798,50.80883894341184],[5.87433401897885,50.80868858874984],[5.874219321884058,50.8085740144487],[5.874197787927258,50.808549835204644],[5.874156138687182,50.80850147072479],[5.873917829668522,50.808233706965815],[5.873858997510487,50.80817013364852],[5.873748200334523,50.80802138465094],[5.873742441105239,50.80801331889946],[5.875857836527834,50.807492023083995],[5.875786443812869,50.80744827945032],[5.875454212175916,50.80715305046946],[5.874033054148798,50.806101055092185],[5.873897963425609,50.80607016318275],[5.873368992351876,50.8060858739211],[5.873060097445689,50.80598470008171],[5.873051539192988,50.805980241628056],[5.873065630329082,50.805971193467],[5.873388212202017,50.805754102761426],[5.873965759543663,50.805366046935916],[5.874324968658092,50.80512542812125],[5.874347504220384,50.8051100519659],[5.874863075549396,50.80476539966247],[5.874867312124334,50.804763583998216],[5.875220856877401,50.80452478406841],[5.875237765202093,50.80451392595941],[5.875457506472498,50.80436647837074],[5.875630759726169,50.80438462263586],[5.875757127518715,50.80439577382546],[5.875861216332038,50.80444657027099],[5.875985258858006,50.804506271093274],[5.8760585084556,50.804457421087],[5.876058432670282,50.80445023028988],[5.876049419710426,50.804402627275856],[5.876024974004832,50.80437126958261],[5.876003592619177,50.80436147227133],[5.875989047898786,50.80432737600585],[5.875961717963071,50.804291536054976],[5.876010114333113,50.80417267783379],[5.876009725975222,50.80413582499876],[5.876006671172851,50.80411516346164],[5.875842069780835,50.803975633055366],[5.875820537121487,50.80395145411565],[5.875714841672686,50.803882686638204],[5.875689015867762,50.80385493027102],[5.875692760099558,50.80380637439442],[5.87612015719119,50.8035771471453],[5.876438945765818,50.80340680617208],[5.87647344364909,50.8034498067664],[5.876483761534475,50.80348661754269],[5.87650816915523,50.80351437973988],[5.876573930080289,50.80356264121375],[5.876609666472218,50.80358855761657],[5.876703986456008,50.80365467581191],[5.8768153566855,50.803723418334464],[5.87696551921864,50.80383873855392],[5.877046827236298,50.80388154050604],[5.877128087935192,50.80391984815334],[5.87723796499467,50.80398140548736],[5.877340693011977,50.8040375997129],[5.877419269276799,50.80409030078384],[5.877472075707321,50.80412063893074],[5.877577888328499,50.804200190990784],[5.877633503426819,50.80422782047232],[5.877676380823459,50.80425820068047],[5.87768065525986,50.80425998031116],[5.877736308513478,50.804291205140906],[5.877929295844723,50.80443151117762],[5.878011033784456,50.804514760674195],[5.878055672605707,50.80457749329382],[5.878123654245069,50.804701251207746],[5.878187028732618,50.80479176974032],[5.878238827137451,50.80486076408981],[5.878273394385775,50.80491005609103],[5.878280562994445,50.80491721673579],[5.878333646933474,50.80497362112074],[5.878380828565342,50.80500847722127],[5.878440757726016,50.805041481315186],[5.878539024573238,50.80507791788182],[5.878598830142841,50.80509923685157],[5.878660016174343,50.805116954357985],[5.878795164429929,50.805153233795124],[5.879011405889779,50.80521164010506],[5.879081122321659,50.805231118851665],[5.879186377730171,50.805257637323955],[5.87976390429308,50.80540708865091],[5.880092497167473,50.805491980535606],[5.88022338253414,50.805527377607845],[5.880459505867863,50.805587494144184],[5.880879154341165,50.80569716388668],[5.881744029025008,50.80591998488317],[5.882008622760003,50.8059889652824],[5.882297409045756,50.80606503251776],[5.882452499112976,50.806108413348184],[5.882583378411423,50.80614290889434],[5.882712868178095,50.806180106923584],[5.882776913475817,50.80619960777536],[5.882840958827282,50.80621910859156],[5.882923531652662,50.806246619880575],[5.882971992446837,50.806267985280115],[5.88304751118721,50.80629912231492],[5.883181555337213,50.80636416586864],[5.883622317847521,50.8065896918765],[5.884061694974349,50.806817918846804],[5.884282774814934,50.80692932905355],[5.884503884629122,50.80704343538271],[5.884724976246821,50.80715574359017],[5.884832004976367,50.80721460935792],[5.884941851818793,50.80727166510477],[5.88505454571624,50.80732960736889],[5.885268527865518,50.80744014740322],[5.885488223961045,50.80755425796028],[5.885626579183545,50.80762377455812],[5.885715033352223,50.80767013518855],[5.885897645539709,50.80776552829684],[5.885987625162951,50.80782176992961],[5.88602620725977,50.80784767116231],[5.886060494973667,50.80786999536489],[5.886101982003005,50.807902176261166],[5.886123454170547,50.807920061337704],[5.886235109708785,50.80801306367123],[5.886474345977899,50.808228662579324],[5.886739467833658,50.808476509128276],[5.886951493750944,50.80866795467903],[5.887165036929478,50.808868382185736],[5.887377337819999,50.80908499471233],[5.887466261905368,50.80917449872812],[5.887558411478742,50.80929994432784],[5.887668477483846,50.809508010171875],[5.887674336313904,50.80952506371127],[5.887737949456556,50.809635351652446],[5.887801388264703,50.809729460285396],[5.88785886165714,50.80979662802023],[5.887910641226165,50.80986202262381],[5.888002735135484,50.80998207477748],[5.888072169909561,50.81010582066286],[5.888164905534616,50.81028519668753],[5.888182220722142,50.81031208832028],[5.888035126690144,50.810354075057596],[5.88801956025208,50.81035773810189],[5.887985968575079,50.81040013157514],[5.887973472376164,50.81042535467844],[5.887927044700419,50.81046151153883],[5.887825696542111,50.81053565978679],[5.887775022341509,50.81057273387766],[5.887745540772194,50.81060162611287],[5.887722121873914,50.810666447697415],[5.887722558411008,50.810706895882035],[5.887728611432983,50.810741926390016],[5.887744624281456,50.81077961041773],[5.887760705067266,50.81082358638308],[5.887769585783457,50.810857705746855],[5.887774365712462,50.810906225127624],[5.887774802298077,50.810946673312266],[5.887768126082144,50.810985354534424],[5.88775577513159,50.81102406034328],[5.887644387997153,50.8110883641282],[5.887667220219879,50.81123208771639],[5.887666150728532,50.81126445241055],[5.887639554528461,50.81129782657162],[5.887628466891822,50.81132214464501],[5.887617563524157,50.811363540840375],[5.887617582922118,50.81136533853752],[5.887616610383107,50.81140669171716],[5.88762415000582,50.81144800802641],[5.887638666724748,50.81147850742592],[5.887657410450688,50.81150629184137],[5.887677592296018,50.81153586780516],[5.887709201353346,50.811572585385186],[5.887733600551218,50.811598547506286],[5.887752227962766,50.811615545723456],[5.887777997396315,50.81163700744559],[5.887825095873474,50.81166287119271],[5.887855034137237,50.81167622481769],[5.8878948062824,50.81168054691051],[5.887927679031104,50.811702876705205],[5.888013461186822,50.811763629443185],[5.888230735553449,50.81191370100656],[5.888545241717833,50.812133463744665],[5.888546670149716,50.812134356436715],[5.888556882957127,50.812160379947315],[5.888578445506462,50.81218635420261],[5.888614224406444,50.81221496342713],[5.888658447623065,50.8122372437543],[5.888709745033942,50.81225769557535],[5.888735398616767,50.812268370901535],[5.88915663504541,50.812517332011424],[5.889293066332547,50.812538312551126],[5.889358376436447,50.81254252315451],[5.889368297792602,50.81254158114046],[5.889361612947604,50.812579363606744],[5.889325487347347,50.81278087214334],[5.889300670295823,50.81284749791371],[5.889208950548182,50.81302497796011],[5.889189545467634,50.81306731014067],[5.889160588585804,50.81314474055664],[5.889133021169037,50.81321946825664],[5.889119290934793,50.8132617757708],[5.889119660621946,50.81329593201253],[5.889124276834563,50.813329170915004],[5.889147823291216,50.81340727211135],[5.88916094233323,50.813439575180205],[5.889171291990231,50.813478182515254],[5.889168853393337,50.81351504763074],[5.889160574359654,50.81353665697872],[5.889148077960782,50.813561880211836],[5.889122764073179,50.81358266467451],[5.889094671013122,50.81360885454908],[5.889069434897883,50.81363682978802],[5.889042741081894,50.81366121579015],[5.889011722865202,50.81367932833365],[5.888970821916391,50.81370197824399],[5.888922866010898,50.813728254339956],[5.888886211543605,50.81374998688843],[5.888795750928806,50.81378184083654],[5.888740487141088,50.813788372987524],[5.888682288603961,50.81378592894334],[5.888635420755214,50.813781637912214],[5.888188510735931,50.81365233865881],[5.888157200888704,50.813643485515996],[5.888127319523559,50.81363552506183],[5.888101704159009,50.813628444995395],[5.888171990539949,50.81369915260957],[5.887986901039284,50.81363972935887],[5.887979768408516,50.813636164712584],[5.887467181838384,50.81346849503763],[5.887074510386045,50.81336862001776],[5.886768616747024,50.813289941847074],[5.885909313510437,50.81307252721993],[5.885556470088215,50.81298146403991],[5.884230513413017,50.81264290097244],[5.883096641618021,50.812353836285325],[5.881885962441475,50.81204531383424],[5.881578657996752,50.81196572913205],[5.88130551852722,50.811896784186075],[5.881146182757204,50.81185611657774],[5.88096407140394,50.811808354971205],[5.880937039431358,50.81180127937775],[5.88090574178103,50.81179332311674],[5.880797633144452,50.81176681834896],[5.880769182516743,50.81175974877756],[5.880754947640006,50.81175531513986],[5.88071369999146,50.81174560355335],[5.879599771857158,50.811460015058906],[5.879619156394315,50.81141498793165]]]}},{"type":"Feature","properties":{"cho_uri":"https://linkeddata.cultureelerfgoed.nl/cho-kennis/id/rijksmonument/79720","rijksmonumentnummer":"507236","naam":"Grafkapel Habets","geometry_bron":"Polygon","monumentenregister_url":"https://monumentenregister.cultureelerfgoed.nl/monumenten/507236","oorspronkelijke_functie":"Grafkapel(H)","oorspronkelijke_functie_kort":"Grafkapel","huidige_functie":null,"type":"Familiegraf","datum_inschrijving_monumentenregister":"1997-05-29","monument_aard":"onroerend gebouwd"},"geometry":{"type":"Polygon","coordinates":[[[5.826470833731307,50.86155084012847],[5.826468010307994,50.86155264863339],[5.82646523804225,50.86155985027541],[5.82645107828951,50.86156439851772],[5.826435447141076,50.86156355901695],[5.826423982927849,50.86155281590884],[5.826430981810627,50.86154200265571],[5.82644371279503,50.86153656095562],[5.826453680036247,50.86153921975209],[5.826457923696899,50.8615374058514],[5.826459343934497,50.86153740045528],[5.82647224544288,50.861549935875985],[5.826470833731307,50.86155084012847]]]}},{"type":"Feature","properties":{"cho_uri":"https://linkeddata.cultureelerfgoed.nl/cho-kennis/id/rijksmonument/65325","rijksmonumentnummer":"506572","naam":"Grafmonument Jezuïeten","geometry_bron":"Polygon","monumentenregister_url":"https://monumentenregister.cultureelerfgoed.nl/monumenten/506572","oorspronkelijke_functie":"Grafmonument","oorspronkelijke_functie_kort":"Grafmonument","huidige_functie":null,"type":null,"datum_inschrijving_monumentenregister":"1997-02-11","monument_aard":"onroerend gebouwd"},"geometry":{"type":"Polygon","coordinates":[[[5.661649587182435,50.83995344429533],[5.66168516231446,50.839967741894164],[5.661641426373855,50.84001368872778],[5.661605856544278,50.840000289984204],[5.661649587182435,50.83995344429533]]]}},{"type":"Feature","properties":{"cho_uri":"https://linkeddata.cultureelerfgoed.nl/cho-kennis/id/rijksmonument/74217","rijksmonumentnummer":"528526","naam":"Ommuring, aanleg en grafmonumenten","geometry_bron":"Polygon","monumentenregister_url":"https://monumentenregister.cultureelerfgoed.nl/monumenten/528526","oorspronkelijke_functie":"Begraafplaats","oorspronkelijke_functie_kort":"Begraafplaats","huidige_functie":null,"type":null,"datum_inschrijving_monumentenregister":"2004-10-18","monument_aard":"onroerend gebouwd"},"geometry":{"type":"Polygon","coordinates":[[[6.002171159464911,51.180666684294536],[6.002174019599561,51.18066666915389],[6.002176879734207,51.180666654013145],[6.002179739868851,51.180666638872346],[6.002182600003495,51.18066662373146],[6.002185472182949,51.18066750742631],[6.002188344362515,51.180668391121074],[6.002191204497263,51.18066837597997],[6.002194076676993,51.18066925967463],[6.002195518789406,51.180670150939825],[6.002198390969329,51.18067103463433],[6.002199833081882,51.18067192589949],[6.002202717307154,51.18067370842969],[6.002204159419873,51.18067459969474],[6.002433793447063,51.18084147801429],[6.002436677692074,51.180843260538616],[6.00243813186449,51.18084505063655],[6.002439573987165,51.180845941898646],[6.002441028159776,51.180847731996565],[6.002442482332502,51.18084952209439],[6.002442506432322,51.18085131976591],[6.002443960605221,51.180853109863705],[6.002443984705103,51.18085490753524],[6.002444008804987,51.18085670520676],[6.002444032904873,51.18085850287827],[6.002444057004762,51.180860300549746],[6.002444081104651,51.18086209822128],[6.002444105204544,51.18086389589277],[6.002442699230973,51.18086570113796],[6.002442723330813,51.18086749880944],[6.00244131735708,51.18086930405464],[6.002439911383234,51.18087110929976],[6.002438493359439,51.18087201570914],[6.002168890384047,51.18113771967013],[6.002034802770494,51.181270567633064],[6.002002332238864,51.18130220096092],[6.001968443615179,51.181334740683376],[6.001935985032706,51.1813672728286],[6.001902084274545,51.18139891369602],[6.001868183469702,51.18143055455363],[6.001834294656386,51.181463094237195],[6.001800393757521,51.181494735075134],[6.001766492811972,51.1815263759032],[6.001731161724553,51.18155802428644],[6.001697260684642,51.181589665094435],[6.001661941535769,51.181622212292524],[6.001626598268435,51.181652961808275],[6.001592685052927,51.18168370375009],[6.00155735372482,51.181715352080715],[6.001520580214751,51.18174610912722],[6.001485248788989,51.18177775743601],[6.001449905283748,51.18180850689831],[6.001221955718204,51.181981401727604],[6.000842087994019,51.18223779739958],[6.000809459718173,51.182257745528645],[6.000575544742922,51.1824126925912],[6.00055255466885,51.18240472387745],[6.00041175415105,51.18235692659659],[5.998993898124769,51.18188978312923],[5.998993886142026,51.18188888429304],[5.998999414840739,51.18187447278861],[5.999066202367521,51.181734791654186],[5.999234785306649,51.18139951307762],[5.999322531180534,51.18122286649833],[5.999403329820975,51.18106153774946],[5.999463345223277,51.181057625865876],[5.999480494192315,51.18105663658434],[5.999524790695172,51.181053706413564],[5.999533371174882,51.18105366118662],[6.000224965498811,51.18100776550061],[6.000415105866021,51.1810022674961],[6.000503746686817,51.181000001769576],[6.000831138403079,51.18099108171351],[6.001098154123681,51.180959108415934],[6.001139518126867,51.18095079972857],[6.001800666043359,51.18076752392424],[6.002162591105318,51.18066762855189],[6.002165439195608,51.18066671457567],[6.002166869262935,51.1806667070054],[6.002169729397585,51.18066669186482],[6.002171159464911,51.180666684294536]]]}},{"type":"Feature","properties":{"cho_uri":"https://linkeddata.cultureelerfgoed.nl/cho-kennis/id/rijksmonument/51683","rijksmonumentnummer":"33741","naam":null,"geometry_bron":"Point","monumentenregister_url":"https://monumentenregister.cultureelerfgoed.nl/monumenten/33741","oorspronkelijke_functie":"Fort, vesting en -onderdelen","oorspronkelijke_functie_kort":"Fort, vesting en -onderdelen","huidige_functie":null,"type":null,"datum_inschrijving_monumentenregister":"1967-07-19","monument_aard":"onroerend gebouwd"},"geometry":{"type":"Point","coordinates":[5.872230453750833,50.996464183301974]}},{"type":"Feature","properties":{"cho_uri":"https://linkeddata.cultureelerfgoed.nl/cho-kennis/id/rijksmonument/54132","rijksmonumentnummer":"33740","naam":null,"geometry_bron":"Polygon","monumentenregister_url":"https://monumentenregister.cultureelerfgoed.nl/monumenten/33740","oorspronkelijke_functie":"Woonhuis(K)","oorspronkelijke_functie_kort":"Woonhuis","huidige_functie":null,"type":null,"datum_inschrijving_monumentenregister":"1975-11-26","monument_aard":"onroerend gebouwd"},"geometry":{"type":"Polygon","coordinates":[[[5.872948059911746,50.99699335223425],[5.873007411293012,50.996948158713444],[5.873134797924902,50.99700605247648],[5.873137788743963,50.99701952332399],[5.873088360855786,50.9970601808262],[5.872948059911746,50.99699335223425]]]}},{"type":"Feature","properties":{"cho_uri":"https://linkeddata.cultureelerfgoed.nl/cho-kennis/id/rijksmonument/54140","rijksmonumentnummer":"33736","naam":null,"geometry_bron":"Polygon","monumentenregister_url":"https://monumentenregister.cultureelerfgoed.nl/monumenten/33736","oorspronkelijke_functie":"Woonhuis(K)","oorspronkelijke_functie_kort":"Woonhuis","huidige_functie":null,"type":null,"datum_inschrijving_monumentenregister":"1975-11-26","monument_aard":"onroerend gebouwd"},"geometry":{"type":"Polygon","coordinates":[[[5.872443369926835,50.99735862002282],[5.872426144664233,50.99734610767283],[5.872520993695173,50.99728997900183],[5.872644485791454,50.99738384533389],[5.872703369017253,50.99742944210968],[5.872641044932872,50.99746296232209],[5.872625291280992,50.99745493829902],[5.872598388252786,50.99747033220391],[5.872553900493698,50.997439057349645],[5.872553891036652,50.99743815849648],[5.872443369926835,50.99735862002282]]]}},{"type":"Feature","properties":{"cho_uri":"https://linkeddata.cultureelerfgoed.nl/cho-kennis/id/rijksmonument/58433","rijksmonumentnummer":"33725","naam":null,"geometry_bron":"Polygon","monumentenregister_url":"https://monumentenregister.cultureelerfgoed.nl/monumenten/33725","oorspronkelijke_functie":"Woonhuis(K)","oorspronkelijke_functie_kort":"Woonhuis","huidige_functie":null,"type":null,"datum_inschrijving_monumentenregister":"1975-11-26","monument_aard":"onroerend gebouwd"},"geometry":{"type":"Polygon","coordinates":[[[5.872065145924044,50.99728829223432],[5.872107632452159,50.99726474319023],[5.872107641900467,50.99726564204349],[5.872231019683292,50.99734872257823],[5.872185693773532,50.997373182447284],[5.872184269364784,50.997373188410435],[5.872066579777704,50.99728918512582],[5.872065145924044,50.99728829223432]]]}},{"type":"Feature","properties":{"cho_uri":"https://linkeddata.cultureelerfgoed.nl/cho-kennis/id/rijksmonument/74228","rijksmonumentnummer":"32599","naam":null,"geometry_bron":"Polygon","monumentenregister_url":"https://monumentenregister.cultureelerfgoed.nl/monumenten/32599","oorspronkelijke_functie":"Kapel (F)","oorspronkelijke_functie_kort":"Kapel","huidige_functie":null,"type":null,"datum_inschrijving_monumentenregister":"1976-07-26","monument_aard":"onroerend gebouwd"},"geometry":{"type":"Polygon","coordinates":[[[6.00023184278445,51.1817367366246],[6.00023758720285,51.181738504110534],[6.000236193122768,51.1817412081652],[6.00023476302155,51.18174121571173],[6.00021612367917,51.18173771847111],[6.000207747182308,51.181753043961315],[6.000220654116771,51.18175567255282],[6.00021923602179,51.18175657893522],[6.000232166971792,51.181761005197544],[6.000237935407362,51.18176457035552],[6.000242273741776,51.18176814305983],[6.000245205989108,51.1817735209827],[6.000246696127506,51.1817780076162],[6.000245386097253,51.181787003523205],[6.000239773750616,51.18179512323408],[6.00023410136701,51.18179874876444],[6.000226986872523,51.18180148300497],[6.00021987237719,51.181804217245116],[6.000212709854682,51.18180335614067],[6.000198408823068,51.181803431602496],[6.000196990726176,51.181804337984616],[6.000195560622983,51.18180434553069],[6.000188530168077,51.18181337162116],[6.000182845772163,51.18181609831303],[6.000177173381466,51.18181972384067],[6.000170046874576,51.18182155924174],[6.00016147825774,51.18182250335193],[6.000147165214749,51.18182167997143],[6.000134222250741,51.181816354863614],[6.000128465821612,51.18181368853655],[6.00012412749172,51.18181011582801],[6.000121207260992,51.181805636738076],[6.000118263021377,51.18179935997598],[6.00011957307689,51.18179036407038],[6.000118142974115,51.18179037161548],[6.000118130969392,51.181789472779435],[6.000105200022305,51.18178504650441],[6.000099431594436,51.18178148133992],[6.000095093269852,51.18177790863022],[6.000092161039807,51.181772530703526],[6.000090670916688,51.18176804406803],[6.000091980976742,51.18175904816271],[6.000099023446715,51.1817509209141],[6.000104707839568,51.18174819422632],[6.000110380227193,51.18174456870222],[6.000118936825832,51.18174272575973],[6.000126075327412,51.181741789197915],[6.00014038834512,51.181742612581054],[6.000141794436063,51.18174080736357],[6.000153271262031,51.18174344350798],[6.000160205669006,51.18172722673129],[6.000140136237247,51.18172373702407],[6.000141530322466,51.18172103297054],[6.000148692830804,51.18172189407941],[6.000161599753145,51.18172452267751],[6.00023184278445,51.1817367366246]]]}},{"type":"Feature","properties":{"cho_uri":"https://linkeddata.cultureelerfgoed.nl/cho-kennis/id/rijksmonument/79721","rijksmonumentnummer":"36764","naam":null,"geometry_bron":"Polygon","monumentenregister_url":"https://monumentenregister.cultureelerfgoed.nl/monumenten/36764","oorspronkelijke_functie":"Grafkapel(H)","oorspronkelijke_functie_kort":"Grafkapel","huidige_functie":null,"type":null,"datum_inschrijving_monumentenregister":"1967-03-14","monument_aard":"onroerend gebouwd"},"geometry":{"type":"Polygon","coordinates":[[[5.826593328339092,50.86143801356275],[5.82660750509728,50.861435263015466],[5.826590214951825,50.86140926096054],[5.826632711077454,50.861397413889954],[5.826647160774153,50.861423426735456],[5.826659883170505,50.861417086155484],[5.826693051860101,50.86146999449704],[5.826623605319366,50.861485539582795],[5.826593328339092,50.86143801356275]]]}}]}