{"type":"FeatureCollection","name":"rijksmonumenten","features":[{"type":"Feature","properties":{"cho_uri":"https://linkeddata.cultureelerfgoed.nl/cho-kennis/id/rijksmonument/32804","rijksmonumentnummer":"510950","naam":null,"geometry_bron":"Point","monumentenregister_url":"https://monumentenregister.cultureelerfgoed.nl/monumenten/510950","oorspronkelijke_functie":"Synagoge","oorspronkelijke_functie_kort":"Synagoge","huidige_functie":null,"type":"Hallekerk","datum_inschrijving_monumentenregister":"1998-08-25","monument_aard":"onroerend gebouwd"},"geometry":{"type":"Point","coordinates":[6.898500147049783,52.78021819156702]}},{"type":"Feature","properties":{"cho_uri":"https://linkeddata.cultureelerfgoed.nl/cho-kennis/id/rijksmonument/35520","rijksmonumentnummer":"28640","naam":null,"geometry_bron":"Point","monumentenregister_url":"https://monumentenregister.cultureelerfgoed.nl/monumenten/28640","oorspronkelijke_functie":"Begraafplaats en -onderdelen","oorspronkelijke_functie_kort":"Begraafplaats en -onderdelen","huidige_functie":null,"type":null,"datum_inschrijving_monumentenregister":"1965-12-22","monument_aard":"onroerend gebouwd"},"geometry":{"type":"Point","coordinates":[6.190057550865874,52.71351251651651]}},{"type":"Feature","properties":{"cho_uri":"https://linkeddata.cultureelerfgoed.nl/cho-kennis/id/rijksmonument/37958","rijksmonumentnummer":"22253","naam":null,"geometry_bron":"Point","monumentenregister_url":"https://monumentenregister.cultureelerfgoed.nl/monumenten/22253","oorspronkelijke_functie":"Woonhuis(K)","oorspronkelijke_functie_kort":"Woonhuis","huidige_functie":null,"type":null,"datum_inschrijving_monumentenregister":"1981-02-11","monument_aard":"onroerend gebouwd"},"geometry":{"type":"Point","coordinates":[6.481347645059244,52.725355354173075]}},{"type":"Feature","properties":{"cho_uri":"https://linkeddata.cultureelerfgoed.nl/cho-kennis/id/rijksmonument/46730","rijksmonumentnummer":"22254","naam":null,"geometry_bron":"Point","monumentenregister_url":"https://monumentenregister.cultureelerfgoed.nl/monumenten/22254","oorspronkelijke_functie":"Molen","oorspronkelijke_functie_kort":"Molen","huidige_functie":null,"type":null,"datum_inschrijving_monumentenregister":"1965-09-07","monument_aard":"onroerend gebouwd"},"geometry":{"type":"Point","coordinates":[6.482484185897286,52.72531758841787]}},{"type":"Feature","properties":{"cho_uri":"https://linkeddata.cultureelerfgoed.nl/cho-kennis/id/rijksmonument/61754","rijksmonumentnummer":"22255","naam":null,"geometry_bron":"Point","monumentenregister_url":"https://monumentenregister.cultureelerfgoed.nl/monumenten/22255","oorspronkelijke_functie":"Kerk","oorspronkelijke_functie_kort":"Kerk","huidige_functie":null,"type":null,"datum_inschrijving_monumentenregister":"1965-09-07","monument_aard":"onroerend gebouwd"},"geometry":{"type":"Point","coordinates":[6.480602032533767,52.72573069731674]}}]}