{"type":"FeatureCollection","name":"rijksmonumenten","features":[{"type":"Feature","properties":{"cho_uri":"https://linkeddata.cultureelerfgoed.nl/cho-kennis/id/rijksmonument/39080","rijksmonumentnummer":"514601","naam":"Stadsziekenhuis","geometry_bron":"Point","monumentenregister_url":"https://monumentenregister.cultureelerfgoed.nl/monumenten/514601","oorspronkelijke_functie":"Ziekenhuis","oorspronkelijke_functie_kort":"Ziekenhuis","huidige_functie":null,"type":"Gezondheidszorg","datum_inschrijving_monumentenregister":"2003-08-25","monument_aard":"onroerend gebouwd"},"geometry":{"type":"Point","coordinates":[5.919325223178405,52.55160858505766]}},{"type":"Feature","properties":{"cho_uri":"https://linkeddata.cultureelerfgoed.nl/cho-kennis/id/rijksmonument/43840","rijksmonumentnummer":"512054","naam":"Burghout","geometry_bron":"Point","monumentenregister_url":"https://monumentenregister.cultureelerfgoed.nl/monumenten/512054","oorspronkelijke_functie":"Woonhuis","oorspronkelijke_functie_kort":"Woonhuis","huidige_functie":null,"type":"Villa","datum_inschrijving_monumentenregister":"1999-07-14","monument_aard":"onroerend gebouwd"},"geometry":{"type":"Point","coordinates":[5.921856779000761,52.5524599943793]}},{"type":"Feature","properties":{"cho_uri":"https://linkeddata.cultureelerfgoed.nl/cho-kennis/id/rijksmonument/18571","rijksmonumentnummer":"515827","naam":"De Mulderij","geometry_bron":"Polygon","monumentenregister_url":"https://monumentenregister.cultureelerfgoed.nl/monumenten/515827","oorspronkelijke_functie":"Begraafplaats","oorspronkelijke_functie_kort":"Begraafplaats","huidige_functie":null,"type":null,"datum_inschrijving_monumentenregister":"2000-09-11","monument_aard":"onroerend gebouwd"},"geometry":{"type":"Polygon","coordinates":[[[6.438079560536706,52.61090635269505],[6.438930762047662,52.610320008206024],[6.439295749891461,52.6105181020777],[6.439649060723594,52.61072169094577],[6.438846660549721,52.611311203634706],[6.438079560536706,52.61090635269505]]]}},{"type":"Feature","properties":{"cho_uri":"https://linkeddata.cultureelerfgoed.nl/cho-kennis/id/rijksmonument/15910","rijksmonumentnummer":"512059","naam":null,"geometry_bron":"Point","monumentenregister_url":"https://monumentenregister.cultureelerfgoed.nl/monumenten/512059","oorspronkelijke_functie":"Woonhuis","oorspronkelijke_functie_kort":"Woonhuis","huidige_functie":"Kantoorgebouw","type":"Villa","datum_inschrijving_monumentenregister":"1999-07-14","monument_aard":"onroerend gebouwd"},"geometry":{"type":"Point","coordinates":[5.92215784174673,52.551819728920584]}},{"type":"Feature","properties":{"cho_uri":"https://linkeddata.cultureelerfgoed.nl/cho-kennis/id/rijksmonument/26076","rijksmonumentnummer":"513679","naam":null,"geometry_bron":"Polygon","monumentenregister_url":"https://monumentenregister.cultureelerfgoed.nl/monumenten/513679","oorspronkelijke_functie":"Begraafplaats","oorspronkelijke_functie_kort":"Begraafplaats","huidige_functie":"Begraafplaats","type":null,"datum_inschrijving_monumentenregister":"2000-05-15","monument_aard":"onroerend gebouwd"},"geometry":{"type":"Polygon","coordinates":[[[6.629637178871589,52.58263246002676],[6.629634324527875,52.58268821599416],[6.629595554734634,52.58277850245963],[6.629544837211609,52.582811390201],[6.629515511875041,52.582817988674975],[6.629469605335116,52.58281217730362],[6.629408922125275,52.582805621694064],[6.629377792291167,52.58280055450753],[6.629305972520219,52.582765353491354],[6.629273601451895,52.58271625766933],[6.629272334848391,52.58267133051745],[6.629309959410753,52.582592740644074],[6.62934302600874,52.582561835264784],[6.629395826549758,52.58255049720897],[6.629480010082423,52.58255321172869],[6.629584003723787,52.582578189118735],[6.62962166740986,52.58260565808692],[6.629637178871589,52.58263246002676]]]}},{"type":"Feature","properties":{"cho_uri":"https://linkeddata.cultureelerfgoed.nl/cho-kennis/id/rijksmonument/28754","rijksmonumentnummer":"513204","naam":null,"geometry_bron":"Polygon","monumentenregister_url":"https://monumentenregister.cultureelerfgoed.nl/monumenten/513204","oorspronkelijke_functie":"Watertoren","oorspronkelijke_functie_kort":"Watertoren","huidige_functie":"Watertoren","type":null,"datum_inschrijving_monumentenregister":"1999-10-13","monument_aard":"onroerend gebouwd"},"geometry":{"type":"Polygon","coordinates":[[[6.884047577630734,52.406661216129926],[6.884050394432367,52.40665758498165],[6.884056179879513,52.406654815187416],[6.884063464833528,52.40665292532015],[6.884070719417566,52.4066501369519],[6.884082411784952,52.40664819136327],[6.884091226614446,52.40664807992175],[6.884101540952097,52.4066488484063],[6.884111885660276,52.40665051539045],[6.884123729878013,52.406653062300165],[6.884134196070546,52.406658323284354],[6.884143223497661,52.40666450134233],[6.884150842530314,52.40667249497495],[6.884154084518935,52.406681442830916],[6.884155796627053,52.40668861226024],[6.884154509713984,52.40669402183752],[6.884148906493783,52.406702182639336],[6.884141803760407,52.40670946351468],[6.884128854833288,52.4067177171867],[6.884120161471698,52.40672142263299],[6.88411143773841,52.406724229578124],[6.884098245841491,52.40672529524301],[6.884083554433403,52.406725480979446],[6.884073209708728,52.4067238139929],[6.884064334125538,52.406722128432136],[6.884053928664218,52.40671866444289],[6.884046431116598,52.40671426480609],[6.884037373323975,52.40670718824026],[6.884032814060123,52.40670275145657],[6.884031253814255,52.40670007452795],[6.884029663200023,52.40669649909879],[6.883995660407255,52.4066906367666],[6.88401063658572,52.40665539094804],[6.884047577630734,52.406661216129926]]]}},{"type":"Feature","properties":{"cho_uri":"https://linkeddata.cultureelerfgoed.nl/cho-kennis/id/rijksmonument/34097","rijksmonumentnummer":"512029","naam":null,"geometry_bron":"Polygon","monumentenregister_url":"https://monumentenregister.cultureelerfgoed.nl/monumenten/512029","oorspronkelijke_functie":"Begraafplaats","oorspronkelijke_functie_kort":"Begraafplaats","huidige_functie":"Begraafplaats","type":null,"datum_inschrijving_monumentenregister":"1999-06-16","monument_aard":"onroerend gebouwd"},"geometry":{"type":"Polygon","coordinates":[[[6.925904474151944,52.3058405473715],[6.925949788853074,52.30583636187513],[6.926163439881637,52.305992687610924],[6.926235572152152,52.30604298636982],[6.926397582350915,52.30614784724625],[6.926465099800092,52.30619191358792],[6.926420002742374,52.30620238881378],[6.925759512469275,52.3063548127659],[6.925735437246874,52.30633714791745],[6.925768900470152,52.3059061346125],[6.925796003384345,52.30588420801497],[6.925904474151944,52.3058405473715]]]}},{"type":"Feature","properties":{"cho_uri":"https://linkeddata.cultureelerfgoed.nl/cho-kennis/id/rijksmonument/12063","rijksmonumentnummer":"7548","naam":null,"geometry_bron":"Polygon","monumentenregister_url":"https://monumentenregister.cultureelerfgoed.nl/monumenten/7548","oorspronkelijke_functie":"Begraafplaats en -onderdelen","oorspronkelijke_functie_kort":"Begraafplaats en -onderdelen","huidige_functie":null,"type":null,"datum_inschrijving_monumentenregister":"1972-08-29","monument_aard":"onroerend gebouwd"},"geometry":{"type":"Polygon","coordinates":[[[6.719731551572152,52.248695649316204],[6.720044753159612,52.24888447635967],[6.719732030380271,52.24910283831185],[6.719366597175858,52.24897931923247],[6.719731551572152,52.248695649316204]]]}},{"type":"Feature","properties":{"cho_uri":"https://linkeddata.cultureelerfgoed.nl/cho-kennis/id/rijksmonument/17252","rijksmonumentnummer":"512058","naam":null,"geometry_bron":"Point","monumentenregister_url":"https://monumentenregister.cultureelerfgoed.nl/monumenten/512058","oorspronkelijke_functie":"Schoolgebouw","oorspronkelijke_functie_kort":"Schoolgebouw","huidige_functie":null,"type":null,"datum_inschrijving_monumentenregister":"1999-07-14","monument_aard":"onroerend gebouwd"},"geometry":{"type":"Point","coordinates":[5.92141996080077,52.55169803389713]}},{"type":"Feature","properties":{"cho_uri":"https://linkeddata.cultureelerfgoed.nl/cho-kennis/id/rijksmonument/19265","rijksmonumentnummer":"21521","naam":null,"geometry_bron":"Polygon","monumentenregister_url":"https://monumentenregister.cultureelerfgoed.nl/monumenten/21521","oorspronkelijke_functie":"Begraafplaats en -onderdelen","oorspronkelijke_functie_kort":"Begraafplaats en -onderdelen","huidige_functie":null,"type":null,"datum_inschrijving_monumentenregister":"1971-12-22","monument_aard":"onroerend gebouwd"},"geometry":{"type":"Polygon","coordinates":[[[6.794279852486778,52.26926605735242],[6.794313368735491,52.26926026481469],[6.794317705803821,52.26925841537367],[6.794352629817171,52.26925080827236],[6.794415325201294,52.26924107259105],[6.794479456764749,52.26923042087623],[6.794531984897997,52.269223502919054],[6.79455982733031,52.269269913680006],[6.794596855864508,52.26932879950342],[6.794607734082792,52.26934844555634],[6.794637098205005,52.26939663595745],[6.794678805321278,52.269464454947666],[6.794629291554323,52.26947403373624],[6.794542009620333,52.26949395022902],[6.793999673811247,52.269626254320684],[6.793952904911942,52.269583664365406],[6.79389272679929,52.26953404290992],[6.793838521133266,52.26948794588629],[6.793805360763346,52.26945867723739],[6.793734617780538,52.269399293667796],[6.79398891322849,52.26933244455088],[6.794086362341115,52.26930971071415],[6.794125651945753,52.26930115280112],[6.794132918319935,52.269299268482946],[6.79417074325956,52.26929072799699],[6.794180938923377,52.269288808790826],[6.794205667323777,52.26928312093894],[6.79423766208363,52.269275548757335],[6.794243492235508,52.269274580429816],[6.794279852486778,52.26926605735242]]]}},{"type":"Feature","properties":{"cho_uri":"https://linkeddata.cultureelerfgoed.nl/cho-kennis/id/rijksmonument/23742","rijksmonumentnummer":"12886","naam":null,"geometry_bron":"Polygon","monumentenregister_url":"https://monumentenregister.cultureelerfgoed.nl/monumenten/12886","oorspronkelijke_functie":"Begraafplaats en -onderdelen","oorspronkelijke_functie_kort":"Begraafplaats en -onderdelen","huidige_functie":null,"type":null,"datum_inschrijving_monumentenregister":"1972-08-29","monument_aard":"onroerend gebouwd"},"geometry":{"type":"Polygon","coordinates":[[[6.551746856298181,52.20985546769782],[6.552012340475977,52.21043980699576],[6.551646557463195,52.21049644912269],[6.551523712595607,52.21021901280171],[6.551437711690094,52.21023154634571],[6.551297885574178,52.2099201204135],[6.551746856298181,52.20985546769782]]]}},{"type":"Feature","properties":{"cho_uri":"https://linkeddata.cultureelerfgoed.nl/cho-kennis/id/rijksmonument/24371","rijksmonumentnummer":"7484","naam":null,"geometry_bron":"Point","monumentenregister_url":"https://monumentenregister.cultureelerfgoed.nl/monumenten/7484","oorspronkelijke_functie":"Begraafplaats en -onderdelen","oorspronkelijke_functie_kort":"Begraafplaats en -onderdelen","huidige_functie":null,"type":null,"datum_inschrijving_monumentenregister":"1971-04-06","monument_aard":"onroerend gebouwd"},"geometry":{"type":"Point","coordinates":[6.684041523448875,52.37103427546997]}},{"type":"Feature","properties":{"cho_uri":"https://linkeddata.cultureelerfgoed.nl/cho-kennis/id/rijksmonument/25154","rijksmonumentnummer":"454880","naam":null,"geometry_bron":"Polygon","monumentenregister_url":"https://monumentenregister.cultureelerfgoed.nl/monumenten/454880","oorspronkelijke_functie":"Vanwege onderdelen kerk","oorspronkelijke_functie_kort":"Vanwege onderdelen kerk","huidige_functie":null,"type":null,"datum_inschrijving_monumentenregister":"1994-03-09","monument_aard":"onroerend gebouwd"},"geometry":{"type":"Polygon","coordinates":[[[6.072107731625308,52.64065527754968],[6.072051455397523,52.64064661453886],[6.072064317021305,52.64061867976754],[6.072082919772299,52.64057992714003],[6.072071073637945,52.640578197942716],[6.0720739302159,52.64057189036529],[6.072085776348667,52.640573619562325],[6.072114356062367,52.64051144243139],[6.072108405014194,52.640508780533885],[6.072114216113689,52.640502455928846],[6.072118745875423,52.640508720940474],[6.07214837516644,52.64051394257004],[6.072159773420903,52.640486914951694],[6.072219045987195,52.64049825683335],[6.072207605775921,52.640522588506514],[6.07223723508673,52.64052781011387],[6.072241540908942,52.64051969671702],[6.072248955235311,52.64052145144258],[6.072246112683283,52.640528657674444],[6.072277219269401,52.64053387075684],[6.072281539083114,52.640526656008795],[6.072290444677223,52.640529300866554],[6.072287588133072,52.64053560844914],[6.072317217462061,52.64054083003654],[6.072327432337339,52.640532682573],[6.07233339740131,52.64053624310965],[6.072324631794992,52.64054258475735],[6.07238092194313,52.64055214628937],[6.072435972872897,52.640576993365386],[6.072422012260605,52.64062920024895],[6.072376874908082,52.64067170083163],[6.072347777472656,52.64070062796633],[6.072338885839923,52.64069888176323],[6.072341784385983,52.64069527013021],[6.072307695136426,52.640688276796325],[6.072304810586858,52.640692787078734],[6.072294455684062,52.64069194803826],[6.072297326235957,52.64068653910588],[6.07226180172245,52.64068225022501],[6.072261871712227,52.640686743475996],[6.072253008081238,52.64068679456687],[6.072246973015024,52.64067874077531],[6.072223280681241,52.6406752824124],[6.072220424118071,52.64068158999319],[6.07221302376277,52.64068073391622],[6.072215852332923,52.64067262903519],[6.072184745655808,52.64066741593704],[6.072181889087614,52.64067372351696],[6.072174488734375,52.64067286743757],[6.072175868032401,52.64066656837197],[6.07214477535982,52.64066225391358],[6.072141904790724,52.640667662842354],[6.072134490443924,52.64066590811022],[6.072135883742839,52.64066050769529],[6.072107731625308,52.64065527754968]]]}},{"type":"Feature","properties":{"cho_uri":"https://linkeddata.cultureelerfgoed.nl/cho-kennis/id/rijksmonument/28731","rijksmonumentnummer":"41895","naam":null,"geometry_bron":"Point","monumentenregister_url":"https://monumentenregister.cultureelerfgoed.nl/monumenten/41895","oorspronkelijke_functie":"Begraafplaats en -onderdelen","oorspronkelijke_functie_kort":"Begraafplaats en -onderdelen","huidige_functie":null,"type":null,"datum_inschrijving_monumentenregister":"1971-07-07","monument_aard":"onroerend gebouwd"},"geometry":{"type":"Point","coordinates":[6.139093960662275,52.51136841699957]}},{"type":"Feature","properties":{"cho_uri":"https://linkeddata.cultureelerfgoed.nl/cho-kennis/id/rijksmonument/39614","rijksmonumentnummer":"15302","naam":null,"geometry_bron":"Point","monumentenregister_url":"https://monumentenregister.cultureelerfgoed.nl/monumenten/15302","oorspronkelijke_functie":"Begraafplaats en -onderdelen","oorspronkelijke_functie_kort":"Begraafplaats en -onderdelen","huidige_functie":null,"type":null,"datum_inschrijving_monumentenregister":"1971-04-06","monument_aard":"onroerend gebouwd"},"geometry":{"type":"Point","coordinates":[6.91090015525345,52.21956977453205]}},{"type":"Feature","properties":{"cho_uri":"https://linkeddata.cultureelerfgoed.nl/cho-kennis/id/rijksmonument/41090","rijksmonumentnummer":"33020","naam":null,"geometry_bron":"Point","monumentenregister_url":"https://monumentenregister.cultureelerfgoed.nl/monumenten/33020","oorspronkelijke_functie":"Begraafplaats en -onderdelen","oorspronkelijke_functie_kort":"Begraafplaats en -onderdelen","huidige_functie":null,"type":null,"datum_inschrijving_monumentenregister":"1971-12-22","monument_aard":"onroerend gebouwd"},"geometry":{"type":"Point","coordinates":[6.519081981522279,52.29277519866546]}},{"type":"Feature","properties":{"cho_uri":"https://linkeddata.cultureelerfgoed.nl/cho-kennis/id/rijksmonument/43235","rijksmonumentnummer":"18863","naam":null,"geometry_bron":"Polygon","monumentenregister_url":"https://monumentenregister.cultureelerfgoed.nl/monumenten/18863","oorspronkelijke_functie":"Begraafplaats en -onderdelen","oorspronkelijke_functie_kort":"Begraafplaats en -onderdelen","huidige_functie":null,"type":null,"datum_inschrijving_monumentenregister":"1971-12-22","monument_aard":"onroerend gebouwd"},"geometry":{"type":"Polygon","coordinates":[[[6.733422242389741,52.16049560762395],[6.73343357869283,52.160483792527366],[6.733456142807347,52.16045656796945],[6.733502732055652,52.16040210216187],[6.733811591806795,52.160030027084225],[6.733842356057416,52.16003237252071],[6.733960665125591,52.16056227152109],[6.733812496591594,52.16054418755849],[6.733422242389741,52.16049560762395]]]}},{"type":"Feature","properties":{"cho_uri":"https://linkeddata.cultureelerfgoed.nl/cho-kennis/id/rijksmonument/71046","rijksmonumentnummer":"507502","naam":"Bruggeman","geometry_bron":"Polygon","monumentenregister_url":"https://monumentenregister.cultureelerfgoed.nl/monumenten/507502","oorspronkelijke_functie":"Boerderij (M)","oorspronkelijke_functie_kort":"Boerderij","huidige_functie":"Boerderij(M1)","type":"Dwarshuisboerderij","datum_inschrijving_monumentenregister":"1997-09-03","monument_aard":"onroerend gebouwd"},"geometry":{"type":"Polygon","coordinates":[[[6.725583437680367,52.26202644384236],[6.725676589887208,52.26205505154898],[6.725663869612252,52.262070476680414],[6.725743706750105,52.26209474078527],[6.725674490940105,52.26218002002176],[6.7255828299581,52.262152294299696],[6.725581365512266,52.26215231089135],[6.725501528358365,52.26212804667711],[6.725583437680367,52.26202644384236]]]}},{"type":"Feature","properties":{"cho_uri":"https://linkeddata.cultureelerfgoed.nl/cho-kennis/id/rijksmonument/46526","rijksmonumentnummer":"513203","naam":null,"geometry_bron":"Polygon","monumentenregister_url":"https://monumentenregister.cultureelerfgoed.nl/monumenten/513203","oorspronkelijke_functie":"Oriënteertafel","oorspronkelijke_functie_kort":"Oriënteertafel","huidige_functie":"Oriënteertafel","type":null,"datum_inschrijving_monumentenregister":"1999-10-13","monument_aard":"onroerend gebouwd"},"geometry":{"type":"Polygon","coordinates":[[[6.883945817691895,52.40617261051766],[6.883929262585026,52.40616113429773],[6.88399284110335,52.40612886960895],[6.884045566180424,52.40616685509158],[6.88398345676997,52.406199101236204],[6.883966932010261,52.40618852352233],[6.88396408486443,52.40619125616825],[6.883961268084969,52.406194887314726],[6.88395989006176,52.4061976013886],[6.883958512038386,52.40620031546244],[6.883925341073883,52.40617556602269],[6.883931217564536,52.406175491736455],[6.883938532811577,52.4061745003776],[6.883945817691895,52.40617261051766]]]}},{"type":"Feature","properties":{"cho_uri":"https://linkeddata.cultureelerfgoed.nl/cho-kennis/id/rijksmonument/51967","rijksmonumentnummer":"509334","naam":null,"geometry_bron":"Point","monumentenregister_url":"https://monumentenregister.cultureelerfgoed.nl/monumenten/509334","oorspronkelijke_functie":"Kapel(F1)","oorspronkelijke_functie_kort":"Kapel","huidige_functie":"Opslaggebouw","type":null,"datum_inschrijving_monumentenregister":"2001-12-24","monument_aard":"onroerend gebouwd"},"geometry":{"type":"Point","coordinates":[5.934978212861416,52.57017717771778]}},{"type":"Feature","properties":{"cho_uri":"https://linkeddata.cultureelerfgoed.nl/cho-kennis/id/rijksmonument/68338","rijksmonumentnummer":"510583","naam":null,"geometry_bron":"Point","monumentenregister_url":"https://monumentenregister.cultureelerfgoed.nl/monumenten/510583","oorspronkelijke_functie":"Begraafplaatsaula","oorspronkelijke_functie_kort":"Begraafplaatsaula","huidige_functie":"Begraafplaatsaula","type":null,"datum_inschrijving_monumentenregister":"1999-01-27","monument_aard":"onroerend gebouwd"},"geometry":{"type":"Point","coordinates":[6.928209816327106,52.22112492089054]}},{"type":"Feature","properties":{"cho_uri":"https://linkeddata.cultureelerfgoed.nl/cho-kennis/id/rijksmonument/68339","rijksmonumentnummer":"510582","naam":null,"geometry_bron":"Point","monumentenregister_url":"https://monumentenregister.cultureelerfgoed.nl/monumenten/510582","oorspronkelijke_functie":"Toegangshek","oorspronkelijke_functie_kort":"Toegangshek","huidige_functie":"Toegangshek","type":null,"datum_inschrijving_monumentenregister":"1999-01-27","monument_aard":"onroerend gebouwd"},"geometry":{"type":"Point","coordinates":[6.928208800033102,52.2211253330033]}},{"type":"Feature","properties":{"cho_uri":"https://linkeddata.cultureelerfgoed.nl/cho-kennis/id/rijksmonument/71972","rijksmonumentnummer":"510733","naam":null,"geometry_bron":"Point","monumentenregister_url":"https://monumentenregister.cultureelerfgoed.nl/monumenten/510733","oorspronkelijke_functie":"Dienstwoning(K4)","oorspronkelijke_functie_kort":"Dienstwoning","huidige_functie":"Dienstwoning(K4)","type":null,"datum_inschrijving_monumentenregister":"1999-03-17","monument_aard":"onroerend gebouwd"},"geometry":{"type":"Point","coordinates":[6.15852224881478,52.2598426655808]}},{"type":"Feature","properties":{"cho_uri":"https://linkeddata.cultureelerfgoed.nl/cho-kennis/id/rijksmonument/71973","rijksmonumentnummer":"510732","naam":null,"geometry_bron":"Point","monumentenregister_url":"https://monumentenregister.cultureelerfgoed.nl/monumenten/510732","oorspronkelijke_functie":"Begraafplaatsaula","oorspronkelijke_functie_kort":"Begraafplaatsaula","huidige_functie":"Woonhuis","type":null,"datum_inschrijving_monumentenregister":"1999-03-17","monument_aard":"onroerend gebouwd"},"geometry":{"type":"Point","coordinates":[6.158305335100663,52.25997052480126]}},{"type":"Feature","properties":{"cho_uri":"https://linkeddata.cultureelerfgoed.nl/cho-kennis/id/rijksmonument/70982","rijksmonumentnummer":"507641","naam":null,"geometry_bron":"Polygon","monumentenregister_url":"https://monumentenregister.cultureelerfgoed.nl/monumenten/507641","oorspronkelijke_functie":"Dienstwoning(K)","oorspronkelijke_functie_kort":"Dienstwoning","huidige_functie":null,"type":"Bijgebouwen kastelen enz.","datum_inschrijving_monumentenregister":"2002-12-02","monument_aard":"onroerend gebouwd"},"geometry":{"type":"Polygon","coordinates":[[[6.726733869031936,52.26194419023385],[6.726748729924054,52.26195121278169],[6.72657239235361,52.26207905583704],[6.726480108689482,52.26203066356326],[6.726622030489414,52.261927480710305],[6.726677107739034,52.26195651933859],[6.726710059139052,52.26193187586222],[6.726733869031936,52.26194419023385]]]}},{"type":"Feature","properties":{"cho_uri":"https://linkeddata.cultureelerfgoed.nl/cho-kennis/id/rijksmonument/71041","rijksmonumentnummer":"507546","naam":null,"geometry_bron":"Polygon","monumentenregister_url":"https://monumentenregister.cultureelerfgoed.nl/monumenten/507546","oorspronkelijke_functie":"Historische aanleg","oorspronkelijke_functie_kort":"Historische aanleg","huidige_functie":null,"type":"Tuin, park en plantsoen","datum_inschrijving_monumentenregister":"2002-12-02","monument_aard":"onroerend gebouwd"},"geometry":{"type":"Polygon","coordinates":[[[6.740977322274086,52.26516342344871],[6.740725194632764,52.26544766329079],[6.740508501880213,52.26569284460785],[6.740491911605347,52.265725394495114],[6.740343519398168,52.26590417449956],[6.74033562242487,52.26588538837829],[6.740354673601443,52.265933709924724],[6.740387999590023,52.26601782333654],[6.740411526612001,52.26606879025897],[6.740540863883821,52.26637113161734],[6.740656544512984,52.266609808501315],[6.740682946637905,52.266658944661934],[6.740661907676745,52.266689747763856],[6.74063893918419,52.26670529193352],[6.740605663858929,52.26671915640561],[6.740559015785215,52.266726881871875],[6.740503416087945,52.266729316556265],[6.740424218893644,52.266726628208154],[6.740237942660048,52.26671977291567],[6.740009056726624,52.26670891083875],[6.739860777933739,52.26669892318652],[6.739799210552048,52.26669783033096],[6.739721478040555,52.26669512474309],[6.739639242462179,52.266688875117964],[6.739605392968738,52.266683869311755],[6.73749809818105,52.26898394721408],[6.73761209644571,52.26897455428812],[6.73805394403029,52.26914658307995],[6.738236833073315,52.269668540862],[6.738139455123108,52.26979100364118],[6.737264473175871,52.26954122818012],[6.737171475218929,52.27053196126409],[6.738125742217486,52.270545323564875],[6.738106787296852,52.271127117748236],[6.737130618630095,52.27111670209128],[6.736961575486852,52.27254695831546],[6.736873093757346,52.272721453473984],[6.737725527166676,52.2740600368885],[6.737390992000573,52.27505892317277],[6.737096934023498,52.275219587502335],[6.73711481258735,52.27522927094831],[6.738416674080396,52.27587596763247],[6.739215672174967,52.27627312264019],[6.739330328167982,52.27633293464351],[6.739338445247289,52.27635890934857],[6.739244111543285,52.27643729271577],[6.739177364903076,52.276507270409866],[6.738959527842177,52.276765045334116],[6.73882451291529,52.27690321997861],[6.738646532630429,52.277074245647114],[6.738492417010893,52.27721084058755],[6.738312231929453,52.27735762111845],[6.738188786595342,52.27744262865005],[6.738038726024739,52.27751985038552],[6.737757665817716,52.27762643465752],[6.737677639530693,52.27764532696522],[6.737571216766386,52.27766362200689],[6.737464793913693,52.27768191695295],[6.737168227342873,52.2777122720334],[6.736447232808743,52.27776095681729],[6.736422811762256,52.277728875928865],[6.73611623484861,52.27776743260014],[6.735849156696753,52.27780373988637],[6.735563224434479,52.2778465538884],[6.735290449000847,52.27788831820681],[6.735106735960454,52.27791917825467],[6.734947981491724,52.277951551100884],[6.734867844448723,52.27796684722767],[6.734467294561013,52.278047819903335],[6.734301404932181,52.278086565397444],[6.733547536892349,52.27830819238818],[6.733199235125839,52.278420925105095],[6.732863005042704,52.27854520475763],[6.732515624242097,52.27868848689269],[6.732268102157769,52.27879018166835],[6.732068488787684,52.278876948554775],[6.731792779024008,52.27901581724511],[6.731514327744457,52.27916100863015],[6.731234572644062,52.27931160745516],[6.730949308703377,52.27947395369343],[6.730766565306246,52.279585695135886],[6.730549773810663,52.27973467747007],[6.730265454861445,52.27992847207622],[6.730089219497126,52.280061711592154],[6.7297307497423,52.280323763557],[6.729578820028726,52.2804369507608],[6.729473770989006,52.28050106570723],[6.72932569256542,52.28059623122017],[6.729216301879998,52.28066219300266],[6.729064966752787,52.28074660860246],[6.729009999831112,52.280770603664955],[6.728723823497584,52.28090329166741],[6.728713703655855,52.280907900956386],[6.728464614088271,52.28100690871165],[6.728163271418044,52.28102560972199],[6.72803600039235,52.28103334609693],[6.725338382745701,52.282510222094245],[6.72535769977576,52.282518992140474],[6.725517280965952,52.282610668364285],[6.725620565840782,52.28268230779449],[6.725788529146481,52.28280894501086],[6.72594509713557,52.2829464976421],[6.726022227614692,52.28302562406183],[6.726041896860367,52.28304607543813],[6.726066259258126,52.283076361309796],[6.726092140958895,52.28310842772103],[6.726130880639094,52.283178101368456],[6.726275719907667,52.28346140489866],[6.726386164910215,52.283624648218016],[6.726431578356518,52.283721212512454],[6.726458733220435,52.2837955117384],[6.726562094614489,52.28401546456283],[6.726641448527786,52.284168273477704],[6.726682359253667,52.28426129319479],[6.726709379472114,52.28433109949205],[6.726740738350802,52.28444759831746],[6.726751777183219,52.28452208015461],[6.726755953297445,52.28456338125563],[6.726729682705072,52.28466435350393],[6.726703929362356,52.28473385911277],[6.726638609964029,52.28490089212041],[6.7265531774559,52.285178715157166],[6.726582833552064,52.28519006446632],[6.72668653522519,52.28522664198695],[6.726994058248374,52.28536338099089],[6.727111760241605,52.28542676578583],[6.727293821416446,52.28553436460623],[6.72729223785724,52.28635685682214],[6.727211455359066,52.28644855961602],[6.72716190561347,52.286506649700456],[6.727118866907027,52.286586239030896],[6.727067497054274,52.286681203740315],[6.726961828708719,52.2868226268301],[6.726913228838328,52.28686362733539],[6.72671796181428,52.28699887486143],[6.726690853022852,52.28702345185552],[6.726670742698588,52.28708570242467],[6.726665667002541,52.287111827436036],[6.726652747543834,52.28716950210344],[6.726625608636346,52.2872417199905],[6.726565282854419,52.287331392689616],[6.726515132537431,52.2874182534006],[6.726442728950486,52.28754491692881],[6.726367803697171,52.28763655271827],[6.726304874430022,52.2876885018736],[6.726266800769411,52.287738371604554],[6.726239606747783,52.28780879225515],[6.726229725420651,52.28787002795288],[6.726277477899357,52.287946790433004],[6.726332584107942,52.28802436844514],[6.72638478698634,52.288102878210324],[6.726424509451671,52.288156360785756],[6.726493565166186,52.288210409806105],[6.726520807183109,52.28823886518904],[6.726547420447866,52.288343732360296],[6.726563830821156,52.28845051291343],[6.726446304948078,52.28849049657349],[6.726388775518165,52.2885271036315],[6.726230000540415,52.288608902893536],[6.726179282980596,52.28862835397653],[6.726093289450848,52.28864460917795],[6.726029086148794,52.288654325316045],[6.725924286975885,52.28867888333942],[6.725803721015798,52.288715305273726],[6.725733652408261,52.28877362711005],[6.725711293675516,52.288761296050595],[6.725599797873864,52.28870952497836],[6.725508870915888,52.28865931863381],[6.725446082834347,52.2886186812472],[6.725376946578641,52.288561935901335],[6.72515586413889,52.28837567462265],[6.725002480408549,52.288247073689334],[6.724729877189558,52.28800476550844],[6.72462457518026,52.287915170547905],[6.724462024309044,52.287774088375464],[6.724373382267105,52.2877022822418],[6.724262004286663,52.28760556468735],[6.724181121827544,52.287548052672285],[6.723877777741958,52.2873555286398],[6.723713246525274,52.287245928593244],[6.723638361620105,52.287192842776136],[6.72358987877064,52.28714035723148],[6.723560714711631,52.287096641992804],[6.723458166580063,52.2871472398666],[6.723380879036817,52.28720923745841],[6.723291707001714,52.287265976092165],[6.723255696445626,52.28728705740918],[6.72318599116791,52.28725998021628],[6.723102018124101,52.28719710914503],[6.722938866727011,52.28713333522126],[6.722919629175316,52.28712726051104],[6.722689886018731,52.28709120523151],[6.722562900951182,52.28706028057222],[6.722515850396649,52.28705541894775],[6.72229988918635,52.287038982504896],[6.722154045008695,52.28701456261248],[6.72200654681173,52.28698386907761],[6.721950542886949,52.28697371508876],[6.721845861436193,52.28695332429105],[6.721836279184736,52.28697590445661],[6.72163456655043,52.28694582271746],[6.721551837286082,52.28692428490171],[6.721491194955114,52.28690609316809],[6.72111856850523,52.28684647941992],[6.721078197389746,52.28681996876424],[6.721026230068968,52.28684662276944],[6.721001994801352,52.28686936824715],[6.72098407899532,52.286907323319205],[6.720979485374642,52.28694962242043],[6.720975673778418,52.28701798015073],[6.720974226409604,52.28706743476372],[6.720947509784921,52.28715402855405],[6.720916019715335,52.2872280919193],[6.720879729238073,52.287288726282775],[6.720844418583582,52.28733316977761],[6.720807130272442,52.28736055690205],[6.720749408891063,52.287390871220026],[6.720744986090288,52.28739002225004],[6.720710366871464,52.28750636811306],[6.720667279282002,52.28763359604641],[6.720652455229081,52.287676909438126],[6.720645614073566,52.28769316642608],[6.719517157852271,52.28779757921354],[6.719349053108601,52.287812957417955],[6.718401830081505,52.28790003554716],[6.718385604149903,52.28789662281007],[6.718278287576556,52.287886146183396],[6.718193138881255,52.28788171193668],[6.717937639082118,52.287866611679775],[6.716961200148371,52.28781018688864],[6.716902077527597,52.2877937734628],[6.716441398847991,52.28763266369054],[6.716852298936377,52.287354782671656],[6.71749428803391,52.286913400068194],[6.71726750509916,52.286486289365364],[6.717249303591392,52.28646582004274],[6.717229529288422,52.28644177290939],[6.717212766175601,52.28642038851539],[6.717142810282113,52.28633578246832],[6.717125912809818,52.28630990518787],[6.717068378263608,52.28624853011984],[6.716997441617282,52.286180114816176],[6.716905924710036,52.286060695034294],[6.716833160312142,52.286029154168624],[6.71677822077241,52.28600550261087],[6.716726507440667,52.28599170238188],[6.716664483739189,52.28597622036687],[6.716583412033906,52.28596095259606],[6.716515608116026,52.285948232158034],[6.716463868056935,52.28593353323857],[6.7164076248388,52.285915289438044],[6.716344956421183,52.28587824145487],[6.716298110061063,52.2858311278428],[6.716263886579142,52.28576499582752],[6.716117181404865,52.28546642066245],[6.715980236581718,52.28520009514936],[6.715894223824275,52.285019489052864],[6.715878927097543,52.28499808798589],[6.715878900235482,52.28499718941061],[6.715857957607828,52.28498304283852],[6.71583690754875,52.28496530196138],[6.715751647896637,52.28480985585916],[6.715633820410044,52.28459455102691],[6.715556317794706,52.284453399621285],[6.715545972286967,52.28430340339341],[6.715528623228863,52.28416427241409],[6.715518692500921,52.284077192933424],[6.714994887344703,52.28376397816177],[6.71470370577233,52.283583878585894],[6.714247668063663,52.2833310229193],[6.714244781045558,52.283283414841634],[6.714219576159986,52.28288100082734],[6.714193298722844,52.282442643726824],[6.714169382457488,52.28208336129684],[6.714142094559187,52.28190568997028],[6.714121723628463,52.281812435453524],[6.714100028233878,52.28162571253607],[6.714094093835132,52.281525104882164],[6.714119479353238,52.28139358369456],[6.714175879110362,52.281171826454504],[6.714194716749826,52.28106644622254],[6.714185010231649,52.28088857743806],[6.714233177829927,52.28053837306511],[6.714277184926722,52.28029428295547],[6.714296430391563,52.28010440358554],[6.714296178555538,52.280046878229555],[6.714286476228358,52.280016425346965],[6.714258163731212,52.27990258582386],[6.714128126823788,52.27967033789156],[6.714104515256798,52.27961577148323],[6.714067510497912,52.27945618674496],[6.714026647364752,52.279314622876605],[6.714027575977698,52.27929663489012],[6.714035470901337,52.27921744497778],[6.714057194590587,52.279159672852465],[6.714137481570078,52.279050905917444],[6.714246692702646,52.27892922979525],[6.714420014466368,52.27879514806488],[6.714421452637927,52.278794233033],[6.71457371067232,52.27869094951336],[6.714795386174743,52.278605762320346],[6.714970717918521,52.278539073037],[6.715215601515973,52.27849497265361],[6.715332156332132,52.27847208956132],[6.715425271228804,52.27844946983752],[6.715493132218944,52.2784154485111],[6.715551612488983,52.278361757277494],[6.715599542376625,52.27829829696158],[6.715639452181245,52.278113578205854],[6.715644912401533,52.27800205589315],[6.715609568275553,52.27789818335138],[6.715598346862156,52.27786594988227],[6.715555490183436,52.27775586963253],[6.715536729233325,52.27771652988857],[6.715520871391488,52.277676258627345],[6.71551732394069,52.277655624301694],[6.7153872108503,52.27766607570275],[6.715218644283737,52.27771381316542],[6.715077911687154,52.27776123759151],[6.715005361246666,52.27778542372376],[6.714626466355866,52.277905636177024],[6.714525893184312,52.277923844668784],[6.714455655080248,52.27792733028334],[6.714369194981522,52.27792740254801],[6.714290059735809,52.27792739248253],[6.714152352477997,52.27792893902432],[6.714092288670606,52.27792961352954],[6.714011715267157,52.27793051830568],[6.713827128910487,52.27793259085852],[6.713608043874674,52.27790808404753],[6.713395667380937,52.27786282734145],[6.712913648012617,52.27776846092334],[6.712283768369812,52.27762990801853],[6.712277881738559,52.27762907515489],[6.711531498085682,52.27746575726009],[6.711481314808831,52.27745373541163],[6.709501186685137,52.277098382597195],[6.70915215083001,52.277040265535575],[6.709099279250645,52.27703636265792],[6.709008185556102,52.2770283929538],[6.707801839322142,52.27696907274165],[6.707663387426145,52.27694545150012],[6.7075494393598,52.27690807312539],[6.707506825473425,52.27695349316702],[6.707484133613383,52.2769789152884],[6.707038200383224,52.27745760550058],[6.706728654369268,52.27779184947286],[6.708175175539182,52.2782889458564],[6.707160818834379,52.279366349482025],[6.705714753468855,52.278885415291256],[6.705153818458875,52.27949032494394],[6.704958064303633,52.27970913738213],[6.704915897921538,52.27976983233339],[6.704904923447173,52.279795123255774],[6.70490199337356,52.279795155930344],[6.704798375431804,52.27976035631685],[6.704737563248245,52.27973586585165],[6.704740519950951,52.27973673176065],[6.704921944659731,52.279528866009024],[6.705565055637057,52.27882865861077],[6.704717325061913,52.27860800147911],[6.704676944570342,52.27858058654335],[6.704620635578833,52.27855964132259],[6.704352408798446,52.2785086989584],[6.704309418111725,52.27849209951368],[6.704289787486752,52.27847254304339],[6.704273966164682,52.27843316882564],[6.704276550815077,52.27837201640905],[6.704293785341088,52.27831070069697],[6.704325856749602,52.27820607352055],[6.704349750466181,52.27812221165237],[6.704370101782888,52.27801771510242],[6.70437305901843,52.27796914279781],[6.706222183023944,52.27810761683133],[6.706201778560374,52.2780620018793],[6.706187180727947,52.27801452435263],[6.706193811063391,52.27794164130765],[6.706240582198564,52.27788808546527],[6.706304986205954,52.2778361305108],[6.706358603544913,52.27781575663888],[6.706430227124531,52.277809563741],[6.706494712499171,52.277809742638944],[6.70691503280976,52.27735650921413],[6.707554991202831,52.276650932161346],[6.708284575135409,52.27585536046032],[6.708896528365499,52.275195032619294],[6.709428996704244,52.274621883194236],[6.709523668290524,52.2745039695719],[6.709812267066743,52.27420590734285],[6.70984781905585,52.27416955424256],[6.710250365141345,52.27376145099769],[6.71036394183405,52.27363883056328],[6.710635219009629,52.273349948953],[6.710971814005418,52.27299112122685],[6.71099452860513,52.27296659700922],[6.710907871178595,52.2728120619192],[6.710852142134714,52.27271201186951],[6.710800412927176,52.272647872127635],[6.710731929148798,52.27256234696494],[6.710616518767283,52.272475549645456],[6.710535045848181,52.27244590033366],[6.710452295444072,52.27242255742367],[6.710280246378001,52.27240201223813],[6.710150756590418,52.27238368690245],[6.709875317151204,52.2723355346545],[6.709508473577403,52.272268629452284],[6.709436458531837,52.27226134550019],[6.709232452434224,52.27225014521274],[6.708968229937748,52.272234224971925],[6.708932594267779,52.27221844381986],[6.708858580406114,52.27219320431084],[6.708677366277051,52.272110736722496],[6.708750200597631,52.272047000582475],[6.708813128484678,52.27199506062692],[6.708910863611464,52.27193104584196],[6.708916615870295,52.2719273859791],[6.708963938409233,52.271892699202084],[6.708985242215243,52.27186998890969],[6.70900662613822,52.271849974352094],[6.709042680004799,52.27178125623056],[6.709064406642473,52.271723484933005],[6.709129751081291,52.27160500075619],[6.70915451391038,52.27155079098148],[6.709195998890525,52.27146762998132],[6.709284997197635,52.27140551038272],[6.7093628115999,52.27136149344162],[6.709436792726342,52.2713363957971],[6.709465847350355,52.27132798072668],[6.709539988701907,52.27130827449485],[6.70966100212585,52.271288043575254],[6.710002792227042,52.271251857712954],[6.710249905343223,52.27098841591233],[6.71035639197803,52.27087396467241],[6.710360572283216,52.270866726826],[6.710280353326596,52.27082987228055],[6.71011411033409,52.270758025786655],[6.710871233810184,52.270252465678226],[6.710933568178088,52.27018075584877],[6.711004623658288,52.27020512831953],[6.711019110324673,52.270199572724465],[6.711250655681517,52.27010259574985],[6.711346069173511,52.270059279105425],[6.711405426648197,52.27003524297258],[6.711412991049993,52.270043248100656],[6.71156217035298,52.26998494657792],[6.711420339734318,52.26984721008879],[6.710830253313219,52.26926955112768],[6.710302078495057,52.26875321859907],[6.710057397179937,52.268506969045184],[6.709925400906099,52.26835473861479],[6.709845710733284,52.26823697875305],[6.709775952827944,52.268108321099525],[6.70971061081022,52.26793107449755],[6.709667425949396,52.26775987198879],[6.709643388538941,52.26759205064831],[6.709630278143386,52.267249724410725],[6.709640466861702,52.267148935881536],[6.709651109812511,52.26706342321283],[6.709671390392836,52.26695712843296],[6.709692953575193,52.26689396549743],[6.709704985967481,52.26685517899104],[6.709722369022409,52.266799253877025],[6.709747978460642,52.266724360200406],[6.709769755218216,52.26666838589062],[6.709787592438437,52.266627736629324],[6.709565759694772,52.26650887115268],[6.709333515692269,52.26638472850631],[6.708309168263022,52.26588292782689],[6.708462094527537,52.26585245345377],[6.708584451406925,52.265828612961606],[6.709391551247131,52.26567576200301],[6.709590362050733,52.265956683797995],[6.709988915151517,52.26620480703376],[6.709989048793123,52.266209299934836],[6.710058712998498,52.26623638515501],[6.710125757638743,52.26617540947591],[6.71020571602252,52.266105300343845],[6.710285888028215,52.26604237979898],[6.71033890118334,52.26600223536689],[6.710466762176507,52.265917207461634],[6.710657860575968,52.26579102141865],[6.710820254903014,52.265684932014196],[6.710933869604724,52.265613546395834],[6.71099979527183,52.26556426817207],[6.711015584506235,52.26555330468621],[6.711653081157294,52.26526480994971],[6.712475540987931,52.26489064103791],[6.712555528451209,52.264870867213006],[6.713455728520329,52.264647729918735],[6.713455219375147,52.26463065690884],[6.713756394301766,52.264560758226274],[6.714322262221054,52.26442586277597],[6.714514319196337,52.26438145768395],[6.714693329188032,52.26434169328972],[6.71498733855127,52.26427726523843],[6.715370145982981,52.264193860526696],[6.715624906696744,52.26413975981953],[6.715640909010004,52.26413598434961],[6.716117706663923,52.26425646504754],[6.716304724947925,52.26409256255323],[6.7163701589996,52.264027106930165],[6.71643779511925,52.264035334723715],[6.71662846434043,52.26399363841954],[6.716938551288131,52.26392812565679],[6.717403498695122,52.263848284094344],[6.717523211850574,52.26383435171588],[6.717853356527448,52.26380276814015],[6.718134930118859,52.26376364093421],[6.718695066092547,52.26368272179223],[6.7188861621529,52.26365539910366],[6.719081786018374,52.263632519462824],[6.719427849095586,52.26359445982486],[6.71941584426998,52.263193694075675],[6.719411715075276,52.2631047513733],[6.719411483834406,52.26304812444591],[6.719410019356095,52.26304814096119],[6.719415796520566,52.26304537916606],[6.719422898650856,52.26294012993461],[6.71940608961327,52.26291694857516],[6.719392371033733,52.26289912565116],[6.719385894082838,52.26287852441695],[6.71938394513152,52.262862366527685],[6.719382023097088,52.26284710721632],[6.719378120375164,52.26271681340217],[6.719377501325138,52.2626961461072],[6.719368942353483,52.2624103982812],[6.719365690461927,52.26239964837337],[6.719356553830886,52.262388065945615],[6.719345925834072,52.262375601453414],[6.719256901221523,52.26233795342479],[6.719086174710588,52.26226257460838],[6.718967457916405,52.262211777905605],[6.718737454985818,52.2621136959175],[6.718430575758595,52.26199221004028],[6.718270506444132,52.26193019318668],[6.71809270296192,52.26186298262967],[6.718024612768588,52.261839479933926],[6.717935912966907,52.261812613842054],[6.717890246532669,52.261804139449744],[6.717879941697457,52.26180245776609],[6.717800646979949,52.26179615990341],[6.717584783276255,52.261778815767485],[6.717471322816481,52.26175672258892],[6.717296544259623,52.26174161190366],[6.717250233102474,52.26171157137134],[6.717208610887662,52.26169136572451],[6.717168533754028,52.2616738393121],[6.717172604618103,52.26166300690356],[6.717114121396755,52.26161782237438],[6.71712646835222,52.261589818048],[6.717153540205222,52.26156434458644],[6.717164583909245,52.26154174821646],[6.717034263265072,52.26149467576378],[6.71691714960185,52.261448353387955],[6.716841523625646,52.26141774379321],[6.716690191405094,52.26135382871964],[6.716571452902188,52.261302131004406],[6.716492764289765,52.26126706124804],[6.716479369655531,52.26126002092444],[6.716382812763666,52.261215264467005],[6.716243143526149,52.261149419834574],[6.716060201250993,52.26105709539639],[6.715908495562305,52.26098059919887],[6.715741877896072,52.260895281706134],[6.715625855826678,52.260836361453656],[6.715632936320327,52.26082819189757],[6.715742152740774,52.260708311304555],[6.715759242447341,52.260691939238484],[6.71576925169816,52.26068373673463],[6.71579507411299,52.260665468684806],[6.715846692036812,52.26062803398878],[6.715855344226809,52.260623442266215],[6.715879943758018,52.26061327788375],[6.715901721852347,52.260606740756955],[6.715925018027312,52.26060198431319],[6.715941072733155,52.26060000596333],[6.715986522804143,52.26060129248114],[6.716077422953537,52.260603865464255],[6.716185949604974,52.26060803783688],[6.716467543971805,52.2606192515619],[6.716580490750827,52.26062427271539],[6.716583500122041,52.26062693549316],[6.717070406254478,52.26064572477684],[6.717277209147169,52.260654183017216],[6.717375565839076,52.26066116545285],[6.717443143267299,52.26066759553482],[6.717512238867674,52.26067580624448],[6.71757992384646,52.26068583056379],[6.71776551366019,52.26071969554061],[6.71796907987428,52.26076684094202],[6.718070795923825,52.26078816706361],[6.718185853055041,52.26081473607162],[6.718343647030906,52.26084981220881],[6.718370194600924,52.260855805223834],[6.718403164581123,52.26088060237428],[6.71840513997719,52.26089765886585],[6.71840434792257,52.260920139834205],[6.718400438789642,52.26093636375724],[6.718391156105029,52.26096882810511],[6.718370830454082,52.26102388893559],[6.718347306994159,52.261069996979835],[6.718324978974087,52.26110710273128],[6.718299614515807,52.26114064716652],[6.718265463516377,52.26117429060184],[6.718234160629226,52.26120520529038],[6.718199875079649,52.26123435581354],[6.71813095428996,52.26128097530751],[6.718049176202495,52.26133852618994],[6.718087627625283,52.2613506773314],[6.718199730486121,52.26137638073687],[6.718213071644754,52.26138162370703],[6.718435182693598,52.26146091911222],[6.718673618451739,52.261547221159034],[6.718781786191202,52.26158824935968],[6.718891418561491,52.261629260951665],[6.719176249256782,52.26174829759499],[6.719197020463711,52.26175705220459],[6.719495140416354,52.26187953377045],[6.719502274195788,52.26187316114224],[6.719849530122645,52.26202205410082],[6.719989681715422,52.262152608567355],[6.720118828927491,52.2622581183489],[6.720123330003068,52.26226166308852],[6.720142960347104,52.26228121698826],[6.720215220097428,52.26234601998641],[6.720285880935196,52.262406346575794],[6.720314782969835,52.26244197569002],[6.720359821035637,52.26247832157897],[6.720473931241305,52.2625219778357],[6.720544602483721,52.262533764540066],[6.7205826784649,52.26253333477287],[6.720633826830271,52.262529161909974],[6.720743391947873,52.262518936304],[6.720905515892738,52.262502723927895],[6.721023759842823,52.26248880454911],[6.721130422801183,52.26247951023282],[6.721196053926558,52.26246978029539],[6.721312725421325,52.26245228285512],[6.721390152992121,52.26244511623177],[6.721489493480521,52.26243590429034],[6.721531854903371,52.262431830284775],[6.721612373076225,52.26243002189765],[6.721666584941874,52.26243030839041],[6.721714992904936,52.26243245818828],[6.721720823770318,52.26243149343568],[6.721726681597892,52.262431427260175],[6.72173251246288,52.26243046250701],[6.721736905833444,52.26243041287499],[6.721742736698074,52.26242944812131],[6.721747103105665,52.26242849991151],[6.721752907006852,52.26242663657995],[6.721757273413947,52.2624256883698],[6.721763077314336,52.2624238250377],[6.721767443720937,52.26242287682721],[6.721771783164003,52.26242103003913],[6.72177756009971,52.26241826812893],[6.721781926505453,52.26241731991787],[6.721786265947372,52.26241547312926],[6.721790605388931,52.26241362634049],[6.721794917866323,52.262410880974194],[6.721797792850957,52.262409050729914],[6.721837125813427,52.262352875671965],[6.721805924052406,52.262435925326834],[6.721813103126037,52.262479889437834],[6.721818170609659,52.26250230423665],[6.72181830543141,52.26250679712343],[6.721818566691396,52.262564322618665],[6.721817336525191,52.26262096608099],[6.722061667236716,52.26256157588817],[6.722156182919411,52.26253803579387],[6.722386793078357,52.26246082232842],[6.722533516217982,52.26241961307977],[6.722688971848867,52.26237650716067],[6.722787583342228,52.262343032547136],[6.722906130309462,52.262290455915775],[6.722984104201558,52.26225272007087],[6.723056031240848,52.26220876037707],[6.723149304057179,52.2621438849475],[6.723262862879773,52.26207158894949],[6.723336064831222,52.26202132248378],[6.72343280565809,52.26197438524294],[6.723552923313369,52.261925385707826],[6.723670246834362,52.261880912071504],[6.723802592537775,52.26184885270057],[6.723939763462597,52.26183112069755],[6.724078884882478,52.261829546344906],[6.724206506900864,52.26183529303972],[6.724350615958694,52.26185343733166],[6.724440649025484,52.261875789133306],[6.724699330493732,52.26195286111286],[6.724873999138287,52.26201290624487],[6.72504793359887,52.262097229265954],[6.725178778019995,52.2621613657911],[6.725237144264476,52.26210497398606],[6.725254938503706,52.26206342383415],[6.725280000850684,52.26201999358728],[6.725282821598158,52.262016366105804],[6.725306824967597,52.26198643108712],[6.725342300505061,52.261948276167125],[6.725373625989212,52.26191825819118],[6.725478610292148,52.26185324822005],[6.725553652354143,52.26181554386711],[6.725676479759099,52.261759320387725],[6.725754531487378,52.26172427845102],[6.725897338644049,52.26174782890745],[6.726223782523196,52.26159401563369],[6.726642837643221,52.26140229717497],[6.726760691933979,52.26147287143012],[6.726968304065757,52.26165388910266],[6.726735535013624,52.26175630482042],[6.726948223963947,52.26186265767876],[6.726788402122356,52.26200379699885],[6.726649788218638,52.26211952690367],[6.726572683613964,52.26218601958896],[6.726551227828509,52.26225188129709],[6.726507582208768,52.26240788285447],[6.726564912387082,52.26241442392518],[6.726704360265587,52.26242362938676],[6.72684776850965,52.26241840764757],[6.727237367370938,52.262415786595525],[6.727398538501633,52.262416654870584],[6.727482066515186,52.26241750498311],[6.727572916799517,52.262418271954935],[6.727730588343036,52.262448842622184],[6.72790892500225,52.26248457184573],[6.72799890693411,52.26250512377183],[6.728112970455116,52.262546975473796],[6.728336650566136,52.26262893127102],[6.728840611660809,52.26282365970862],[6.728997417444167,52.26287401396146],[6.729028577924589,52.26288714326917],[6.729072348378021,52.262978332159676],[6.729125176982116,52.263078406968916],[6.729122546268624,52.2630883245661],[6.729042297373136,52.26319620320422],[6.728990280448404,52.263268704681586],[6.728987622584171,52.26327772370048],[6.728975960387214,52.26332819361048],[6.728996381274178,52.26337380469759],[6.72906762542435,52.26340445636611],[6.729089104248421,52.26343657217559],[6.729216405800504,52.26348007022531],[6.729238535806968,52.263485212120436],[6.729398978531492,52.263510355814354],[6.729827124949385,52.26357110902444],[6.730247841520044,52.26362834962828],[6.730234309142922,52.26366535768458],[6.730868383367088,52.26375342896486],[6.731470186783295,52.26384006631432],[6.731546693809785,52.26385088118429],[6.731609966054116,52.263860048855854],[6.732224871312548,52.26394383662771],[6.732235962279265,52.263923036031564],[6.733806800709503,52.26417660340845],[6.733953959030497,52.26419829684623],[6.733828057404107,52.264394789822646],[6.733814786833792,52.26458550441353],[6.733813594394723,52.2645945068417],[6.73381297332925,52.26462237931163],[6.733857072277989,52.26462726992576],[6.733995254488296,52.264642773457965],[6.734671249446692,52.2647114700046],[6.73507532841285,52.264750905635935],[6.735441085186668,52.264782687300205],[6.735583580266983,52.26479544310975],[6.735854361376528,52.2648354985701],[6.736061813861435,52.26486459101877],[6.736412954199864,52.26489743545851],[6.736588970547376,52.26490441391052],[6.736691651318937,52.26490863431505],[6.736713646553239,52.26490928194087],[6.736874308647957,52.26489306438097],[6.737060713129721,52.264904417868394],[6.737486436479536,52.26493281135593],[6.738618183969257,52.26500526414175],[6.739712021098135,52.26508353345386],[6.740275714892769,52.265120224977956],[6.740798238449242,52.2651519922451],[6.740977322274086,52.26516342344871]],[[6.73701482269902,52.271115328446314],[6.736999010666188,52.27112539680786],[6.736998683332136,52.27111461395152],[6.73701482269902,52.271115328446314]]]}},{"type":"Feature","properties":{"cho_uri":"https://linkeddata.cultureelerfgoed.nl/cho-kennis/id/rijksmonument/47063","rijksmonumentnummer":"9932","naam":null,"geometry_bron":"Polygon","monumentenregister_url":"https://monumentenregister.cultureelerfgoed.nl/monumenten/9932","oorspronkelijke_functie":"Begraafplaats en -onderdelen","oorspronkelijke_functie_kort":"Begraafplaats en -onderdelen","huidige_functie":null,"type":null,"datum_inschrijving_monumentenregister":"1971-04-06","monument_aard":"onroerend gebouwd"},"geometry":{"type":"Polygon","coordinates":[[[6.746623473969985,52.29937478203055],[6.746577928472438,52.29937171032051],[6.746460373109519,52.29936317454141],[6.74636925467591,52.29935613241433],[6.746285492065073,52.299349904519005],[6.746160581022356,52.29934055413925],[6.746044491479099,52.29933200109514],[6.745951907511776,52.29932497549527],[6.745891650543312,52.29932027487422],[6.745051068001139,52.299257124967745],[6.745081337890895,52.29904823716133],[6.746651665985481,52.2991461423083],[6.746623473969985,52.29937478203055]]]}},{"type":"Feature","properties":{"cho_uri":"https://linkeddata.cultureelerfgoed.nl/cho-kennis/id/rijksmonument/51547","rijksmonumentnummer":"41510","naam":null,"geometry_bron":"Polygon","monumentenregister_url":"https://monumentenregister.cultureelerfgoed.nl/monumenten/41510","oorspronkelijke_functie":"Onderdeel woningen e.d.","oorspronkelijke_functie_kort":"Onderdeel woningen e.d.","huidige_functie":null,"type":null,"datum_inschrijving_monumentenregister":"1975-12-02","monument_aard":"onroerend gebouwd"},"geometry":{"type":"Polygon","coordinates":[[[6.072268433133568,52.64044404830988],[6.072361592018613,52.640354536921144],[6.072381993662186,52.64033644468442],[6.072409781586113,52.640318309859296],[6.072464790233005,52.6403404609731],[6.072497513998215,52.64035465198289],[6.072510893361203,52.640359967220526],[6.072369531064846,52.64048480713958],[6.072272892920766,52.64044582006449],[6.072268433133568,52.64044404830988]]]}},{"type":"Feature","properties":{"cho_uri":"https://linkeddata.cultureelerfgoed.nl/cho-kennis/id/rijksmonument/51600","rijksmonumentnummer":"12342","naam":null,"geometry_bron":"Polygon","monumentenregister_url":"https://monumentenregister.cultureelerfgoed.nl/monumenten/12342","oorspronkelijke_functie":"Begraafplaats en -onderdelen","oorspronkelijke_functie_kort":"Begraafplaats en -onderdelen","huidige_functie":null,"type":null,"datum_inschrijving_monumentenregister":"1972-09-05","monument_aard":"onroerend gebouwd"},"geometry":{"type":"Polygon","coordinates":[[[7.000673003211133,52.383974436135084],[7.000677735298653,52.38398336072857],[7.000734062506239,52.38407787733318],[7.000856308915909,52.38424790257165],[7.00086091020408,52.38425323330002],[7.000081707706546,52.38415598508587],[7.000225237361496,52.38406323914059],[7.000271013668033,52.38402935558759],[7.000525386097078,52.38395487456805],[7.000557525591747,52.383949941914466],[7.000603108934802,52.38395111836127],[7.000673003211133,52.383974436135084]]]}},{"type":"Feature","properties":{"cho_uri":"https://linkeddata.cultureelerfgoed.nl/cho-kennis/id/rijksmonument/51837","rijksmonumentnummer":"7476","naam":null,"geometry_bron":"Point","monumentenregister_url":"https://monumentenregister.cultureelerfgoed.nl/monumenten/7476","oorspronkelijke_functie":"Begraafplaats en -onderdelen","oorspronkelijke_functie_kort":"Begraafplaats en -onderdelen","huidige_functie":null,"type":null,"datum_inschrijving_monumentenregister":"1971-04-06","monument_aard":"onroerend gebouwd"},"geometry":{"type":"Point","coordinates":[6.661729421330595,52.35961857039345]}},{"type":"Feature","properties":{"cho_uri":"https://linkeddata.cultureelerfgoed.nl/cho-kennis/id/rijksmonument/52361","rijksmonumentnummer":"31770","naam":null,"geometry_bron":"Polygon","monumentenregister_url":"https://monumentenregister.cultureelerfgoed.nl/monumenten/31770","oorspronkelijke_functie":"Begraafplaats en -onderdelen","oorspronkelijke_functie_kort":"Begraafplaats en -onderdelen","huidige_functie":null,"type":null,"datum_inschrijving_monumentenregister":"1973-07-10","monument_aard":"onroerend gebouwd"},"geometry":{"type":"Polygon","coordinates":[[[6.883845954817964,52.406261963562585],[6.883706838366773,52.40640754349917],[6.883762968952793,52.40641582287656],[6.884143978722466,52.40646943386273],[6.884051723154506,52.40660992730797],[6.8839911544916,52.40660080528566],[6.883510892048031,52.40652417828584],[6.883539794429489,52.40637909263721],[6.883482443259452,52.406247681416474],[6.883756069691024,52.4061246715165],[6.883845954817964,52.406261963562585]]]}},{"type":"Feature","properties":{"cho_uri":"https://linkeddata.cultureelerfgoed.nl/cho-kennis/id/rijksmonument/52378","rijksmonumentnummer":"16537","naam":null,"geometry_bron":"Polygon","monumentenregister_url":"https://monumentenregister.cultureelerfgoed.nl/monumenten/16537","oorspronkelijke_functie":"Begraafplaats en -onderdelen","oorspronkelijke_functie_kort":"Begraafplaats en -onderdelen","huidige_functie":null,"type":null,"datum_inschrijving_monumentenregister":"1971-12-22","monument_aard":"onroerend gebouwd"},"geometry":{"type":"Polygon","coordinates":[[[6.588507252815389,52.23684590882302],[6.588564635649479,52.236802179471496],[6.588618775699984,52.236746797825646],[6.588724200832221,52.23663876010283],[6.588737034246328,52.23662604539591],[6.588815571022509,52.23655243808856],[6.588885495380313,52.236485210433514],[6.589196278921936,52.236662719420565],[6.588974424539692,52.23690497473048],[6.588883296552352,52.237000283054485],[6.588832059632424,52.23705473641111],[6.588782262013268,52.2371082762324],[6.588715385192159,52.237179967131986],[6.588706772872382,52.23718634682334],[6.588703966785802,52.23719086970466],[6.588701087925686,52.23719269672854],[6.58851194109773,52.23712810503731],[6.588460202788726,52.237109755188236],[6.588237003977738,52.23703112760606],[6.588249910388894,52.237021108810076],[6.588326054803115,52.23696730122748],[6.588429523889468,52.23689523831548],[6.588507252815389,52.23684590882302]]]}},{"type":"Feature","properties":{"cho_uri":"https://linkeddata.cultureelerfgoed.nl/cho-kennis/id/rijksmonument/53089","rijksmonumentnummer":"508610","naam":null,"geometry_bron":"Polygon","monumentenregister_url":"https://monumentenregister.cultureelerfgoed.nl/monumenten/508610","oorspronkelijke_functie":"Begraafplaats","oorspronkelijke_functie_kort":"Begraafplaats","huidige_functie":null,"type":null,"datum_inschrijving_monumentenregister":"1998-07-21","monument_aard":"onroerend gebouwd"},"geometry":{"type":"Polygon","coordinates":[[[6.508349277770558,52.461252748905935],[6.50833871631349,52.46130048602289],[6.507902655366844,52.461338765480924],[6.50777195216418,52.46134898957526],[6.507764724011574,52.461296027834244],[6.50775765528721,52.46124935629019],[6.507761877382301,52.461183702869334],[6.507993505168229,52.461207578124395],[6.508349277770558,52.461252748905935]]]}},{"type":"Feature","properties":{"cho_uri":"https://linkeddata.cultureelerfgoed.nl/cho-kennis/id/rijksmonument/61057","rijksmonumentnummer":"10489","naam":null,"geometry_bron":"Polygon","monumentenregister_url":"https://monumentenregister.cultureelerfgoed.nl/monumenten/10489","oorspronkelijke_functie":"Begraafplaats en -onderdelen","oorspronkelijke_functie_kort":"Begraafplaats en -onderdelen","huidige_functie":null,"type":null,"datum_inschrijving_monumentenregister":"1966-02-02","monument_aard":"onroerend gebouwd"},"geometry":{"type":"Polygon","coordinates":[[[5.962624365201098,52.72513335581155],[5.962546735967426,52.72530897834079],[5.962425246224082,52.72530057858546],[5.962313952600342,52.72527954758329],[5.962391794806738,52.72512010084346],[5.96240512783949,52.72512093510491],[5.962502887714742,52.725125854781034],[5.962624365201098,52.72513335581155]]]}},{"type":"Feature","properties":{"cho_uri":"https://linkeddata.cultureelerfgoed.nl/cho-kennis/id/rijksmonument/71971","rijksmonumentnummer":"510734","naam":null,"geometry_bron":"Point","monumentenregister_url":"https://monumentenregister.cultureelerfgoed.nl/monumenten/510734","oorspronkelijke_functie":"Begraafplaats","oorspronkelijke_functie_kort":"Begraafplaats","huidige_functie":null,"type":null,"datum_inschrijving_monumentenregister":"1999-03-17","monument_aard":"onroerend gebouwd"},"geometry":{"type":"Point","coordinates":[6.158305335100663,52.25997052480126]}}]}