{"type":"FeatureCollection","name":"rijksmonumenten","features":[{"type":"Feature","properties":{"cho_uri":"https://linkeddata.cultureelerfgoed.nl/cho-kennis/id/rijksmonument/19189","rijksmonumentnummer":"516837","naam":"Christelijk Lyceum","geometry_bron":"Point","monumentenregister_url":"https://monumentenregister.cultureelerfgoed.nl/monumenten/516837","oorspronkelijke_functie":"Schoolgebouw","oorspronkelijke_functie_kort":"Schoolgebouw","huidige_functie":"Schoolgebouw","type":"Lyceum","datum_inschrijving_monumentenregister":"2000-09-18","monument_aard":"onroerend gebouwd"},"geometry":{"type":"Point","coordinates":[5.889298964596658,51.98537647904273]}},{"type":"Feature","properties":{"cho_uri":"https://linkeddata.cultureelerfgoed.nl/cho-kennis/id/rijksmonument/19061","rijksmonumentnummer":"523131","naam":"Frissestijn","geometry_bron":"Polygon","monumentenregister_url":"https://monumentenregister.cultureelerfgoed.nl/monumenten/523131","oorspronkelijke_functie":"Woonhuis","oorspronkelijke_functie_kort":"Woonhuis","huidige_functie":null,"type":"Herenhuis","datum_inschrijving_monumentenregister":"2002-05-10","monument_aard":"onroerend gebouwd"},"geometry":{"type":"Polygon","coordinates":[[[5.135582442007183,51.819869258719734],[5.135536246109972,51.819830509587945],[5.135495520616877,51.819851095617096],[5.135419032854171,51.819782619772724],[5.135458282873476,51.81976652480752],[5.135501904006654,51.819746843838566],[5.13550045364846,51.81974684072953],[5.135474482667789,51.819722516368934],[5.135555923372077,51.81968314196914],[5.135584785057783,51.81970927018674],[5.135708949335201,51.81981110513645],[5.135582442007183,51.819869258719734]]]}},{"type":"Feature","properties":{"cho_uri":"https://linkeddata.cultureelerfgoed.nl/cho-kennis/id/rijksmonument/10590","rijksmonumentnummer":"523132","naam":null,"geometry_bron":"Polygon","monumentenregister_url":"https://monumentenregister.cultureelerfgoed.nl/monumenten/523132","oorspronkelijke_functie":"Boerderij(M1)","oorspronkelijke_functie_kort":"Boerderij","huidige_functie":"Woonhuis","type":"T-huisboerderij","datum_inschrijving_monumentenregister":"2002-05-10","monument_aard":"onroerend gebouwd"},"geometry":{"type":"Polygon","coordinates":[[[5.135463201225413,51.81992473122549],[5.135582442007183,51.819869258719734],[5.135708949335201,51.81981110513645],[5.135824452074834,51.819905730688426],[5.135697954655539,51.81996208673662],[5.135699400007845,51.81996298867264],[5.135575808020812,51.820018451972295],[5.135463201225413,51.81992473122549]]]}},{"type":"Feature","properties":{"cho_uri":"https://linkeddata.cultureelerfgoed.nl/cho-kennis/id/rijksmonument/12199","rijksmonumentnummer":"14896","naam":null,"geometry_bron":"Point","monumentenregister_url":"https://monumentenregister.cultureelerfgoed.nl/monumenten/14896","oorspronkelijke_functie":"Kerk","oorspronkelijke_functie_kort":"Kerk","huidige_functie":null,"type":null,"datum_inschrijving_monumentenregister":"1965-10-26","monument_aard":"onroerend gebouwd"},"geometry":{"type":"Point","coordinates":[5.836460326241977,52.448487844990396]}},{"type":"Feature","properties":{"cho_uri":"https://linkeddata.cultureelerfgoed.nl/cho-kennis/id/rijksmonument/14436","rijksmonumentnummer":"40240","naam":null,"geometry_bron":"Polygon","monumentenregister_url":"https://monumentenregister.cultureelerfgoed.nl/monumenten/40240","oorspronkelijke_functie":"Woonhuis(K)","oorspronkelijke_functie_kort":"Woonhuis","huidige_functie":null,"type":null,"datum_inschrijving_monumentenregister":"1976-05-19","monument_aard":"onroerend gebouwd"},"geometry":{"type":"Polygon","coordinates":[[[5.246672889342676,51.81140521300851],[5.246681825015747,51.81132972126221],[5.246741278918092,51.811329792371204],[5.246741273323154,51.811331590041604],[5.246729448744774,51.81140348298349],[5.246672889342676,51.81140521300851]]]}},{"type":"Feature","properties":{"cho_uri":"https://linkeddata.cultureelerfgoed.nl/cho-kennis/id/rijksmonument/15295","rijksmonumentnummer":"40289","naam":null,"geometry_bron":"Polygon","monumentenregister_url":"https://monumentenregister.cultureelerfgoed.nl/monumenten/40289","oorspronkelijke_functie":"Omwalling","oorspronkelijke_functie_kort":"Omwalling","huidige_functie":null,"type":null,"datum_inschrijving_monumentenregister":"1971-03-30","monument_aard":"onroerend gebouwd"},"geometry":{"type":"Polygon","coordinates":[[[5.247492711201877,51.8103024171876],[5.247483960742452,51.81031858587478],[5.247246284254104,51.8102751586703],[5.247214402421578,51.81026882880835],[5.246423973360824,51.81031462374575],[5.24633985009771,51.810320814763834],[5.246307929076032,51.81032706834956],[5.246307976778496,51.81031178814983],[5.246307993614651,51.81030639513814],[5.24634425358659,51.81030374211026],[5.246428376817239,51.81029755108895],[5.247218805574179,51.810251756121744],[5.247250687395253,51.81025808598247],[5.247488363797854,51.810301513178096],[5.247492711201877,51.8103024171876]]]}},{"type":"Feature","properties":{"cho_uri":"https://linkeddata.cultureelerfgoed.nl/cho-kennis/id/rijksmonument/18964","rijksmonumentnummer":"523469","naam":null,"geometry_bron":"Polygon","monumentenregister_url":"https://monumentenregister.cultureelerfgoed.nl/monumenten/523469","oorspronkelijke_functie":"Watertoren","oorspronkelijke_functie_kort":"Watertoren","huidige_functie":null,"type":null,"datum_inschrijving_monumentenregister":"2002-05-10","monument_aard":"onroerend gebouwd"},"geometry":{"type":"Polygon","coordinates":[[[6.702788128669841,51.96746535227318],[6.702765120384542,51.967425158226],[6.702797421943248,51.96738524426836],[6.702861091760483,51.96737284589223],[6.702922747955104,51.96739103334995],[6.702945730008149,51.96743032873928],[6.702913428549634,51.96747024273711],[6.70284835648537,51.96748445467352],[6.702788128669841,51.96746535227318]]]}},{"type":"Feature","properties":{"cho_uri":"https://linkeddata.cultureelerfgoed.nl/cho-kennis/id/rijksmonument/19935","rijksmonumentnummer":"34551","naam":null,"geometry_bron":"Polygon","monumentenregister_url":"https://monumentenregister.cultureelerfgoed.nl/monumenten/34551","oorspronkelijke_functie":"Begraafplaats en -onderdelen","oorspronkelijke_functie_kort":"Begraafplaats en -onderdelen","huidige_functie":null,"type":null,"datum_inschrijving_monumentenregister":"1966-10-05","monument_aard":"onroerend gebouwd"},"geometry":{"type":"Polygon","coordinates":[[[6.180987432465977,52.077284773398425],[6.180649180960664,52.07729514203592],[6.18063668200277,52.07708399843426],[6.180983811093117,52.07708076073122],[6.180987432465977,52.077284773398425]]]}},{"type":"Feature","properties":{"cho_uri":"https://linkeddata.cultureelerfgoed.nl/cho-kennis/id/rijksmonument/20500","rijksmonumentnummer":"34565","naam":null,"geometry_bron":"Polygon","monumentenregister_url":"https://monumentenregister.cultureelerfgoed.nl/monumenten/34565","oorspronkelijke_functie":"Boerderij (M)","oorspronkelijke_functie_kort":"Boerderij","huidige_functie":null,"type":null,"datum_inschrijving_monumentenregister":"1966-10-05","monument_aard":"onroerend gebouwd"},"geometry":{"type":"Polygon","coordinates":[[[6.179560128467851,52.07667328409192],[6.179426209806934,52.07668946521599],[6.179368586735867,52.07656581262755],[6.179466120269404,52.07655437052095],[6.179483040351641,52.07660369300094],[6.179526718054563,52.07659890498589],[6.179560128467851,52.07667328409192]]]}},{"type":"Feature","properties":{"cho_uri":"https://linkeddata.cultureelerfgoed.nl/cho-kennis/id/rijksmonument/23706","rijksmonumentnummer":"40288","naam":null,"geometry_bron":"Polygon","monumentenregister_url":"https://monumentenregister.cultureelerfgoed.nl/monumenten/40288","oorspronkelijke_functie":"Omwalling","oorspronkelijke_functie_kort":"Omwalling","huidige_functie":null,"type":null,"datum_inschrijving_monumentenregister":"1971-03-30","monument_aard":"onroerend gebouwd"},"geometry":{"type":"Polygon","coordinates":[[[5.246307993614651,51.81030639513814],[5.246307929076032,51.81032706834956],[5.246029241465291,51.810414819921306],[5.246029294885522,51.81039774205135],[5.246307993614651,51.81030639513814]]]}},{"type":"Feature","properties":{"cho_uri":"https://linkeddata.cultureelerfgoed.nl/cho-kennis/id/rijksmonument/24100","rijksmonumentnummer":"40283","naam":null,"geometry_bron":"Polygon","monumentenregister_url":"https://monumentenregister.cultureelerfgoed.nl/monumenten/40283","oorspronkelijke_functie":"Plantsoen","oorspronkelijke_functie_kort":"Plantsoen","huidige_functie":null,"type":null,"datum_inschrijving_monumentenregister":"1971-03-30","monument_aard":"onroerend gebouwd"},"geometry":{"type":"Polygon","coordinates":[[[5.258530791944143,51.812786831991346],[5.258507356432062,51.812868600595536],[5.258437557132646,51.8129359369749],[5.2584084746709,51.81296376907834],[5.258335841501941,51.8130077324975],[5.257159671530144,51.81354394164227],[5.256957815592265,51.8136416913806],[5.25668637386034,51.81373127394056],[5.256454156103922,51.81379663090453],[5.25644979255852,51.813801120238566],[5.256457030414663,51.81380562248461],[5.256526612803881,51.81381468828543],[5.256530937306113,51.81382368147676],[5.256513457111323,51.813850627175434],[5.256472779260978,51.81387574938327],[5.256304363141511,51.81394297470741],[5.256143223531176,51.81400121952662],[5.256105466591042,51.81401915416071],[5.256070630879543,51.81402990133869],[5.256051765446918,51.81403437446966],[5.256016963676252,51.81403343677436],[5.255992368062548,51.81401363486833],[5.255995315463222,51.81399745907443],[5.256020080892151,51.81395883669311],[5.256011405939154,51.81394983862487],[5.255986747653878,51.81395160876194],[5.255931593755329,51.81396772623141],[5.255811069148658,51.814022420618734],[5.2557529702294,51.814053814958044],[5.255539871959457,51.81402661118006],[5.255184700860623,51.8139839671955],[5.254893343607134,51.81393959634688],[5.254903523848002,51.81392972059263],[5.25482525371738,51.813916149849305],[5.254746980995898,51.81390347788884],[5.254719443438408,51.81389805380816],[5.254710747646762,51.813896246325],[5.254693290087905,51.81391510223551],[5.254626645236421,51.813893454928674],[5.254529493877397,51.813889749897776],[5.254522227132707,51.81389513471958],[5.254499037498174,51.81389061433578],[5.254439614576705,51.813878862299894],[5.254542883668004,51.81377471373715],[5.25501543818041,51.813349197127934],[5.255352757737617,51.813047566570646],[5.255517102101347,51.81288416235314],[5.255578147150557,51.812836592340204],[5.255602980441114,51.812774600323785],[5.255595910581143,51.812712572565296],[5.255577234392985,51.812652329478674],[5.25554405164841,51.81259386780806],[5.255418417326686,51.812413060446694],[5.255268084598276,51.812248404299524],[5.25524927501766,51.81223400176035],[5.255233321017929,51.81223488267722],[5.255114250326225,51.812289577990356],[5.25510991310021,51.81228507892199],[5.255105573244296,51.81228147868883],[5.255218840798816,51.812227675703056],[5.255221793616582,51.81220970225451],[5.255043849495407,51.812065688071975],[5.254902046080459,51.81196036437243],[5.254761659151932,51.81186672699511],[5.254435962818267,51.81166951374749],[5.25430571790132,51.81157948263552],[5.254282537420948,51.811572265701955],[5.254263725789807,51.81155876183925],[5.254027563235711,51.81148928378879],[5.253969400007629,51.81154314813969],[5.253763687435272,51.81147460292756],[5.25371298178132,51.81145836622738],[5.253542048367942,51.81139794968762],[5.253530420965258,51.8114069248413],[5.253263856340718,51.81132123156021],[5.253091425881235,51.8112769917469],[5.253085630847979,51.811275187453916],[5.252875506365271,51.81122820776576],[5.252846525926788,51.81122098391544],[5.252781309266088,51.81120832556765],[5.252791534858065,51.81118316979188],[5.252739355691419,51.81117502052989],[5.252692974225807,51.811167776721966],[5.252681295812247,51.81119382966398],[5.252488541011418,51.81115765523289],[5.252355189134477,51.81113862662142],[5.252179814377405,51.81110966234018],[5.252124737920568,51.81110061063589],[5.251940654855626,51.81107433249817],[5.251818909542215,51.81105351896369],[5.251663828562123,51.811027273812854],[5.251620350292809,51.8110191340918],[5.25150585299798,51.8109992274361],[5.251504402913194,51.81099922576096],[5.251358011985396,51.81097658559773],[5.251297140934686,51.810965729126316],[5.251240617455629,51.81095577649385],[5.250852201491829,51.810887014555895],[5.250865298380568,51.81087174950271],[5.250872611230124,51.81085108470429],[5.250843658511777,51.81083487200553],[5.250811775777457,51.810828543121254],[5.250798711481496,51.81083302214418],[5.250768200037087,51.8108527611574],[5.250599988033244,51.810853464502244],[5.250479781148282,51.81080388853299],[5.250301647793987,51.8107290774651],[5.250252206110663,51.810774860598215],[5.250194235753463,51.810764006935706],[5.250188386328413,51.81078017920661],[5.250020267476644,51.8107503213185],[5.249731861006918,51.81069785151403],[5.249718815807999,51.81069603856935],[5.249676788284672,51.81068789982518],[5.249481135172765,51.81065261589266],[5.249456371448288,51.8106894392368],[5.249244764945774,51.81065503503965],[5.249069394072777,51.81062606610886],[5.248802707495593,51.81058440562052],[5.248695300156646,51.81061753604851],[5.24855181202565,51.81059489580351],[5.248518543237312,51.81056789137206],[5.248472251488722,51.81053188316524],[5.248107036175789,51.81046583604385],[5.248108594278545,51.8104307831834],[5.247683955472762,51.810355675975806],[5.247483960742452,51.81031858587478],[5.247246284254104,51.8102751586703],[5.247214402421578,51.81026882880835],[5.246423973360824,51.81031462374575],[5.24633985009771,51.810320814763834],[5.246307929076032,51.81032706834956],[5.246165733028348,51.8103556605366],[5.246062688548185,51.810384299601736],[5.246029294885522,51.81039774205135],[5.245724302199624,51.81055017766229],[5.245380084814003,51.81072503609166],[5.245239175839606,51.810804862510885],[5.245198440724574,51.81084705868619],[5.245164916333802,51.810901847307285],[5.24505114750409,51.811112037910604],[5.245004458644802,51.81120276409516],[5.244994308007752,51.811202751806455],[5.244973904756486,51.81123508529156],[5.244959415167998,51.811231472391675],[5.244923151534962,51.81123502382613],[5.244902816236965,51.81124578525543],[5.244896984690818,51.81125566541488],[5.244902736881547,51.81127095263923],[5.244946211344916,51.81127999368418],[5.244902532824293,51.811335668768635],[5.244790345086757,51.81150361561409],[5.244701460384038,51.811639232435255],[5.244373619320137,51.812134094271954],[5.244250461540326,51.81210158626831],[5.244263575251891,51.81208182778013],[5.244224444813955,51.81207458944834],[5.244215746947765,51.81207368002231],[5.244198356912907,51.812070063498275],[5.24418676165891,51.812068251704176],[5.244207200029012,51.81202513233913],[5.244088390165698,51.81199352829599],[5.244075350520839,51.81198991705402],[5.244035926491826,51.81207525866707],[5.243973605606452,51.81206439663014],[5.24393012487499,51.81205715289547],[5.24388340423391,51.81215686697263],[5.243861572470466,51.81218200781082],[5.243793093950601,51.81228349297438],[5.243795937076486,51.81230147321504],[5.243820569232934,51.812307795154396],[5.243813318600462,51.81230778630361],[5.243801663321382,51.812324850006206],[5.24394359601201,51.812381650017976],[5.243924607358079,51.81242477110396],[5.243915866621942,51.81243734418042],[5.243837668073449,51.81240309290277],[5.24377803279295,51.81245964692526],[5.243840219973206,51.812512754309324],[5.243929891374113,51.81258746730895],[5.24401089646905,51.81265138361373],[5.243986198490364,51.81266573491855],[5.244015107136798,51.81269543182981],[5.244078745062194,51.812748540853896],[5.244177408754691,51.8127315830991],[5.244212146613915,51.812752298674795],[5.244203425831696,51.81275857992749],[5.244225135230593,51.81277208893051],[5.244220776262701,51.812774780139975],[5.24421205832535,51.81278016255832],[5.244256895986282,51.81281706950623],[5.244267069762,51.812809891179256],[5.24429599007131,51.812835992681116],[5.244320582747947,51.812854898204506],[5.24437844343274,51.81290080932981],[5.244456555117674,51.81296292412865],[5.24446667772132,51.81297192481341],[5.244547704157568,51.81302954890069],[5.244604137868395,51.81306826747335],[5.244653340789653,51.81310068537527],[5.244709771842141,51.8131403027318],[5.244806739253995,51.813201541328304],[5.245013703644718,51.81333122475829],[5.245052770180393,51.8133591360293],[5.24519893374177,51.813455488517896],[5.245204723082593,51.81345909086973],[5.245345078149561,51.81355813266788],[5.24551151431569,51.81366439646531],[5.24562147345413,51.81374542449541],[5.245683718136087,51.81378145303285],[5.245721335301908,51.813809362332904],[5.245784996527132,51.81385617858166],[5.245916647399545,51.81395700688667],[5.246045381625642,51.814063224566944],[5.246165609172626,51.81410741205243],[5.24629019031992,51.814150705798596],[5.246256779896831,51.814168642480276],[5.246248061932711,51.81417402504902],[5.246240794153341,51.81417940935736],[5.246190054466486,51.814173955429546],[5.24616394829754,51.81417482292633],[5.246126237823986,51.814176575319635],[5.246104470970994,51.814181043367384],[5.246068151643277,51.814201673016],[5.246014562197077,51.81418003650012],[5.245899358547656,51.814383934255645],[5.245948625733801,51.814396577243926],[5.245961666224977,51.81440018827702],[5.24594127347262,51.8144289265785],[5.245933952152908,51.814451388729324],[5.245938246464886,51.814469370657825],[5.245978798511344,51.81448649734334],[5.246106300595358,51.81452350292627],[5.246181646281643,51.81454426668103],[5.246187466737326,51.81453798180093],[5.246454003268544,51.81463447714631],[5.246442359601214,51.81464794576739],[5.246432171737076,51.81465961845549],[5.246416171840102,51.81467487952987],[5.246566827658053,51.81472809144515],[5.246565371851047,51.81472988737859],[5.246605932771626,51.81474431734258],[5.24660738857748,51.814742521408654],[5.246678373047998,51.81476687497619],[5.246707360372556,51.814772302677845],[5.246733469675129,51.814770536225566],[5.246769730416396,51.81476878190368],[5.246792953286554,51.81476251779668],[5.246803118708466,51.81475803575594],[5.246832089266773,51.81476885643569],[5.24685381439913,51.81477787077562],[5.246887244600466,51.81475364208158],[5.246933592499221,51.81477257303524],[5.246968464479288,51.81475104255409],[5.246985841806579,51.81475915284104],[5.247014834747857,51.81476278279712],[5.247262797615264,51.81477026915621],[5.247328042950321,51.814774841053925],[5.247400547683425,51.814776725040545],[5.247473049639475,51.81477950781721],[5.247554252842282,51.81478230089332],[5.247945772487901,51.81479445057066],[5.248125578729248,51.81480095545171],[5.248216938997323,51.814801962417555],[5.248266248801373,51.81480112190956],[5.248341673391362,51.81479671690095],[5.248417092437993,51.81479410951359],[5.24849831230249,51.814791508927165],[5.248601290777369,51.81478713628255],[5.248688314203406,51.81478364357378],[5.248887009010324,51.814778484662774],[5.249004505994782,51.81476873572925],[5.249043672562276,51.8147651864469],[5.24918439475872,51.814748273941035],[5.24919897102741,51.814724022436295],[5.249227928398781,51.81473933669926],[5.249256921508387,51.814742966101385],[5.249271423559527,51.81474298312992],[5.24932221644023,51.81473135786208],[5.249461512914125,51.81470635380741],[5.249494889547557,51.81469920223297],[5.249722738568202,51.81464463998264],[5.249761921396533,51.81463569745089],[5.249973803907606,51.81458561022222],[5.249965146442209,51.81457121869838],[5.250015936218239,51.8145604919648],[5.250036249936269,51.81455692033317],[5.25027713026945,51.81450866408852],[5.250326464251108,51.814499733199966],[5.250435297153532,51.8144773890048],[5.250477382811194,51.81446755077568],[5.250552833845333,51.81445415599553],[5.250660208171777,51.81443450640958],[5.250674650300103,51.814454297634086],[5.250771897663112,51.81442654663271],[5.250734344806176,51.81437616807809],[5.250822833766116,51.814367282460466],[5.251044797381165,51.81433967595478],[5.25127546458008,51.814311180262244],[5.25142050805232,51.81430325845681],[5.251429217311436,51.81430057200865],[5.251522118713156,51.81427101768629],[5.251744113802343,51.814232623836766],[5.251732590538805,51.81420654424275],[5.251721069986988,51.81417956581244],[5.251750146570231,51.814155330712566],[5.251755939222448,51.81415803390603],[5.251761734572943,51.814159838264175],[5.251767532621371,51.814160743787],[5.251774778159242,51.814162549816416],[5.251780573511072,51.81416435417363],[5.251787821747112,51.81416526136719],[5.251793617099814,51.81416706572372],[5.251800865336553,51.81416797291649],[5.251808113573584,51.814168880108774],[5.251813911624111,51.8141697856293],[5.251821159861697,51.81417069282079],[5.251828410795832,51.81417070117684],[5.251834208847002,51.81417160669634],[5.252043008835868,51.81418083549724],[5.252196707164607,51.81418820293838],[5.252283710347782,51.81419099940759],[5.252309768049635,51.81420630958006],[5.252184992721151,51.81422594067687],[5.252155937843878,51.814242985204025],[5.252113807022046,51.81426810423139],[5.252093466688712,51.814280664573246],[5.252029542545255,51.81431924107537],[5.252122427449861,51.814295079287874],[5.25226901497475,51.81425569887464],[5.252354643304599,51.81423332624432],[5.252575157817732,51.814204816342844],[5.252580902263248,51.81422369852662],[5.252582331002005,51.814230890868885],[5.252660646556722,51.81422918291196],[5.252675011795879,51.814275040107546],[5.252686583847015,51.81428494057811],[5.252705420251437,51.814290355174066],[5.252730073493682,51.814290383396866],[5.252744602180857,51.814281411645595],[5.252754809747516,51.81426254772785],[5.252754879370017,51.814239178016365],[5.253094285050382,51.81421889269048],[5.253136348525693,51.81421624418759],[5.253250937417203,51.81420828536027],[5.253303160190168,51.81420295186693],[5.253607803429654,51.81416824401854],[5.253738384041248,51.8141468203284],[5.253882048061666,51.81411462528431],[5.2539865516001,51.81408418333985],[5.254098366885892,51.81403307631014],[5.254204405034448,51.81397387309034],[5.254233461612282,51.81395592921988],[5.254266863410127,51.81393978793561],[5.254301770948282,51.813904772744465],[5.254319162502702,51.81390838777073],[5.25432499497415,51.81389760831038],[5.254396011383623,51.81391207002569],[5.254467017264216,51.813930127038574],[5.254658351168094,51.81396090356496],[5.254694587199859,51.81396723630983],[5.254891722142624,51.81399801899836],[5.255760045749932,51.814114045027026],[5.256094900140305,51.81416205762464],[5.256219827504984,51.81408939109392],[5.25647061307538,51.81412292744763],[5.256496724224085,51.81412025998718],[5.256514108229514,51.81412657119369],[5.256517003395259,51.81412837209049],[5.25665335725105,51.81411593996018],[5.256660532780585,51.81414201423793],[5.256744620192594,51.81415019718758],[5.256969334242767,51.81417291746314],[5.257234705549664,51.81417770553288],[5.257286912292875,51.8141777632774],[5.257428505979146,51.81436038389709],[5.257297903214318,51.8143899012104],[5.25725727189831,51.81439884465547],[5.257388743195505,51.81457156690296],[5.256735695888926,51.81472903897437],[5.256512210745555,51.81478182201486],[5.256298881752214,51.81483281827081],[5.256250985755228,51.81484624746241],[5.256226298294193,51.814857904835534],[5.256201542983677,51.81489293191577],[5.256205650975198,51.81497652842996],[5.256221245923101,51.815099686621835],[5.256231165282277,51.81517969426022],[5.256248161037221,51.815319931928165],[5.2563225247811,51.81568134764546],[5.256371279178737,51.816372608275806],[5.256358200796796,51.81638158208915],[5.256371247908735,51.816383394295],[5.256363910620181,51.81641304777243],[5.256345002517149,51.81643190230781],[5.256479743891341,51.81647789304006],[5.256440227420315,51.81660188868282],[5.256425597134014,51.816645915450714],[5.256389272724018,51.81666924479357],[5.256378753447236,51.81679596920998],[5.25636569057972,51.816799550014316],[5.256351180044652,51.81680223036703],[5.256338114566607,51.81680671000317],[5.25632360142078,51.816810289187366],[5.256310538544737,51.816813869985545],[5.256296025394419,51.81681744916632],[5.256282967729366,51.81681923229164],[5.256268451967218,51.816823710303886],[5.256253941418599,51.81682639064455],[5.256239430868256,51.81682907098343],[5.25622492031619,51.81683175132051],[5.256210412371475,51.816833532820944],[5.256195901816248,51.8168362131544],[5.256181393868953,51.81683799465124],[5.256166883310568,51.81684067498115],[5.25615237536069,51.81684245647435],[5.25613786740967,51.81684423796578],[5.256123359457504,51.81684601945542],[5.256108854115295,51.81684690210837],[5.256094346161125,51.81684868359444],[5.256079840817494,51.816849566243796],[5.256063885200045,51.81685044727254],[5.25604937985525,51.81685132991815],[5.256034874509892,51.81685221256198],[5.256020371776834,51.81685219636914],[5.256004416157295,51.81685307738982],[5.2559899108105,51.81685396002805],[5.255975408076897,51.81685394382966],[5.255959455069954,51.8168539260093],[5.255944952336377,51.81685390980716],[5.255930449602815,51.81685389360317],[5.255915949484215,51.81685297856254],[5.25589999647764,51.81685296073414],[5.255885496359961,51.81685204568975],[5.255870993627027,51.81685202947846],[5.255856496126373,51.8168502155956],[5.255840545737263,51.81684929892422],[5.255826048238715,51.81684748503762],[5.255811548124307,51.816846569984115],[5.25579705062781,51.81684475609391],[5.25578255313248,51.816842942201895],[5.255768058256218,51.81684022947329],[5.255753558145327,51.81683931441259],[5.255739060653505,51.81683750051523],[5.255724565781613,51.81683478778117],[5.255559614888776,51.81670427158308],[5.255514672302242,51.816698828188116],[5.253571943990012,51.815993743251674],[5.252478189334369,51.81559700532542],[5.252331111791866,51.81531370259342],[5.252165966503362,51.8152532907317],[5.252157273242664,51.81525058422456],[5.252148582672965,51.8152469788819],[5.252141339635911,51.81524427404082],[5.252132651758981,51.81523976986201],[5.252125411414459,51.81523616618504],[5.252116723540682,51.81523166200506],[5.252109483198738,51.815228058327065],[5.25210224554883,51.81522355581373],[5.252095005209345,51.81521995213484],[5.252087767562184,51.81521544962056],[5.252080529916472,51.81521094710588],[5.252074742492367,51.81520644625884],[5.252067504849398,51.81520194374335],[5.252060267207876,51.81519744122736],[5.252054482479356,51.815192041544414],[5.25204869506028,51.81518754069608],[5.252042907642358,51.81518303984747],[5.252037122917764,51.81517764016366],[5.252031338194558,51.815172240479534],[5.252025550780335,51.81516773963007],[5.252019768752301,51.81516144111043],[5.252015431559186,51.81515694192927],[5.252011097059626,51.81515154391297],[5.252005312342884,51.815146144227555],[5.252000977845573,51.815140746210936],[5.251996646042278,51.815134449359164],[5.251992311547131,51.815129051342154],[5.251989427270515,51.81512365499423],[5.251986540301413,51.815119157481114],[5.251854096190857,51.814793625584166],[5.25175765262045,51.814553524657036],[5.251754757617677,51.814551723642985],[5.251753312814165,51.814549924300955],[5.251751865312952,51.81454902379378],[5.251748970310702,51.81454722277955],[5.251747522809665,51.81454632227243],[5.251744627807761,51.81454452125808],[5.251741730108075,51.814543619078684],[5.251738832408504,51.814542716899176],[5.251735932010919,51.81454271355457],[5.251733034311524,51.81454181137497],[5.251730136612244,51.814540909195244],[5.25172723621478,51.814540905850464],[5.251724338515673,51.81454000367058],[5.251721438118265,51.814540000325664],[5.251718537720859,51.81453999698067],[5.251715637323454,51.81453999363561],[5.251712734227453,51.81454088912544],[5.251709833829991,51.81454088578022],[5.251464628586826,51.8145810504247],[5.251045311971876,51.81464977570353],[5.250985823837612,51.81465959395853],[5.250971427634428,51.81462452257836],[5.250883027798389,51.81460374675389],[5.250791730360773,51.814582068659924],[5.250781587112185,51.81457936036681],[5.250767207398191,51.81453889595151],[5.250178104723033,51.814644273181],[5.25017520431907,51.81464426979783],[5.250044615112615,51.81466748718992],[5.249914023037281,51.81469160327141],[5.249839846519042,51.814762524770636],[5.249777307015447,51.81482177494118],[5.249799040973144,51.81482809223124],[5.249849738062137,51.814847925956826],[5.249874358783672,51.814858740798655],[5.249907661630036,51.814875857649376],[5.249923578387814,51.814887561145966],[5.249956853937811,51.814913666331705],[5.249974201799691,51.81493166336004],[5.249987201773052,51.81494875646914],[5.249995862050756,51.81496224915582],[5.250001602779124,51.81498203029866],[5.250010252137213,51.814999118323804],[5.250015960086984,51.815029685484575],[5.250017358385016,51.81504676504104],[5.249696858150777,51.815047289163495],[5.249445951763558,51.81505328706977],[5.248596031865909,51.81508284781751],[5.248300193334653,51.8150807007067],[5.247053074677431,51.8150576473369],[5.246747090478852,51.81505368652894],[5.246782250851576,51.8149395761201],[5.246025243374342,51.81493776993829],[5.245912143785389,51.81493224092961],[5.245920850679852,51.81493045372548],[5.245917964328791,51.81492595606319],[5.245893437404678,51.814885478843976],[5.245874674762033,51.814856693450736],[5.24584148890606,51.81480272322972],[5.245811319007688,51.81471190426362],[5.245756690211935,51.81455903600417],[5.245745085802178,51.81455992086876],[5.245739330089364,51.81454553252625],[5.245733523659373,51.81454732321006],[5.245696108807556,51.814454697809346],[5.245612318966199,51.81435212928622],[5.245612324606655,51.81435033161656],[5.245568838585418,51.814343987325095],[5.24536736076475,51.81431228488818],[5.2451977732661,51.814285114852176],[5.245094863543972,51.81426791247456],[5.245065859751592,51.81426787738333],[5.245026667817271,51.81427951485143],[5.24500342795672,51.81429117161813],[5.244974373156476,51.81430731553093],[5.244597725593096,51.81463853019368],[5.244405718753728,51.81482165993618],[5.243870840615852,51.81474280958227],[5.243760676477911,51.81472649602217],[5.244171802245282,51.81450049010483],[5.2444889600282,51.81417999060081],[5.243488895117698,51.81400170019051],[5.243449766001359,51.81399356276663],[5.243448318684002,51.813992662157126],[5.243399064098916,51.8139764227796],[5.243383140763696,51.81396741490187],[5.243303544246687,51.81391608363682],[5.243289019532437,51.8139232565491],[5.24327156292066,51.81394031308864],[5.243241089089609,51.813946567613065],[5.243006320904003,51.81389594470852],[5.24228174884941,51.8137341609469],[5.24203395444546,51.813676329314994],[5.242009535801272,51.81360349322698],[5.242003911548241,51.813548657134284],[5.242008351700041,51.813520798633114],[5.242135232686702,51.8132980434799],[5.242234282349002,51.81316154232744],[5.242313003345023,51.813033105561956],[5.242385929078527,51.812902863920506],[5.242499590928585,51.81273132585361],[5.24253304212068,51.81270080655029],[5.242578097252802,51.81266940268665],[5.242787296822848,51.8125510133985],[5.24280910060443,51.812534861110976],[5.242822269712367,51.812498024921425],[5.242825322386848,51.812450390234496],[5.242848653866421,51.81240997117827],[5.242873398061721,51.812381238753346],[5.242880709070988,51.81236237212825],[5.242886624560384,51.81232642585675],[5.242846601795206,51.8121448113004],[5.242774610651844,51.81198383070906],[5.242764528883337,51.81196224618758],[5.242763096029081,51.81195685139448],[5.242763104659614,51.81195415488949],[5.242760227444694,51.81194696064317],[5.242753045919583,51.811925379687025],[5.242722769059079,51.81187051329895],[5.242705508731895,51.81182644897845],[5.24268823980345,51.81178508116029],[5.242669520798377,51.81174371155502],[5.242594653761836,51.81157553659714],[5.242352323190269,51.81117435599335],[5.242333590319886,51.81113748050705],[5.242261544878787,51.81099447628463],[5.242260103455001,51.81099177799001],[5.242247145083929,51.81096299916229],[5.242128226708132,51.810966447700146],[5.24211082281928,51.8109673250418],[5.242106507247667,51.81095653364713],[5.242057851971748,51.81075513367372],[5.24219911009012,51.81056834969799],[5.242244229724589,51.81051627274604],[5.242328740553306,51.81038964075636],[5.242519341622504,51.81018943465801],[5.242584795863012,51.81012659655481],[5.242645868088983,51.81007364024796],[5.242692359056174,51.81004583345505],[5.242747530143752,51.81002432919039],[5.243719734353279,51.80981519256205],[5.243725540253461,51.8098134019767],[5.243782120620806,51.8098044826894],[5.243883678070899,51.809787528714374],[5.243973646495699,51.809766965165444],[5.244078109578729,51.80974821688777],[5.244204328924425,51.80972769732856],[5.244395774487452,51.809715346502706],[5.244635077035138,51.809701255784034],[5.244848273003077,51.80968893061784],[5.245041171099194,51.809675681660764],[5.245245802290107,51.80962020114679],[5.24544046339799,51.80950718256393],[5.245568424839009,51.80939318441012],[5.245668753336622,51.809305219146495],[5.245754536099278,51.80923161770129],[5.245830151512074,51.80916339698872],[5.245924667642603,51.809079019864065],[5.246027900408455,51.80898926010681],[5.246148577912299,51.80888513978766],[5.246343289686521,51.80875414298621],[5.246465211240087,51.8087156390651],[5.246611572764859,51.80874457718379],[5.246723122976269,51.80877706884624],[5.246798453752977,51.8087996298865],[5.24689401215878,51.80884558485113],[5.24699682363543,51.80889064955659],[5.24706777956975,51.8089212947503],[5.247106877038671,51.80893841932562],[5.247428330159908,51.809084414166],[5.24767593120416,51.8091988610631],[5.247703440039481,51.80921237631752],[5.247958284320155,51.809329527734036],[5.248737168353398,51.809732229368265],[5.24898800392833,51.80973971549456],[5.249136001917985,51.80970932903042],[5.249196939460346,51.809697715738075],[5.249375478628858,51.80963770317428],[5.249736900176287,51.8095194799917],[5.250012705025554,51.80942182902182],[5.25004028571794,51.809411974005556],[5.250199958578663,51.809356432348594],[5.250509122978006,51.80925522376056],[5.250575889595702,51.809233729309724],[5.250689095082335,51.80919970505841],[5.25086896900381,51.80917654415923],[5.251006672665589,51.809192882999284],[5.251167395356089,51.80926947052971],[5.251365478570452,51.80945935471988],[5.251457983466104,51.80955833390762],[5.251601064696218,51.809715795927474],[5.251858250643831,51.81002349534084],[5.251886974151301,51.81011610880622],[5.251917223272918,51.81018355654059],[5.25195755018899,51.81027528451113],[5.251980597676971,51.81032654484201],[5.252174986813976,51.810299803294555],[5.252425882489257,51.81028840652688],[5.252570851150066,51.810301156506824],[5.252814499099736,51.810288851762714],[5.252988586724738,51.81026208564016],[5.253140939257554,51.81022990142482],[5.2535051519643,51.810146724535244],[5.253915512920958,51.8101489885486],[5.254014146010591,51.81013921319788],[5.25441162565387,51.81008393520396],[5.254594414509784,51.81005627769667],[5.25463648721279,51.81004913447549],[5.254852611206458,51.81002690721168],[5.254958501993811,51.810014442728445],[5.255114997270964,51.81005237002001],[5.255236544307113,51.810140592804196],[5.25531303226802,51.81026561725892],[5.255389523277883,51.81038974282652],[5.255427041282785,51.810452703613166],[5.255486108459589,51.81058489911406],[5.255641741578558,51.810919441419564],[5.255742585004356,51.81114696043353],[5.255870832211603,51.81142574378115],[5.25590541232707,51.81150218369696],[5.255974732325881,51.81160023453468],[5.256135448550807,51.811684904762046],[5.256307847067132,51.8117417237971],[5.256491839094844,51.81180125199337],[5.256586002655052,51.81183371490801],[5.256665686018726,51.81185897095106],[5.256755507277083,51.81188873238911],[5.256807680206969,51.8118995763711],[5.256980132259441,51.811938417708966],[5.257155487432186,51.81197636316845],[5.257300416298152,51.812005286341915],[5.257381573752205,51.81202245398308],[5.257419261312044,51.812027888654605],[5.257475777167972,51.81204143365173],[5.257707607887692,51.812107304622565],[5.257782949731412,51.81212985860458],[5.257948055077917,51.81220284627753],[5.258007427821564,51.81223167441161],[5.258037818706146,51.81225327994795],[5.258123196165775,51.81231629246549],[5.258156477139487,51.8123414964992],[5.258195512421986,51.81238288593088],[5.2582605808009,51.812448572557834],[5.258332856409356,51.812529547304116],[5.258403702660621,51.81260332973215],[5.258452868850702,51.812651920888875],[5.258499132303942,51.812701407682745],[5.258530791944143,51.812786831991346]],[[5.24398402457285,51.811979918514886],[5.243970859418694,51.81201585600245],[5.243924478500738,51.812008608729165],[5.24394054392118,51.81197267478405],[5.24398402457285,51.811979918514886]]]}},{"type":"Feature","properties":{"cho_uri":"https://linkeddata.cultureelerfgoed.nl/cho-kennis/id/rijksmonument/26754","rijksmonumentnummer":"40287","naam":null,"geometry_bron":"Polygon","monumentenregister_url":"https://monumentenregister.cultureelerfgoed.nl/monumenten/40287","oorspronkelijke_functie":"Omwalling","oorspronkelijke_functie_kort":"Omwalling","huidige_functie":null,"type":null,"datum_inschrijving_monumentenregister":"1971-03-30","monument_aard":"onroerend gebouwd"},"geometry":{"type":"Polygon","coordinates":[[[5.246029294885522,51.81039774205135],[5.246029241465291,51.810414819921306],[5.245313500021126,51.8106872044565],[5.245310630957618,51.81067731376588],[5.245341124894191,51.81066386801889],[5.246029294885522,51.81039774205135]]]}},{"type":"Feature","properties":{"cho_uri":"https://linkeddata.cultureelerfgoed.nl/cho-kennis/id/rijksmonument/29577","rijksmonumentnummer":"21974","naam":null,"geometry_bron":"Point","monumentenregister_url":"https://monumentenregister.cultureelerfgoed.nl/monumenten/21974","oorspronkelijke_functie":"Woonhuis(K)","oorspronkelijke_functie_kort":"Woonhuis","huidige_functie":null,"type":null,"datum_inschrijving_monumentenregister":"1971-03-24","monument_aard":"onroerend gebouwd"},"geometry":{"type":"Point","coordinates":[5.135218728669277,51.819087268097256]}},{"type":"Feature","properties":{"cho_uri":"https://linkeddata.cultureelerfgoed.nl/cho-kennis/id/rijksmonument/30869","rijksmonumentnummer":"8365","naam":null,"geometry_bron":"Point","monumentenregister_url":"https://monumentenregister.cultureelerfgoed.nl/monumenten/8365","oorspronkelijke_functie":"Woonhuis(K)","oorspronkelijke_functie_kort":"Woonhuis","huidige_functie":null,"type":null,"datum_inschrijving_monumentenregister":"1965-10-14","monument_aard":"onroerend gebouwd"},"geometry":{"type":"Point","coordinates":[5.889513691081027,51.98505198267212]}},{"type":"Feature","properties":{"cho_uri":"https://linkeddata.cultureelerfgoed.nl/cho-kennis/id/rijksmonument/30968","rijksmonumentnummer":"40241","naam":null,"geometry_bron":"Polygon","monumentenregister_url":"https://monumentenregister.cultureelerfgoed.nl/monumenten/40241","oorspronkelijke_functie":"Woonhuis(K)","oorspronkelijke_functie_kort":"Woonhuis","huidige_functie":null,"type":null,"datum_inschrijving_monumentenregister":"1976-05-19","monument_aard":"onroerend gebouwd"},"geometry":{"type":"Polygon","coordinates":[[[5.246615115037794,51.81133143911584],[5.246681825015747,51.81132972126221],[5.246672889342676,51.81140521300851],[5.246614882638603,51.81140604243554],[5.246615115037794,51.81133143911584]]]}},{"type":"Feature","properties":{"cho_uri":"https://linkeddata.cultureelerfgoed.nl/cho-kennis/id/rijksmonument/33613","rijksmonumentnummer":"40238","naam":null,"geometry_bron":"Polygon","monumentenregister_url":"https://monumentenregister.cultureelerfgoed.nl/monumenten/40238","oorspronkelijke_functie":"Boerderij (M)","oorspronkelijke_functie_kort":"Boerderij","huidige_functie":null,"type":null,"datum_inschrijving_monumentenregister":"1971-03-30","monument_aard":"onroerend gebouwd"},"geometry":{"type":"Polygon","coordinates":[[[5.246010796527183,51.81121206758747],[5.246010807775281,51.81120847224677],[5.246015158049008,51.81120847747577],[5.24601532114118,51.81115634503542],[5.246013871051614,51.81115634329246],[5.24601396103424,51.81112758056661],[5.24618797728898,51.811125991925515],[5.246190610665002,51.81121138474974],[5.246010796527183,51.81121206758747]]]}},{"type":"Feature","properties":{"cho_uri":"https://linkeddata.cultureelerfgoed.nl/cho-kennis/id/rijksmonument/37370","rijksmonumentnummer":"40246","naam":null,"geometry_bron":"Polygon","monumentenregister_url":"https://monumentenregister.cultureelerfgoed.nl/monumenten/40246","oorspronkelijke_functie":"Woonhuis(K)","oorspronkelijke_functie_kort":"Woonhuis","huidige_functie":null,"type":null,"datum_inschrijving_monumentenregister":"1974-09-17","monument_aard":"onroerend gebouwd"},"geometry":{"type":"Polygon","coordinates":[[[5.245728321751112,51.81111824849885],[5.245760223694308,51.81111828691789],[5.245780527747529,51.81111741252666],[5.245783427924132,51.811117416018384],[5.245945840628046,51.811116712604274],[5.245945837814731,51.81111761143947],[5.245950188079681,51.81111761667088],[5.245949901129981,51.811209297859065],[5.245942647860269,51.811210187975114],[5.245942622539813,51.811218277491676],[5.245935372082042,51.8112182687721],[5.245729453447462,51.81121981861965],[5.245728321751112,51.81111824849885]]]}},{"type":"Feature","properties":{"cho_uri":"https://linkeddata.cultureelerfgoed.nl/cho-kennis/id/rijksmonument/38892","rijksmonumentnummer":"18162","naam":null,"geometry_bron":"Polygon","monumentenregister_url":"https://monumentenregister.cultureelerfgoed.nl/monumenten/18162","oorspronkelijke_functie":"Begraafplaats en -onderdelen","oorspronkelijke_functie_kort":"Begraafplaats en -onderdelen","huidige_functie":null,"type":null,"datum_inschrijving_monumentenregister":"1975-04-15","monument_aard":"onroerend gebouwd"},"geometry":{"type":"Polygon","coordinates":[[[6.616929312594271,52.04456233290722],[6.616884825245348,52.04458796675895],[6.616540386228061,52.04478572609678],[6.616244730440568,52.04495510927135],[6.616200242309104,52.04498074286542],[6.616174033998996,52.04498191535908],[6.61608812387879,52.04493247384118],[6.615919292978555,52.04483625611607],[6.615882192372856,52.044812373070855],[6.615695627176873,52.04470735113159],[6.615609718111474,52.04465790925925],[6.615329712304283,52.04449453441254],[6.615325266218673,52.04449188409898],[6.615530052711256,52.04419850448021],[6.61558301099074,52.04421592988223],[6.615390478117419,52.04447772031312],[6.616132587354558,52.04490594164835],[6.616755416067246,52.044547070163034],[6.616786959893058,52.04452786383905],[6.616834312610485,52.04450040229848],[6.616866942595348,52.044520736148215],[6.616929312594271,52.04456233290722]]]}},{"type":"Feature","properties":{"cho_uri":"https://linkeddata.cultureelerfgoed.nl/cho-kennis/id/rijksmonument/38995","rijksmonumentnummer":"40292","naam":null,"geometry_bron":"Polygon","monumentenregister_url":"https://monumentenregister.cultureelerfgoed.nl/monumenten/40292","oorspronkelijke_functie":"Omwalling","oorspronkelijke_functie_kort":"Omwalling","huidige_functie":null,"type":null,"datum_inschrijving_monumentenregister":"1971-03-30","monument_aard":"onroerend gebouwd"},"geometry":{"type":"Polygon","coordinates":[[[5.252185660442072,51.81109438880578],[5.252179814377405,51.81110966234018],[5.252124737920568,51.81110061063589],[5.251940654855626,51.81107433249817],[5.251818909542215,51.81105351896369],[5.251663828562123,51.811027273812854],[5.251620350292809,51.8110191340918],[5.251629094005133,51.81100476276773],[5.25176968212089,51.811028294740844],[5.251891427343411,51.8110491083264],[5.252050869559488,51.81107176284014],[5.252146526897132,51.81108805195051],[5.252185660442072,51.81109438880578]]]}},{"type":"Feature","properties":{"cho_uri":"https://linkeddata.cultureelerfgoed.nl/cho-kennis/id/rijksmonument/40112","rijksmonumentnummer":"40282","naam":null,"geometry_bron":"Polygon","monumentenregister_url":"https://monumentenregister.cultureelerfgoed.nl/monumenten/40282","oorspronkelijke_functie":"Begraafplaats en -onderdelen","oorspronkelijke_functie_kort":"Begraafplaats en -onderdelen","huidige_functie":null,"type":null,"datum_inschrijving_monumentenregister":"1971-03-30","monument_aard":"onroerend gebouwd"},"geometry":{"type":"Polygon","coordinates":[[[5.246029294885522,51.81039774205135],[5.246062688548185,51.810384299601736],[5.246165733028348,51.8103556605366],[5.246307929076032,51.81032706834956],[5.246288300879368,51.81057602310493],[5.246135961959482,51.81060190657139],[5.246008307842724,51.81061703345155],[5.246029294885522,51.81039774205135]]]}},{"type":"Feature","properties":{"cho_uri":"https://linkeddata.cultureelerfgoed.nl/cho-kennis/id/rijksmonument/40213","rijksmonumentnummer":"40286","naam":null,"geometry_bron":"Polygon","monumentenregister_url":"https://monumentenregister.cultureelerfgoed.nl/monumenten/40286","oorspronkelijke_functie":"Omwalling","oorspronkelijke_functie_kort":"Omwalling","huidige_functie":null,"type":null,"datum_inschrijving_monumentenregister":"1971-03-30","monument_aard":"onroerend gebouwd"},"geometry":{"type":"Polygon","coordinates":[[[5.245111336902746,51.81087841270166],[5.245127406632811,51.810840680918325],[5.245158104422181,51.810762519085436],[5.245184259546474,51.81074547277782],[5.245211864726744,51.81072842821726],[5.245232205372533,51.810715869063195],[5.245238019810926,51.810711381897626],[5.245243831420884,51.81070779356693],[5.2452510931049,51.81070420698838],[5.245256901885879,51.81070151749227],[5.245262716319961,51.810697030325436],[5.245269972347234,51.81069524141615],[5.245301919208435,51.81068089859634],[5.245310630957618,51.81067731376588],[5.245313500021126,51.8106872044565],[5.245284453308937,51.810701550783435],[5.2452496006225,51.81071768776405],[5.245248150547083,51.81071768601159],[5.245237983054809,51.81072306675526],[5.245195843187512,51.81075087981435],[5.245169690893218,51.810767027289316],[5.245160919707856,51.81078948764835],[5.245150681460447,51.81081733926418],[5.24514044037102,51.81084608971417],[5.245130224734512,51.81086675064658],[5.245115605078911,51.81090448418425],[5.245093703852468,51.810952096135274],[5.245074711240692,51.81099701508566],[5.245048422862641,51.81105630662094],[5.245035377748879,51.811054493155645],[5.245054373255194,51.81100867537682],[5.245082117341486,51.81094758792397],[5.24511132841295,51.8108811092072],[5.245111336902746,51.81087841270166]]]}},{"type":"Feature","properties":{"cho_uri":"https://linkeddata.cultureelerfgoed.nl/cho-kennis/id/rijksmonument/42155","rijksmonumentnummer":"34564","naam":null,"geometry_bron":"Polygon","monumentenregister_url":"https://monumentenregister.cultureelerfgoed.nl/monumenten/34564","oorspronkelijke_functie":"Boerderij (M)","oorspronkelijke_functie_kort":"Boerderij","huidige_functie":null,"type":null,"datum_inschrijving_monumentenregister":"1966-10-05","monument_aard":"onroerend gebouwd"},"geometry":{"type":"Polygon","coordinates":[[[6.179387248221249,52.07679579057948],[6.179190848761788,52.076825874266895],[6.179174056248944,52.07678374162298],[6.179236600235237,52.07677343381091],[6.179219807699283,52.07673130117322],[6.179352188379519,52.076710636420145],[6.179387248221249,52.07679579057948]]]}},{"type":"Feature","properties":{"cho_uri":"https://linkeddata.cultureelerfgoed.nl/cho-kennis/id/rijksmonument/44436","rijksmonumentnummer":"40293","naam":null,"geometry_bron":"Point","monumentenregister_url":"https://monumentenregister.cultureelerfgoed.nl/monumenten/40293","oorspronkelijke_functie":"Omwalling","oorspronkelijke_functie_kort":"Omwalling","huidige_functie":null,"type":null,"datum_inschrijving_monumentenregister":"1971-03-30","monument_aard":"onroerend gebouwd"},"geometry":{"type":"Point","coordinates":[5.251097407902926,51.810919583644306]}},{"type":"Feature","properties":{"cho_uri":"https://linkeddata.cultureelerfgoed.nl/cho-kennis/id/rijksmonument/45380","rijksmonumentnummer":"40180","naam":null,"geometry_bron":"Polygon","monumentenregister_url":"https://monumentenregister.cultureelerfgoed.nl/monumenten/40180","oorspronkelijke_functie":"Woonhuis(K)","oorspronkelijke_functie_kort":"Woonhuis","huidige_functie":null,"type":null,"datum_inschrijving_monumentenregister":"1971-03-30","monument_aard":"onroerend gebouwd"},"geometry":{"type":"Polygon","coordinates":[[[5.245852277694431,51.81135838762264],[5.245853764387672,51.811346704510605],[5.245856810964542,51.81129996857226],[5.245858283579302,51.81129277963589],[5.245923534993261,51.81129375697395],[5.245956884341759,51.81129469591879],[5.24595833724885,51.81129379882731],[5.245967037812758,51.81129380928904],[5.245967009683712,51.811302797640685],[5.245962659400889,51.81130279240992],[5.245958145959271,51.81135491961828],[5.245963946343075,51.81135492659286],[5.24596391821336,51.81136391494444],[5.245950864533971,51.81136479808642],[5.245952323069848,51.8113621033247],[5.24591752357543,51.81136116263436],[5.245852277694431,51.81135838762264]]]}},{"type":"Feature","properties":{"cho_uri":"https://linkeddata.cultureelerfgoed.nl/cho-kennis/id/rijksmonument/46593","rijksmonumentnummer":"21968","naam":null,"geometry_bron":"Polygon","monumentenregister_url":"https://monumentenregister.cultureelerfgoed.nl/monumenten/21968","oorspronkelijke_functie":"Woonhuis(K)","oorspronkelijke_functie_kort":"Woonhuis","huidige_functie":null,"type":null,"datum_inschrijving_monumentenregister":"1973-10-30","monument_aard":"onroerend gebouwd"},"geometry":{"type":"Polygon","coordinates":[[[5.134602177387514,51.819058197754316],[5.134475011239777,51.81897523080288],[5.134604523870858,51.81889820922763],[5.134731690040178,51.81898117603949],[5.134602177387514,51.819058197754316]]]}},{"type":"Feature","properties":{"cho_uri":"https://linkeddata.cultureelerfgoed.nl/cho-kennis/id/rijksmonument/51003","rijksmonumentnummer":"40290","naam":null,"geometry_bron":"Polygon","monumentenregister_url":"https://monumentenregister.cultureelerfgoed.nl/monumenten/40290","oorspronkelijke_functie":"Omwalling","oorspronkelijke_functie_kort":"Omwalling","huidige_functie":null,"type":null,"datum_inschrijving_monumentenregister":"1971-03-30","monument_aard":"onroerend gebouwd"},"geometry":{"type":"Polygon","coordinates":[[[5.250265294988429,51.81076229211796],[5.250252206110663,51.810774860598215],[5.25020148068237,51.81076581306277],[5.250194235753463,51.810764006935706],[5.250192774761897,51.81076760058576],[5.250188386328413,51.81078017920661],[5.250020267476644,51.8107503213185],[5.250030456259318,51.81073774947743],[5.25003190360381,51.81073865000612],[5.250182629678632,51.810765791075305],[5.250188476375185,51.81075051763999],[5.250205869110799,51.81075323444142],[5.250263844911327,51.81076229042752],[5.250265294988429,51.81076229211796]]]}},{"type":"Feature","properties":{"cho_uri":"https://linkeddata.cultureelerfgoed.nl/cho-kennis/id/rijksmonument/51097","rijksmonumentnummer":"21967","naam":null,"geometry_bron":"Polygon","monumentenregister_url":"https://monumentenregister.cultureelerfgoed.nl/monumenten/21967","oorspronkelijke_functie":"Kerk","oorspronkelijke_functie_kort":"Kerk","huidige_functie":null,"type":null,"datum_inschrijving_monumentenregister":"1974-05-28","monument_aard":"onroerend gebouwd"},"geometry":{"type":"Polygon","coordinates":[[[5.1342167680395,51.818731088945924],[5.134330920390292,51.818806837432476],[5.134106843508188,51.818935787646936],[5.133979688712198,51.81885102249937],[5.134077183652541,51.81879370693726],[5.134202320253248,51.81872117057187],[5.1342167680395,51.818731088945924]]]}},{"type":"Feature","properties":{"cho_uri":"https://linkeddata.cultureelerfgoed.nl/cho-kennis/id/rijksmonument/53279","rijksmonumentnummer":"18168","naam":null,"geometry_bron":"Polygon","monumentenregister_url":"https://monumentenregister.cultureelerfgoed.nl/monumenten/18168","oorspronkelijke_functie":"Woonhuis(K)","oorspronkelijke_functie_kort":"Woonhuis","huidige_functie":null,"type":null,"datum_inschrijving_monumentenregister":"1966-05-11","monument_aard":"onroerend gebouwd"},"geometry":{"type":"Polygon","coordinates":[[[6.616258652516587,52.04360391934838],[6.616161260619533,52.043507855031265],[6.616276638773635,52.04346260447421],[6.616363385255834,52.04354259967004],[6.616397866497915,52.0435772966964],[6.616465248406987,52.043642212729985],[6.616429184963087,52.04365607277348],[6.61630948377905,52.04370316640827],[6.6162285911279,52.043624008958886],[6.616222589038948,52.04361777932878],[6.616258652516587,52.04360391934838]]]}},{"type":"Feature","properties":{"cho_uri":"https://linkeddata.cultureelerfgoed.nl/cho-kennis/id/rijksmonument/54853","rijksmonumentnummer":"34546","naam":null,"geometry_bron":"Polygon","monumentenregister_url":"https://monumentenregister.cultureelerfgoed.nl/monumenten/34546","oorspronkelijke_functie":"Boerderij (M)","oorspronkelijke_functie_kort":"Boerderij","huidige_functie":null,"type":null,"datum_inschrijving_monumentenregister":"1966-10-05","monument_aard":"onroerend gebouwd"},"geometry":{"type":"Polygon","coordinates":[[[6.181297864054561,52.07636496343885],[6.18115530723114,52.0763874966672],[6.181115709095396,52.076293385185636],[6.181109587633537,52.07627724729301],[6.181176506158393,52.076266908958814],[6.181179582856772,52.076275876637744],[6.181255220841894,52.07626368179718],[6.181297864054561,52.07636496343885]]]}},{"type":"Feature","properties":{"cho_uri":"https://linkeddata.cultureelerfgoed.nl/cho-kennis/id/rijksmonument/55467","rijksmonumentnummer":"34542","naam":null,"geometry_bron":"Polygon","monumentenregister_url":"https://monumentenregister.cultureelerfgoed.nl/monumenten/34542","oorspronkelijke_functie":"Boerderij (M)","oorspronkelijke_functie_kort":"Boerderij","huidige_functie":null,"type":null,"datum_inschrijving_monumentenregister":"1966-10-15","monument_aard":"onroerend gebouwd"},"geometry":{"type":"Polygon","coordinates":[[[6.179749213558868,52.076971326208486],[6.179510259680962,52.076987315288704],[6.179476301436953,52.076799685810755],[6.179709435920004,52.07678463479138],[6.179720824644167,52.07685107244567],[6.179726627130188,52.07684923572017],[6.179749213558868,52.076971326208486]]]}},{"type":"Feature","properties":{"cho_uri":"https://linkeddata.cultureelerfgoed.nl/cho-kennis/id/rijksmonument/69355","rijksmonumentnummer":"522935","naam":"Israelitische Begraafplaats aanleg","geometry_bron":"Point","monumentenregister_url":"https://monumentenregister.cultureelerfgoed.nl/monumenten/522935","oorspronkelijke_functie":"Begraafplaats","oorspronkelijke_functie_kort":"Begraafplaats","huidige_functie":"Begraafplaats","type":null,"datum_inschrijving_monumentenregister":"2002-04-15","monument_aard":"onroerend gebouwd"},"geometry":{"type":"Point","coordinates":[5.882947382748467,51.83084774286834]}},{"type":"Feature","properties":{"cho_uri":"https://linkeddata.cultureelerfgoed.nl/cho-kennis/id/rijksmonument/68432","rijksmonumentnummer":"515459","naam":null,"geometry_bron":"Point","monumentenregister_url":"https://monumentenregister.cultureelerfgoed.nl/monumenten/515459","oorspronkelijke_functie":"Tuinmuur","oorspronkelijke_functie_kort":"Tuinmuur","huidige_functie":"Woonhuis","type":"Villa","datum_inschrijving_monumentenregister":"2000-03-27","monument_aard":"onroerend gebouwd"},"geometry":{"type":"Point","coordinates":[6.36435779269686,51.920348835700004]}},{"type":"Feature","properties":{"cho_uri":"https://linkeddata.cultureelerfgoed.nl/cho-kennis/id/rijksmonument/68389","rijksmonumentnummer":"516729","naam":null,"geometry_bron":"Point","monumentenregister_url":"https://monumentenregister.cultureelerfgoed.nl/monumenten/516729","oorspronkelijke_functie":"Muur(D)","oorspronkelijke_functie_kort":"Muur","huidige_functie":"Muur(D)","type":null,"datum_inschrijving_monumentenregister":"2000-09-11","monument_aard":"onroerend gebouwd"},"geometry":{"type":"Point","coordinates":[5.920289486436837,52.0023179063796]}},{"type":"Feature","properties":{"cho_uri":"https://linkeddata.cultureelerfgoed.nl/cho-kennis/id/rijksmonument/68390","rijksmonumentnummer":"516728","naam":null,"geometry_bron":"Point","monumentenregister_url":"https://monumentenregister.cultureelerfgoed.nl/monumenten/516728","oorspronkelijke_functie":"Begraafplaatsaula","oorspronkelijke_functie_kort":"Begraafplaatsaula","huidige_functie":"Begraafplaatsaula","type":null,"datum_inschrijving_monumentenregister":"2000-09-11","monument_aard":"onroerend gebouwd"},"geometry":{"type":"Point","coordinates":[5.920289486436837,52.0023179063796]}},{"type":"Feature","properties":{"cho_uri":"https://linkeddata.cultureelerfgoed.nl/cho-kennis/id/rijksmonument/68391","rijksmonumentnummer":"516727","naam":null,"geometry_bron":"Point","monumentenregister_url":"https://monumentenregister.cultureelerfgoed.nl/monumenten/516727","oorspronkelijke_functie":"Begraafplaats","oorspronkelijke_functie_kort":"Begraafplaats","huidige_functie":"Begraafplaats","type":null,"datum_inschrijving_monumentenregister":"2000-09-11","monument_aard":"onroerend gebouwd"},"geometry":{"type":"Point","coordinates":[5.920633984706796,52.00311705909708]}},{"type":"Feature","properties":{"cho_uri":"https://linkeddata.cultureelerfgoed.nl/cho-kennis/id/rijksmonument/68429","rijksmonumentnummer":"515462","naam":null,"geometry_bron":"Polygon","monumentenregister_url":"https://monumentenregister.cultureelerfgoed.nl/monumenten/515462","oorspronkelijke_functie":"Begraafplaats","oorspronkelijke_functie_kort":"Begraafplaats","huidige_functie":"Tuin","type":null,"datum_inschrijving_monumentenregister":"2000-03-27","monument_aard":"onroerend gebouwd"},"geometry":{"type":"Polygon","coordinates":[[[6.364938841984146,51.92071934161952],[6.364224717226366,51.92097067645117],[6.364041495219037,51.92103512151221],[6.363943397483402,51.92093616118278],[6.363851211711679,51.920841646039534],[6.36381894252558,51.92082843103474],[6.363554897764573,51.920719164108384],[6.363532744348785,51.92070316832504],[6.363509664838588,51.920711450028],[6.363476430656452,51.92072071498097],[6.363457633375504,51.92072536556829],[6.363448932166687,51.9207263367442],[6.363430115350782,51.92073008860804],[6.363400968101092,51.92072673524546],[6.363320617911315,51.9207085262704],[6.363282593734144,51.920698055572515],[6.36325617769107,51.920686589554116],[6.363222338182412,51.92066799414363],[6.363122136612832,51.92060590474721],[6.363191609469885,51.920591844481876],[6.363174000959498,51.920517383595914],[6.363149203366785,51.92044657794503],[6.363125362501315,51.92041980952622],[6.3630572154933,51.9203610493575],[6.363128599184151,51.92030113030983],[6.363302755846078,51.920154064881224],[6.363344046331572,51.92011417107887],[6.363379542530425,51.920075224282044],[6.363404747455434,51.920030969688526],[6.363424372950955,51.9199975480221],[6.363432370962461,51.919964222959514],[6.363443041469443,51.919920089114775],[6.363492756049085,51.91973270871158],[6.364938841984146,51.92071934161952]]]}},{"type":"Feature","properties":{"cho_uri":"https://linkeddata.cultureelerfgoed.nl/cho-kennis/id/rijksmonument/68430","rijksmonumentnummer":"515461","naam":null,"geometry_bron":"Polygon","monumentenregister_url":"https://monumentenregister.cultureelerfgoed.nl/monumenten/515461","oorspronkelijke_functie":"Paardestal(M)","oorspronkelijke_functie_kort":"Paardestal","huidige_functie":"Paardestal(M)","type":null,"datum_inschrijving_monumentenregister":"2000-03-27","monument_aard":"onroerend gebouwd"},"geometry":{"type":"Polygon","coordinates":[[[6.364824603753627,51.9203463574666],[6.36487196108799,51.92031809810328],[6.364970750097002,51.92038199553808],[6.364921919752797,51.92040936831651],[6.364824603753627,51.9203463574666]]]}},{"type":"Feature","properties":{"cho_uri":"https://linkeddata.cultureelerfgoed.nl/cho-kennis/id/rijksmonument/68431","rijksmonumentnummer":"515460","naam":null,"geometry_bron":"Polygon","monumentenregister_url":"https://monumentenregister.cultureelerfgoed.nl/monumenten/515460","oorspronkelijke_functie":"Priëel","oorspronkelijke_functie_kort":"Priëel","huidige_functie":"Priëel","type":null,"datum_inschrijving_monumentenregister":"2000-03-27","monument_aard":"onroerend gebouwd"},"geometry":{"type":"Polygon","coordinates":[[[6.364590716692182,51.92015324595826],[6.364634534907612,51.92016276915253],[6.364646651254063,51.920185140397386],[6.364619505197654,51.92020693937285],[6.364569990499516,51.920202856846096],[6.364556401195928,51.92017959896418],[6.364590716692182,51.92015324595826]]]}},{"type":"Feature","properties":{"cho_uri":"https://linkeddata.cultureelerfgoed.nl/cho-kennis/id/rijksmonument/69354","rijksmonumentnummer":"522936","naam":null,"geometry_bron":"Point","monumentenregister_url":"https://monumentenregister.cultureelerfgoed.nl/monumenten/522936","oorspronkelijke_functie":"Muur(D)","oorspronkelijke_functie_kort":"Muur","huidige_functie":"Muur(D)","type":null,"datum_inschrijving_monumentenregister":"2002-04-15","monument_aard":"onroerend gebouwd"},"geometry":{"type":"Point","coordinates":[5.882947382748467,51.83084774286834]}},{"type":"Feature","properties":{"cho_uri":"https://linkeddata.cultureelerfgoed.nl/cho-kennis/id/rijksmonument/57480","rijksmonumentnummer":"38211","naam":null,"geometry_bron":"Point","monumentenregister_url":"https://monumentenregister.cultureelerfgoed.nl/monumenten/38211","oorspronkelijke_functie":"Begraafplaats en -onderdelen","oorspronkelijke_functie_kort":"Begraafplaats en -onderdelen","huidige_functie":null,"type":null,"datum_inschrijving_monumentenregister":"1970-02-11","monument_aard":"onroerend gebouwd"},"geometry":{"type":"Point","coordinates":[5.669891182832845,51.96707153058839]}},{"type":"Feature","properties":{"cho_uri":"https://linkeddata.cultureelerfgoed.nl/cho-kennis/id/rijksmonument/59173","rijksmonumentnummer":"40239","naam":null,"geometry_bron":"Polygon","monumentenregister_url":"https://monumentenregister.cultureelerfgoed.nl/monumenten/40239","oorspronkelijke_functie":"Woonhuis(K)","oorspronkelijke_functie_kort":"Woonhuis","huidige_functie":null,"type":null,"datum_inschrijving_monumentenregister":"1976-05-19","monument_aard":"onroerend gebouwd"},"geometry":{"type":"Polygon","coordinates":[[[5.246729448744774,51.81140348298349],[5.246741273323154,51.811331590041604],[5.246841332690467,51.81133081080968],[5.246841327099518,51.81133260848008],[5.246842777194797,51.811332610212816],[5.246839667341125,51.81140001938612],[5.24683821724368,51.81140001765334],[5.246838214448139,51.81140091648852],[5.246729448744774,51.81140348298349]]]}},{"type":"Feature","properties":{"cho_uri":"https://linkeddata.cultureelerfgoed.nl/cho-kennis/id/rijksmonument/62101","rijksmonumentnummer":"523129","naam":null,"geometry_bron":"Polygon","monumentenregister_url":"https://monumentenregister.cultureelerfgoed.nl/monumenten/523129","oorspronkelijke_functie":"Brandspuithuisje","oorspronkelijke_functie_kort":"Brandspuithuisje","huidige_functie":null,"type":null,"datum_inschrijving_monumentenregister":"2002-05-10","monument_aard":"onroerend gebouwd"},"geometry":{"type":"Polygon","coordinates":[[[5.135301585138016,51.81925744517426],[5.135313248122628,51.81924668411173],[5.135346751563672,51.81922068961265],[5.135356883874179,51.81922430670667],[5.13536271033685,51.8192198250023],[5.135382959904555,51.81922975567518],[5.135377128423458,51.81923513621011],[5.135382909714157,51.81923874397013],[5.135381454353256,51.81923963968912],[5.135350851603492,51.81926564041982],[5.135334827553812,51.8192781898119],[5.135301585138016,51.81925744517426]]]}},{"type":"Feature","properties":{"cho_uri":"https://linkeddata.cultureelerfgoed.nl/cho-kennis/id/rijksmonument/69113","rijksmonumentnummer":"520653","naam":null,"geometry_bron":"Polygon","monumentenregister_url":"https://monumentenregister.cultureelerfgoed.nl/monumenten/520653","oorspronkelijke_functie":"Toegangshek","oorspronkelijke_functie_kort":"Toegangshek","huidige_functie":null,"type":null,"datum_inschrijving_monumentenregister":"2001-09-17","monument_aard":"onroerend gebouwd"},"geometry":{"type":"Polygon","coordinates":[[[5.432298920979968,51.89079168370751],[5.43229020863902,51.890795282378285],[5.432285845233781,51.89078989108743],[5.432261123809448,51.89076383457729],[5.432268385295774,51.89076203412448],[5.432269837954552,51.89076203356517],[5.432298920979968,51.89079168370751]]]}},{"type":"Feature","properties":{"cho_uri":"https://linkeddata.cultureelerfgoed.nl/cho-kennis/id/rijksmonument/69114","rijksmonumentnummer":"520652","naam":null,"geometry_bron":"Polygon","monumentenregister_url":"https://monumentenregister.cultureelerfgoed.nl/monumenten/520652","oorspronkelijke_functie":"Baarhuisje","oorspronkelijke_functie_kort":"Baarhuisje","huidige_functie":null,"type":null,"datum_inschrijving_monumentenregister":"2001-09-17","monument_aard":"onroerend gebouwd"},"geometry":{"type":"Polygon","coordinates":[[[5.431654237866762,51.89109213906831],[5.431574386440396,51.89113800962452],[5.43152932340965,51.891107466528815],[5.43160917571853,51.891062494831246],[5.431654237866762,51.89109213906831]]]}},{"type":"Feature","properties":{"cho_uri":"https://linkeddata.cultureelerfgoed.nl/cho-kennis/id/rijksmonument/69115","rijksmonumentnummer":"520651","naam":null,"geometry_bron":"Polygon","monumentenregister_url":"https://monumentenregister.cultureelerfgoed.nl/monumenten/520651","oorspronkelijke_functie":"Begraafplaats","oorspronkelijke_functie_kort":"Begraafplaats","huidige_functie":null,"type":null,"datum_inschrijving_monumentenregister":"2001-09-17","monument_aard":"onroerend gebouwd"},"geometry":{"type":"Polygon","coordinates":[[[5.431854879116004,51.891265536605964],[5.43184616664773,51.891269135243654],[5.431812772120835,51.89128622571862],[5.431669020554099,51.89135009724612],[5.431663213410371,51.89135369476633],[5.431661759840648,51.89135279648996],[5.431446605536522,51.89119288653991],[5.431114116136257,51.89136918215134],[5.431090885607496,51.89138177446434],[5.431022558718352,51.89132966801198],[5.430917889669595,51.89125150907216],[5.430935313869217,51.891243413105656],[5.431061634069866,51.89117954900895],[5.431270711914166,51.8910707122165],[5.431275073456808,51.89107430588839],[5.431389914072688,51.89115515715775],[5.431520595833034,51.89109578506257],[5.431606269490835,51.89106159710529],[5.431527869850562,51.89110656825075],[5.431527870739701,51.89110746707896],[5.431527871628842,51.89110836590718],[5.431572934659502,51.891138909003466],[5.431574387330466,51.89113890845277],[5.431575840001431,51.89113890790205],[5.431654239650092,51.89109393672475],[5.431655693211295,51.89109483500127],[5.431658600333876,51.89109663155419],[5.431854879116004,51.891265536605964]]]}},{"type":"Feature","properties":{"cho_uri":"https://linkeddata.cultureelerfgoed.nl/cho-kennis/id/rijksmonument/70928","rijksmonumentnummer":"430531","naam":null,"geometry_bron":"Polygon","monumentenregister_url":"https://monumentenregister.cultureelerfgoed.nl/monumenten/430531","oorspronkelijke_functie":"Fort, vesting en -onderdelen","oorspronkelijke_functie_kort":"Fort, vesting en -onderdelen","huidige_functie":null,"type":null,"datum_inschrijving_monumentenregister":"1992-07-14","monument_aard":"onroerend gebouwd"},"geometry":{"type":"Polygon","coordinates":[[[5.837557739627609,52.448981656790416],[5.837263818730677,52.448719438786405],[5.837587516215081,52.44858339548832],[5.837523590268162,52.44851713068774],[5.83734542665066,52.44835513327165],[5.837821223854979,52.448133129624324],[5.838109348445157,52.44797115629596],[5.838169993646601,52.44800417936597],[5.838217391821128,52.44803635408383],[5.838242580149071,52.44805423327438],[5.838275132087259,52.44807298317673],[5.838297369522141,52.44808997483693],[5.838319533638689,52.4480997767373],[5.838347617979076,52.44811315110589],[5.838360901793034,52.448117594289826],[5.838380114996128,52.44812650866243],[5.838394888040989,52.448132743679565],[5.838424507495757,52.44815240346383],[5.838501443002052,52.448196149368414],[5.838579913756533,52.44824618065399],[5.838667265085707,52.44830157057127],[5.83874416438892,52.44834172143891],[5.838818140395962,52.44838368090931],[5.838875881612721,52.4484203097057],[5.83893365964308,52.44846053335087],[5.839022528644345,52.4485204109906],[5.839045005317537,52.44856076920987],[5.839123301289557,52.4487375251565],[5.839044450779086,52.44879444743876],[5.83887185645767,52.44889037353992],[5.83866089833178,52.44897476178274],[5.838459988232396,52.449034845010345],[5.838153464675556,52.449124090090265],[5.837959852856447,52.44917875215872],[5.837921709644778,52.44918878357671],[5.837896740605994,52.449192473585676],[5.837796937661923,52.44921442332322],[5.837557739627609,52.448981656790416]]]}},{"type":"Feature","properties":{"cho_uri":"https://linkeddata.cultureelerfgoed.nl/cho-kennis/id/rijksmonument/74419","rijksmonumentnummer":"523407","naam":"'Metaheir'","geometry_bron":"Point","monumentenregister_url":"https://monumentenregister.cultureelerfgoed.nl/monumenten/523407","oorspronkelijke_functie":"Poortgebouw","oorspronkelijke_functie_kort":"Poortgebouw","huidige_functie":"Poortgebouw","type":null,"datum_inschrijving_monumentenregister":"2002-04-15","monument_aard":"onroerend gebouwd"},"geometry":{"type":"Point","coordinates":[6.205008324699599,52.12964057775426]}},{"type":"Feature","properties":{"cho_uri":"https://linkeddata.cultureelerfgoed.nl/cho-kennis/id/rijksmonument/74420","rijksmonumentnummer":"523406","naam":null,"geometry_bron":"Point","monumentenregister_url":"https://monumentenregister.cultureelerfgoed.nl/monumenten/523406","oorspronkelijke_functie":"Begraafplaats","oorspronkelijke_functie_kort":"Begraafplaats","huidige_functie":"Begraafplaats","type":null,"datum_inschrijving_monumentenregister":"2002-04-15","monument_aard":"onroerend gebouwd"},"geometry":{"type":"Point","coordinates":[6.205008324699599,52.12964057775426]}},{"type":"Feature","properties":{"cho_uri":"https://linkeddata.cultureelerfgoed.nl/cho-kennis/id/rijksmonument/75649","rijksmonumentnummer":"527738","naam":null,"geometry_bron":"Point","monumentenregister_url":"https://monumentenregister.cultureelerfgoed.nl/monumenten/527738","oorspronkelijke_functie":"Begraafplaats en -onderdelen","oorspronkelijke_functie_kort":"Begraafplaats en -onderdelen","huidige_functie":null,"type":"Begraafplaats en -onderdelen","datum_inschrijving_monumentenregister":"2003-10-27","monument_aard":"onroerend gebouwd"},"geometry":{"type":"Point","coordinates":[5.251056129385114,51.81018248819976]}},{"type":"Feature","properties":{"cho_uri":"https://linkeddata.cultureelerfgoed.nl/cho-kennis/id/rijksmonument/75650","rijksmonumentnummer":"526472","naam":null,"geometry_bron":"Polygon","monumentenregister_url":"https://monumentenregister.cultureelerfgoed.nl/monumenten/526472","oorspronkelijke_functie":"Baarhuisje","oorspronkelijke_functie_kort":"Baarhuisje","huidige_functie":null,"type":"Begraafplaats en -onderdelen","datum_inschrijving_monumentenregister":"2003-10-27","monument_aard":"onroerend gebouwd"},"geometry":{"type":"Polygon","coordinates":[[[5.250909003743912,51.81032440754967],[5.250950995876421,51.81034423071322],[5.250933554405186,51.8103576930597],[5.250935001755535,51.8103585935773],[5.250887035620101,51.810396289143775],[5.250876901452194,51.810390884351605],[5.250878356947186,51.810389088363635],[5.250850841010689,51.81037737152579],[5.250850838295237,51.81037827036118],[5.2508421514847,51.81037376608461],[5.250847968036281,51.8103683798052],[5.250849415385259,51.81036928032385],[5.25088284559808,51.81034325280597],[5.250879948185643,51.81034235060491],[5.250888667570246,51.81033606885369],[5.250891562267817,51.81033786988994],[5.250909003743912,51.81032440754967]]]}},{"type":"Feature","properties":{"cho_uri":"https://linkeddata.cultureelerfgoed.nl/cho-kennis/id/rijksmonument/72265","rijksmonumentnummer":"523460","naam":null,"geometry_bron":"Polygon","monumentenregister_url":"https://monumentenregister.cultureelerfgoed.nl/monumenten/523460","oorspronkelijke_functie":"Begraafplaatshek","oorspronkelijke_functie_kort":"Begraafplaatshek","huidige_functie":null,"type":null,"datum_inschrijving_monumentenregister":"2002-05-10","monument_aard":"onroerend gebouwd"},"geometry":{"type":"Polygon","coordinates":[[[6.716999908772578,51.9683230660077],[6.717093765155883,51.9683471743901],[6.717183283722437,51.96837223068636],[6.717271480750037,51.968401796482745],[6.717296532985277,51.96841230018601],[6.71732745793801,51.96842453529943],[6.717379043971969,51.96844642484079],[6.71753134568227,51.968527402827114],[6.717668859479381,51.96860045762974],[6.717586662858621,51.968675099399825],[6.717148185262655,51.96851375870452],[6.71716867607095,51.96846858075356],[6.716944458272023,51.968416282244206],[6.716955591009163,51.96839907679509],[6.716999908772578,51.9683230660077]]]}},{"type":"Feature","properties":{"cho_uri":"https://linkeddata.cultureelerfgoed.nl/cho-kennis/id/rijksmonument/72266","rijksmonumentnummer":"523459","naam":null,"geometry_bron":"Polygon","monumentenregister_url":"https://monumentenregister.cultureelerfgoed.nl/monumenten/523459","oorspronkelijke_functie":"Schoolgebouw","oorspronkelijke_functie_kort":"Schoolgebouw","huidige_functie":null,"type":null,"datum_inschrijving_monumentenregister":"2002-05-10","monument_aard":"onroerend gebouwd"},"geometry":{"type":"Polygon","coordinates":[[[6.717724374782247,51.96880388517533],[6.717659267958622,51.96876776598659],[6.717700606193556,51.96873853268397],[6.717781854292926,51.96868098112057],[6.717737435492268,51.96865541495721],[6.717849870815371,51.96871706731432],[6.717724374782247,51.96880388517533]]]}},{"type":"Feature","properties":{"cho_uri":"https://linkeddata.cultureelerfgoed.nl/cho-kennis/id/rijksmonument/72267","rijksmonumentnummer":"523458","naam":null,"geometry_bron":"Polygon","monumentenregister_url":"https://monumentenregister.cultureelerfgoed.nl/monumenten/523458","oorspronkelijke_functie":"Onderwijzerswoning","oorspronkelijke_functie_kort":"Onderwijzerswoning","huidige_functie":null,"type":null,"datum_inschrijving_monumentenregister":"2002-05-10","monument_aard":"onroerend gebouwd"},"geometry":{"type":"Polygon","coordinates":[[[6.717700606193556,51.96873853268397],[6.717659177061966,51.968715629434044],[6.717619240385029,51.9687430490167],[6.71758373734416,51.96872367438505],[6.71768923849407,51.9686496678522],[6.717721751840291,51.96866637951003],[6.717737435492268,51.96865541495721],[6.717781854292926,51.96868098112057],[6.717700606193556,51.96873853268397]]]}},{"type":"Feature","properties":{"cho_uri":"https://linkeddata.cultureelerfgoed.nl/cho-kennis/id/rijksmonument/72268","rijksmonumentnummer":"39057","naam":null,"geometry_bron":"Point","monumentenregister_url":"https://monumentenregister.cultureelerfgoed.nl/monumenten/39057","oorspronkelijke_functie":"Synagoge","oorspronkelijke_functie_kort":"Synagoge","huidige_functie":null,"type":null,"datum_inschrijving_monumentenregister":"1974-09-17","monument_aard":"onroerend gebouwd"},"geometry":{"type":"Point","coordinates":[6.71783365420814,51.96886190810444]}},{"type":"Feature","properties":{"cho_uri":"https://linkeddata.cultureelerfgoed.nl/cho-kennis/id/rijksmonument/80172","rijksmonumentnummer":"523432","naam":null,"geometry_bron":"Polygon","monumentenregister_url":"https://monumentenregister.cultureelerfgoed.nl/monumenten/523432","oorspronkelijke_functie":"Baarhuisje","oorspronkelijke_functie_kort":"Baarhuisje","huidige_functie":null,"type":null,"datum_inschrijving_monumentenregister":"2002-05-10","monument_aard":"onroerend gebouwd"},"geometry":{"type":"Polygon","coordinates":[[[6.702455912074074,51.96735220901035],[6.70243080533926,51.96738934562995],[6.702357484381351,51.9673703894638],[6.702382591166518,51.96733325285959],[6.702455912074074,51.96735220901035]]]}},{"type":"Feature","properties":{"cho_uri":"https://linkeddata.cultureelerfgoed.nl/cho-kennis/id/rijksmonument/80173","rijksmonumentnummer":"523431","naam":null,"geometry_bron":"Polygon","monumentenregister_url":"https://monumentenregister.cultureelerfgoed.nl/monumenten/523431","oorspronkelijke_functie":"Begraafplaats","oorspronkelijke_functie_kort":"Begraafplaats","huidige_functie":null,"type":null,"datum_inschrijving_monumentenregister":"2002-05-10","monument_aard":"onroerend gebouwd"},"geometry":{"type":"Polygon","coordinates":[[[6.701629880721959,51.96702435030326],[6.701644560532022,51.96702868080797],[6.702384742741376,51.9672577193798],[6.70241698596468,51.96726544902518],[6.702510964131106,51.96729406221733],[6.702407653940226,51.9674435398828],[6.701705135678383,51.96740734850382],[6.701629880721959,51.96702435030326]]]}}]}