{"type":"FeatureCollection","name":"rijksmonumenten","features":[{"type":"Feature","properties":{"cho_uri":"https://linkeddata.cultureelerfgoed.nl/cho-kennis/id/rijksmonument/10687","rijksmonumentnummer":"33421","naam":null,"geometry_bron":"Point","monumentenregister_url":"https://monumentenregister.cultureelerfgoed.nl/monumenten/33421","oorspronkelijke_functie":"Industrie","oorspronkelijke_functie_kort":"Industrie","huidige_functie":null,"type":null,"datum_inschrijving_monumentenregister":"1971-06-24","monument_aard":"onroerend gebouwd"},"geometry":{"type":"Point","coordinates":[4.853806860111759,51.94508016698491]}},{"type":"Feature","properties":{"cho_uri":"https://linkeddata.cultureelerfgoed.nl/cho-kennis/id/rijksmonument/13631","rijksmonumentnummer":"33503","naam":null,"geometry_bron":"Point","monumentenregister_url":"https://monumentenregister.cultureelerfgoed.nl/monumenten/33503","oorspronkelijke_functie":"Woonhuis(K)","oorspronkelijke_functie_kort":"Woonhuis","huidige_functie":null,"type":null,"datum_inschrijving_monumentenregister":"1971-06-24","monument_aard":"onroerend gebouwd"},"geometry":{"type":"Point","coordinates":[4.85450478864429,51.94632372763257]}},{"type":"Feature","properties":{"cho_uri":"https://linkeddata.cultureelerfgoed.nl/cho-kennis/id/rijksmonument/21570","rijksmonumentnummer":"522272","naam":null,"geometry_bron":"Point","monumentenregister_url":"https://monumentenregister.cultureelerfgoed.nl/monumenten/522272","oorspronkelijke_functie":"Poortgebouw","oorspronkelijke_functie_kort":"Poortgebouw","huidige_functie":null,"type":null,"datum_inschrijving_monumentenregister":"2001-12-24","monument_aard":"onroerend gebouwd"},"geometry":{"type":"Point","coordinates":[4.678078108781134,51.801458203118564]}},{"type":"Feature","properties":{"cho_uri":"https://linkeddata.cultureelerfgoed.nl/cho-kennis/id/rijksmonument/26548","rijksmonumentnummer":"9376","naam":null,"geometry_bron":"Point","monumentenregister_url":"https://monumentenregister.cultureelerfgoed.nl/monumenten/9376","oorspronkelijke_functie":"Woonhuis(K)","oorspronkelijke_functie_kort":"Woonhuis","huidige_functie":null,"type":null,"datum_inschrijving_monumentenregister":"1966-10-11","monument_aard":"onroerend gebouwd"},"geometry":{"type":"Point","coordinates":[4.256712091387806,51.86068240840708]}},{"type":"Feature","properties":{"cho_uri":"https://linkeddata.cultureelerfgoed.nl/cho-kennis/id/rijksmonument/26672","rijksmonumentnummer":"32923","naam":null,"geometry_bron":"Point","monumentenregister_url":"https://monumentenregister.cultureelerfgoed.nl/monumenten/32923","oorspronkelijke_functie":"Begraafplaats en -onderdelen","oorspronkelijke_functie_kort":"Begraafplaats en -onderdelen","huidige_functie":null,"type":null,"datum_inschrijving_monumentenregister":"1973-09-11","monument_aard":"onroerend gebouwd"},"geometry":{"type":"Point","coordinates":[4.533005609928515,51.910181319326554]}},{"type":"Feature","properties":{"cho_uri":"https://linkeddata.cultureelerfgoed.nl/cho-kennis/id/rijksmonument/28303","rijksmonumentnummer":"18067","naam":null,"geometry_bron":"Point","monumentenregister_url":"https://monumentenregister.cultureelerfgoed.nl/monumenten/18067","oorspronkelijke_functie":"Begraafplaats en -onderdelen","oorspronkelijke_functie_kort":"Begraafplaats en -onderdelen","huidige_functie":null,"type":null,"datum_inschrijving_monumentenregister":"1967-01-11","monument_aard":"onroerend gebouwd"},"geometry":{"type":"Point","coordinates":[4.29636292176794,52.08927615117351]}},{"type":"Feature","properties":{"cho_uri":"https://linkeddata.cultureelerfgoed.nl/cho-kennis/id/rijksmonument/29276","rijksmonumentnummer":"33502","naam":null,"geometry_bron":"Point","monumentenregister_url":"https://monumentenregister.cultureelerfgoed.nl/monumenten/33502","oorspronkelijke_functie":"Woonhuis(K)","oorspronkelijke_functie_kort":"Woonhuis","huidige_functie":null,"type":null,"datum_inschrijving_monumentenregister":"1971-06-24","monument_aard":"onroerend gebouwd"},"geometry":{"type":"Point","coordinates":[4.853719431140016,51.94633874668089]}},{"type":"Feature","properties":{"cho_uri":"https://linkeddata.cultureelerfgoed.nl/cho-kennis/id/rijksmonument/34523","rijksmonumentnummer":"33420","naam":null,"geometry_bron":"Point","monumentenregister_url":"https://monumentenregister.cultureelerfgoed.nl/monumenten/33420","oorspronkelijke_functie":"Woonhuis(K)","oorspronkelijke_functie_kort":"Woonhuis","huidige_functie":null,"type":null,"datum_inschrijving_monumentenregister":"1971-06-24","monument_aard":"onroerend gebouwd"},"geometry":{"type":"Point","coordinates":[4.853719942474081,51.945071386454906]}},{"type":"Feature","properties":{"cho_uri":"https://linkeddata.cultureelerfgoed.nl/cho-kennis/id/rijksmonument/37452","rijksmonumentnummer":"33419","naam":null,"geometry_bron":"Point","monumentenregister_url":"https://monumentenregister.cultureelerfgoed.nl/monumenten/33419","oorspronkelijke_functie":"Woonhuis(K)","oorspronkelijke_functie_kort":"Woonhuis","huidige_functie":null,"type":null,"datum_inschrijving_monumentenregister":"1971-06-24","monument_aard":"onroerend gebouwd"},"geometry":{"type":"Point","coordinates":[4.853632443091516,51.94507038740442]}},{"type":"Feature","properties":{"cho_uri":"https://linkeddata.cultureelerfgoed.nl/cho-kennis/id/rijksmonument/46606","rijksmonumentnummer":"524330","naam":"Rotterdamsch Lyceum","geometry_bron":"Point","monumentenregister_url":"https://monumentenregister.cultureelerfgoed.nl/monumenten/524330","oorspronkelijke_functie":"Schoolgebouw","oorspronkelijke_functie_kort":"Schoolgebouw","huidige_functie":null,"type":"Lyceum","datum_inschrijving_monumentenregister":"2002-06-24","monument_aard":"onroerend gebouwd"},"geometry":{"type":"Point","coordinates":[4.457755125830155,51.90571786155992]}},{"type":"Feature","properties":{"cho_uri":"https://linkeddata.cultureelerfgoed.nl/cho-kennis/id/rijksmonument/51014","rijksmonumentnummer":"525035","naam":"orgel in Bartholomeuskerk","geometry_bron":"Point","monumentenregister_url":"https://monumentenregister.cultureelerfgoed.nl/monumenten/525035","oorspronkelijke_functie":"Orgel","oorspronkelijke_functie_kort":"Orgel","huidige_functie":null,"type":"Vanwege onderdelen kerk","datum_inschrijving_monumentenregister":"2003-09-01","monument_aard":"onroerend gebouwd"},"geometry":{"type":"Point","coordinates":[4.854756108622433,51.94600188680029]}},{"type":"Feature","properties":{"cho_uri":"https://linkeddata.cultureelerfgoed.nl/cho-kennis/id/rijksmonument/52934","rijksmonumentnummer":"509339","naam":"Notabelenwoning","geometry_bron":"Point","monumentenregister_url":"https://monumentenregister.cultureelerfgoed.nl/monumenten/509339","oorspronkelijke_functie":"Woonhuis(K)","oorspronkelijke_functie_kort":"Woonhuis","huidige_functie":null,"type":"Woonhuis(K)","datum_inschrijving_monumentenregister":"1998-03-11","monument_aard":"onroerend gebouwd"},"geometry":{"type":"Point","coordinates":[4.419552473639998,52.19833093582924]}},{"type":"Feature","properties":{"cho_uri":"https://linkeddata.cultureelerfgoed.nl/cho-kennis/id/rijksmonument/43529","rijksmonumentnummer":"475933","naam":null,"geometry_bron":"Point","monumentenregister_url":"https://monumentenregister.cultureelerfgoed.nl/monumenten/475933","oorspronkelijke_functie":"Woonhuis","oorspronkelijke_functie_kort":"Woonhuis","huidige_functie":"Kantoorgebouw","type":"Herenhuis","datum_inschrijving_monumentenregister":"1994-07-22","monument_aard":"onroerend gebouwd"},"geometry":{"type":"Point","coordinates":[4.29863647428306,52.08820058691544]}},{"type":"Feature","properties":{"cho_uri":"https://linkeddata.cultureelerfgoed.nl/cho-kennis/id/rijksmonument/44737","rijksmonumentnummer":"475931","naam":null,"geometry_bron":"Point","monumentenregister_url":"https://monumentenregister.cultureelerfgoed.nl/monumenten/475931","oorspronkelijke_functie":"Woonhuis","oorspronkelijke_functie_kort":"Woonhuis","huidige_functie":"Kantoorgebouw","type":"Herenhuis","datum_inschrijving_monumentenregister":"1994-07-22","monument_aard":"onroerend gebouwd"},"geometry":{"type":"Point","coordinates":[4.298656531797134,52.08797605391942]}},{"type":"Feature","properties":{"cho_uri":"https://linkeddata.cultureelerfgoed.nl/cho-kennis/id/rijksmonument/50824","rijksmonumentnummer":"524657","naam":null,"geometry_bron":"Point","monumentenregister_url":"https://monumentenregister.cultureelerfgoed.nl/monumenten/524657","oorspronkelijke_functie":"Woonhuis","oorspronkelijke_functie_kort":"Woonhuis","huidige_functie":null,"type":"Herenhuis","datum_inschrijving_monumentenregister":"2002-04-22","monument_aard":"onroerend gebouwd"},"geometry":{"type":"Point","coordinates":[4.36776469687767,52.1109219705936]}},{"type":"Feature","properties":{"cho_uri":"https://linkeddata.cultureelerfgoed.nl/cho-kennis/id/rijksmonument/48477","rijksmonumentnummer":"9377","naam":null,"geometry_bron":"Point","monumentenregister_url":"https://monumentenregister.cultureelerfgoed.nl/monumenten/9377","oorspronkelijke_functie":"Begraafplaats en -onderdelen","oorspronkelijke_functie_kort":"Begraafplaats en -onderdelen","huidige_functie":null,"type":null,"datum_inschrijving_monumentenregister":"1975-01-29","monument_aard":"onroerend gebouwd"},"geometry":{"type":"Point","coordinates":[4.25578812694993,51.86047574966834]}},{"type":"Feature","properties":{"cho_uri":"https://linkeddata.cultureelerfgoed.nl/cho-kennis/id/rijksmonument/59187","rijksmonumentnummer":"475930","naam":null,"geometry_bron":"Point","monumentenregister_url":"https://monumentenregister.cultureelerfgoed.nl/monumenten/475930","oorspronkelijke_functie":"Woonhuis","oorspronkelijke_functie_kort":"Woonhuis","huidige_functie":"Kantoorgebouw","type":"Herenhuis","datum_inschrijving_monumentenregister":"1994-07-22","monument_aard":"onroerend gebouwd"},"geometry":{"type":"Point","coordinates":[4.298964575297046,52.0885092340837]}},{"type":"Feature","properties":{"cho_uri":"https://linkeddata.cultureelerfgoed.nl/cho-kennis/id/rijksmonument/61761","rijksmonumentnummer":"475932","naam":null,"geometry_bron":"Point","monumentenregister_url":"https://monumentenregister.cultureelerfgoed.nl/monumenten/475932","oorspronkelijke_functie":"Woonhuis","oorspronkelijke_functie_kort":"Woonhuis","huidige_functie":"Kantoorgebouw","type":"Herenhuis","datum_inschrijving_monumentenregister":"1994-07-22","monument_aard":"onroerend gebouwd"},"geometry":{"type":"Point","coordinates":[4.298656365446496,52.087976018216004]}},{"type":"Feature","properties":{"cho_uri":"https://linkeddata.cultureelerfgoed.nl/cho-kennis/id/rijksmonument/60084","rijksmonumentnummer":"23527","naam":null,"geometry_bron":"Point","monumentenregister_url":"https://monumentenregister.cultureelerfgoed.nl/monumenten/23527","oorspronkelijke_functie":"Begraafplaats en -onderdelen","oorspronkelijke_functie_kort":"Begraafplaats en -onderdelen","huidige_functie":null,"type":null,"datum_inschrijving_monumentenregister":"1978-06-07","monument_aard":"onroerend gebouwd"},"geometry":{"type":"Point","coordinates":[4.421330087236554,52.19797696804152]}},{"type":"Feature","properties":{"cho_uri":"https://linkeddata.cultureelerfgoed.nl/cho-kennis/id/rijksmonument/71494","rijksmonumentnummer":"525111","naam":null,"geometry_bron":"Point","monumentenregister_url":"https://monumentenregister.cultureelerfgoed.nl/monumenten/525111","oorspronkelijke_functie":"Begraafplaatshek","oorspronkelijke_functie_kort":"Begraafplaatshek","huidige_functie":null,"type":null,"datum_inschrijving_monumentenregister":"2002-05-21","monument_aard":"onroerend gebouwd"},"geometry":{"type":"Point","coordinates":[4.97785530836365,51.83656623397423]}},{"type":"Feature","properties":{"cho_uri":"https://linkeddata.cultureelerfgoed.nl/cho-kennis/id/rijksmonument/71495","rijksmonumentnummer":"525110","naam":null,"geometry_bron":"Point","monumentenregister_url":"https://monumentenregister.cultureelerfgoed.nl/monumenten/525110","oorspronkelijke_functie":"Begraafplaatsaula","oorspronkelijke_functie_kort":"Begraafplaatsaula","huidige_functie":null,"type":null,"datum_inschrijving_monumentenregister":"2002-05-21","monument_aard":"onroerend gebouwd"},"geometry":{"type":"Point","coordinates":[4.97785530836365,51.83656623397423]}},{"type":"Feature","properties":{"cho_uri":"https://linkeddata.cultureelerfgoed.nl/cho-kennis/id/rijksmonument/71496","rijksmonumentnummer":"525109","naam":null,"geometry_bron":"Point","monumentenregister_url":"https://monumentenregister.cultureelerfgoed.nl/monumenten/525109","oorspronkelijke_functie":"Begraafplaats","oorspronkelijke_functie_kort":"Begraafplaats","huidige_functie":null,"type":null,"datum_inschrijving_monumentenregister":"2002-05-21","monument_aard":"onroerend gebouwd"},"geometry":{"type":"Point","coordinates":[4.97785530836365,51.83656623397423]}},{"type":"Feature","properties":{"cho_uri":"https://linkeddata.cultureelerfgoed.nl/cho-kennis/id/rijksmonument/80170","rijksmonumentnummer":"524544","naam":null,"geometry_bron":"Point","monumentenregister_url":"https://monumentenregister.cultureelerfgoed.nl/monumenten/524544","oorspronkelijke_functie":"Baarhuisje","oorspronkelijke_functie_kort":"Baarhuisje","huidige_functie":null,"type":null,"datum_inschrijving_monumentenregister":"2002-09-02","monument_aard":"onroerend gebouwd"},"geometry":{"type":"Point","coordinates":[4.369572443499145,52.11167465778497]}},{"type":"Feature","properties":{"cho_uri":"https://linkeddata.cultureelerfgoed.nl/cho-kennis/id/rijksmonument/80171","rijksmonumentnummer":"524543","naam":null,"geometry_bron":"Point","monumentenregister_url":"https://monumentenregister.cultureelerfgoed.nl/monumenten/524543","oorspronkelijke_functie":"Begraafplaats","oorspronkelijke_functie_kort":"Begraafplaats","huidige_functie":null,"type":null,"datum_inschrijving_monumentenregister":"2002-09-02","monument_aard":"onroerend gebouwd"},"geometry":{"type":"Point","coordinates":[4.370442634635047,52.111286668592065]}}]}