{"type":"FeatureCollection","name":"rijksmonumenten","features":[{"type":"Feature","properties":{"cho_uri":"https://linkeddata.cultureelerfgoed.nl/cho-kennis/id/rijksmonument/17968","rijksmonumentnummer":"508772","naam":"Midgaarde","geometry_bron":"Point","monumentenregister_url":"https://monumentenregister.cultureelerfgoed.nl/monumenten/508772","oorspronkelijke_functie":"Woonhuis","oorspronkelijke_functie_kort":"Woonhuis","huidige_functie":"Woonhuis","type":"Villa","datum_inschrijving_monumentenregister":"1998-01-20","monument_aard":"onroerend gebouwd"},"geometry":{"type":"Point","coordinates":[3.563177263553363,51.450378446146374]}},{"type":"Feature","properties":{"cho_uri":"https://linkeddata.cultureelerfgoed.nl/cho-kennis/id/rijksmonument/43422","rijksmonumentnummer":"508335","naam":null,"geometry_bron":"Point","monumentenregister_url":"https://monumentenregister.cultureelerfgoed.nl/monumenten/508335","oorspronkelijke_functie":"Woonhuis","oorspronkelijke_functie_kort":"Woonhuis","huidige_functie":"Winkelwoning","type":"Herenhuis","datum_inschrijving_monumentenregister":"1997-12-30","monument_aard":"onroerend gebouwd"},"geometry":{"type":"Point","coordinates":[3.60644139820419,51.4990381838515]}},{"type":"Feature","properties":{"cho_uri":"https://linkeddata.cultureelerfgoed.nl/cho-kennis/id/rijksmonument/34286","rijksmonumentnummer":"508330","naam":null,"geometry_bron":"Point","monumentenregister_url":"https://monumentenregister.cultureelerfgoed.nl/monumenten/508330","oorspronkelijke_functie":"Baarhuisje","oorspronkelijke_functie_kort":"Baarhuisje","huidige_functie":"Baarhuisje","type":null,"datum_inschrijving_monumentenregister":"1997-12-30","monument_aard":"onroerend gebouwd"},"geometry":{"type":"Point","coordinates":[3.605911123811318,51.50007299167483]}},{"type":"Feature","properties":{"cho_uri":"https://linkeddata.cultureelerfgoed.nl/cho-kennis/id/rijksmonument/20974","rijksmonumentnummer":"29487","naam":null,"geometry_bron":"Point","monumentenregister_url":"https://monumentenregister.cultureelerfgoed.nl/monumenten/29487","oorspronkelijke_functie":"Woonhuis(K)","oorspronkelijke_functie_kort":"Woonhuis","huidige_functie":null,"type":null,"datum_inschrijving_monumentenregister":"1966-05-20","monument_aard":"onroerend gebouwd"},"geometry":{"type":"Point","coordinates":[3.607152017789668,51.4996513835841]}},{"type":"Feature","properties":{"cho_uri":"https://linkeddata.cultureelerfgoed.nl/cho-kennis/id/rijksmonument/25088","rijksmonumentnummer":"29478","naam":null,"geometry_bron":"Point","monumentenregister_url":"https://monumentenregister.cultureelerfgoed.nl/monumenten/29478","oorspronkelijke_functie":"Molen","oorspronkelijke_functie_kort":"Molen","huidige_functie":null,"type":null,"datum_inschrijving_monumentenregister":"1966-05-20","monument_aard":"onroerend gebouwd"},"geometry":{"type":"Point","coordinates":[3.60351655691697,51.49942507884487]}},{"type":"Feature","properties":{"cho_uri":"https://linkeddata.cultureelerfgoed.nl/cho-kennis/id/rijksmonument/26985","rijksmonumentnummer":"29049","naam":null,"geometry_bron":"Point","monumentenregister_url":"https://monumentenregister.cultureelerfgoed.nl/monumenten/29049","oorspronkelijke_functie":"Woonhuis(K)","oorspronkelijke_functie_kort":"Woonhuis","huidige_functie":null,"type":null,"datum_inschrijving_monumentenregister":"1966-05-20","monument_aard":"onroerend gebouwd"},"geometry":{"type":"Point","coordinates":[3.606757297962345,51.500535423408486]}},{"type":"Feature","properties":{"cho_uri":"https://linkeddata.cultureelerfgoed.nl/cho-kennis/id/rijksmonument/27571","rijksmonumentnummer":"29485","naam":null,"geometry_bron":"Point","monumentenregister_url":"https://monumentenregister.cultureelerfgoed.nl/monumenten/29485","oorspronkelijke_functie":"Woonhuis(K)","oorspronkelijke_functie_kort":"Woonhuis","huidige_functie":null,"type":null,"datum_inschrijving_monumentenregister":"1966-05-20","monument_aard":"onroerend gebouwd"},"geometry":{"type":"Point","coordinates":[3.606159465827248,51.49888104484209]}},{"type":"Feature","properties":{"cho_uri":"https://linkeddata.cultureelerfgoed.nl/cho-kennis/id/rijksmonument/32945","rijksmonumentnummer":"29484","naam":null,"geometry_bron":"Point","monumentenregister_url":"https://monumentenregister.cultureelerfgoed.nl/monumenten/29484","oorspronkelijke_functie":"Woonhuis(K)","oorspronkelijke_functie_kort":"Woonhuis","huidige_functie":null,"type":null,"datum_inschrijving_monumentenregister":"1966-05-20","monument_aard":"onroerend gebouwd"},"geometry":{"type":"Point","coordinates":[3.606219345375786,51.49890751736819]}},{"type":"Feature","properties":{"cho_uri":"https://linkeddata.cultureelerfgoed.nl/cho-kennis/id/rijksmonument/34692","rijksmonumentnummer":"29477","naam":null,"geometry_bron":"Point","monumentenregister_url":"https://monumentenregister.cultureelerfgoed.nl/monumenten/29477","oorspronkelijke_functie":"Begraafplaats en -onderdelen","oorspronkelijke_functie_kort":"Begraafplaats en -onderdelen","huidige_functie":null,"type":null,"datum_inschrijving_monumentenregister":"1966-05-20","monument_aard":"onroerend gebouwd"},"geometry":{"type":"Point","coordinates":[3.605311638256019,51.49964886629132]}},{"type":"Feature","properties":{"cho_uri":"https://linkeddata.cultureelerfgoed.nl/cho-kennis/id/rijksmonument/35197","rijksmonumentnummer":"29015","naam":null,"geometry_bron":"Point","monumentenregister_url":"https://monumentenregister.cultureelerfgoed.nl/monumenten/29015","oorspronkelijke_functie":"Begraafplaats","oorspronkelijke_functie_kort":"Begraafplaats","huidige_functie":null,"type":null,"datum_inschrijving_monumentenregister":"1966-05-20","monument_aard":"onroerend gebouwd"},"geometry":{"type":"Point","coordinates":[3.604135036919545,51.500917958230815]}},{"type":"Feature","properties":{"cho_uri":"https://linkeddata.cultureelerfgoed.nl/cho-kennis/id/rijksmonument/38693","rijksmonumentnummer":"29483","naam":null,"geometry_bron":"Point","monumentenregister_url":"https://monumentenregister.cultureelerfgoed.nl/monumenten/29483","oorspronkelijke_functie":"Woonhuis(K)","oorspronkelijke_functie_kort":"Woonhuis","huidige_functie":null,"type":null,"datum_inschrijving_monumentenregister":"1966-05-20","monument_aard":"onroerend gebouwd"},"geometry":{"type":"Point","coordinates":[3.606289915986067,51.498944556031375]}},{"type":"Feature","properties":{"cho_uri":"https://linkeddata.cultureelerfgoed.nl/cho-kennis/id/rijksmonument/44786","rijksmonumentnummer":"29488","naam":null,"geometry_bron":"Point","monumentenregister_url":"https://monumentenregister.cultureelerfgoed.nl/monumenten/29488","oorspronkelijke_functie":"Woonhuis(K)","oorspronkelijke_functie_kort":"Woonhuis","huidige_functie":null,"type":null,"datum_inschrijving_monumentenregister":"1966-05-20","monument_aard":"onroerend gebouwd"},"geometry":{"type":"Point","coordinates":[3.607320900597435,51.49975285375445]}},{"type":"Feature","properties":{"cho_uri":"https://linkeddata.cultureelerfgoed.nl/cho-kennis/id/rijksmonument/44914","rijksmonumentnummer":"29489","naam":null,"geometry_bron":"Point","monumentenregister_url":"https://monumentenregister.cultureelerfgoed.nl/monumenten/29489","oorspronkelijke_functie":"Woonhuis(K)","oorspronkelijke_functie_kort":"Woonhuis","huidige_functie":null,"type":null,"datum_inschrijving_monumentenregister":"1966-05-20","monument_aard":"onroerend gebouwd"},"geometry":{"type":"Point","coordinates":[3.607261910316872,51.49978791638411]}},{"type":"Feature","properties":{"cho_uri":"https://linkeddata.cultureelerfgoed.nl/cho-kennis/id/rijksmonument/53013","rijksmonumentnummer":"29490","naam":null,"geometry_bron":"Point","monumentenregister_url":"https://monumentenregister.cultureelerfgoed.nl/monumenten/29490","oorspronkelijke_functie":"Woonhuis(K)","oorspronkelijke_functie_kort":"Woonhuis","huidige_functie":null,"type":null,"datum_inschrijving_monumentenregister":"1966-05-20","monument_aard":"onroerend gebouwd"},"geometry":{"type":"Point","coordinates":[3.607231360193746,51.49983240307563]}}]}