{"type":"FeatureCollection","name":"rijksmonumenten","features":[{"type":"Feature","properties":{"cho_uri":"https://linkeddata.cultureelerfgoed.nl/cho-kennis/id/rijksmonument/19041","rijksmonumentnummer":"7816","naam":null,"geometry_bron":"Point","monumentenregister_url":"https://monumentenregister.cultureelerfgoed.nl/monumenten/7816","oorspronkelijke_functie":"Woonhuis(K)","oorspronkelijke_functie_kort":"Woonhuis","huidige_functie":null,"type":null,"datum_inschrijving_monumentenregister":"1966-01-04","monument_aard":"onroerend gebouwd"},"geometry":{"type":"Point","coordinates":[5.390184780640093,52.15956734661365]}},{"type":"Feature","properties":{"cho_uri":"https://linkeddata.cultureelerfgoed.nl/cho-kennis/id/rijksmonument/19712","rijksmonumentnummer":"7809","naam":null,"geometry_bron":"Point","monumentenregister_url":"https://monumentenregister.cultureelerfgoed.nl/monumenten/7809","oorspronkelijke_functie":"Woonhuis(K)","oorspronkelijke_functie_kort":"Woonhuis","huidige_functie":null,"type":null,"datum_inschrijving_monumentenregister":"1966-01-04","monument_aard":"onroerend gebouwd"},"geometry":{"type":"Point","coordinates":[5.390228614292185,52.15917274284647]}},{"type":"Feature","properties":{"cho_uri":"https://linkeddata.cultureelerfgoed.nl/cho-kennis/id/rijksmonument/28404","rijksmonumentnummer":"7808","naam":null,"geometry_bron":"Point","monumentenregister_url":"https://monumentenregister.cultureelerfgoed.nl/monumenten/7808","oorspronkelijke_functie":"Woonhuis(K)","oorspronkelijke_functie_kort":"Woonhuis","huidige_functie":null,"type":null,"datum_inschrijving_monumentenregister":"1966-01-04","monument_aard":"onroerend gebouwd"},"geometry":{"type":"Point","coordinates":[5.39015554231192,52.15913679310147]}},{"type":"Feature","properties":{"cho_uri":"https://linkeddata.cultureelerfgoed.nl/cho-kennis/id/rijksmonument/31280","rijksmonumentnummer":"7814","naam":null,"geometry_bron":"Point","monumentenregister_url":"https://monumentenregister.cultureelerfgoed.nl/monumenten/7814","oorspronkelijke_functie":"Woonhuis(K)","oorspronkelijke_functie_kort":"Woonhuis","huidige_functie":null,"type":null,"datum_inschrijving_monumentenregister":"1966-01-04","monument_aard":"onroerend gebouwd"},"geometry":{"type":"Point","coordinates":[5.389819401035917,52.15909998389261]}},{"type":"Feature","properties":{"cho_uri":"https://linkeddata.cultureelerfgoed.nl/cho-kennis/id/rijksmonument/32260","rijksmonumentnummer":"7811","naam":null,"geometry_bron":"Point","monumentenregister_url":"https://monumentenregister.cultureelerfgoed.nl/monumenten/7811","oorspronkelijke_functie":"Woonhuis(K)","oorspronkelijke_functie_kort":"Woonhuis","huidige_functie":null,"type":null,"datum_inschrijving_monumentenregister":"1966-01-04","monument_aard":"onroerend gebouwd"},"geometry":{"type":"Point","coordinates":[5.390243295592446,52.160116474176675]}},{"type":"Feature","properties":{"cho_uri":"https://linkeddata.cultureelerfgoed.nl/cho-kennis/id/rijksmonument/36314","rijksmonumentnummer":"7817","naam":null,"geometry_bron":"Point","monumentenregister_url":"https://monumentenregister.cultureelerfgoed.nl/monumenten/7817","oorspronkelijke_functie":"Woonhuis(K)","oorspronkelijke_functie_kort":"Woonhuis","huidige_functie":null,"type":null,"datum_inschrijving_monumentenregister":"1966-01-04","monument_aard":"onroerend gebouwd"},"geometry":{"type":"Point","coordinates":[5.390170170404028,52.15962127452638]}},{"type":"Feature","properties":{"cho_uri":"https://linkeddata.cultureelerfgoed.nl/cho-kennis/id/rijksmonument/66142","rijksmonumentnummer":"531497","naam":null,"geometry_bron":"Polygon","monumentenregister_url":"https://monumentenregister.cultureelerfgoed.nl/monumenten/531497","oorspronkelijke_functie":"Fort, vesting en -onderdelen","oorspronkelijke_functie_kort":"Fort, vesting en -onderdelen","huidige_functie":null,"type":"Fort, vesting en -onderdelen","datum_inschrijving_monumentenregister":"2013-11-15","monument_aard":"onroerend gebouwd"},"geometry":{"type":"Polygon","coordinates":[[[5.047088680612871,52.15578795977821],[5.04712366863627,52.15579884619944],[5.047089792691015,52.15583380175892],[5.047053343390089,52.155822911116054],[5.047088680612871,52.15578795977821]]]}},{"type":"Feature","properties":{"cho_uri":"https://linkeddata.cultureelerfgoed.nl/cho-kennis/id/rijksmonument/66143","rijksmonumentnummer":"531496","naam":null,"geometry_bron":"Polygon","monumentenregister_url":"https://monumentenregister.cultureelerfgoed.nl/monumenten/531496","oorspronkelijke_functie":"Fort, vesting en -onderdelen","oorspronkelijke_functie_kort":"Fort, vesting en -onderdelen","huidige_functie":null,"type":"Fort, vesting en -onderdelen","datum_inschrijving_monumentenregister":"2013-11-15","monument_aard":"onroerend gebouwd"},"geometry":{"type":"Polygon","coordinates":[[[5.047063284617089,52.15586068934815],[5.047109812153697,52.15589138262016],[5.047095076308803,52.155907518545895],[5.047067093237816,52.15593619948404],[5.047052350515214,52.155953234184004],[5.046991032271662,52.155945867040366],[5.046835081448444,52.15589238820248],[5.046749134356764,52.155857087113944],[5.046747679950808,52.1558561841188],[5.046746218691329,52.15585617990337],[5.04674475743185,52.15585617568788],[5.04674329617237,52.15585617147242],[5.046741834912892,52.15585616725694],[5.046816948432113,52.155779087163545],[5.047063284617089,52.15586068934815]]]}},{"type":"Feature","properties":{"cho_uri":"https://linkeddata.cultureelerfgoed.nl/cho-kennis/id/rijksmonument/66144","rijksmonumentnummer":"531495","naam":null,"geometry_bron":"Polygon","monumentenregister_url":"https://monumentenregister.cultureelerfgoed.nl/monumenten/531495","oorspronkelijke_functie":"Fort, vesting en -onderdelen","oorspronkelijke_functie_kort":"Fort, vesting en -onderdelen","huidige_functie":null,"type":"Fort, vesting en -onderdelen","datum_inschrijving_monumentenregister":"2013-11-15","monument_aard":"onroerend gebouwd"},"geometry":{"type":"Polygon","coordinates":[[[5.046712616577642,52.15585518416355],[5.046709735184655,52.15584978305322],[5.046741834912892,52.15585616725694],[5.046740366799712,52.155857061821195],[5.046738898686476,52.15585795638541],[5.046738891832747,52.15585885516516],[5.046730021466717,52.15587231156799],[5.046706360276724,52.155909094085196],[5.04669127469032,52.15597106772718],[5.046686788078586,52.155984536774795],[5.046606548848914,52.155967228042265],[5.046674281080652,52.1559000135326],[5.046706696141714,52.15586505387729],[5.046712616577642,52.15585518416355]]]}},{"type":"Feature","properties":{"cho_uri":"https://linkeddata.cultureelerfgoed.nl/cho-kennis/id/rijksmonument/42642","rijksmonumentnummer":"7815","naam":null,"geometry_bron":"Point","monumentenregister_url":"https://monumentenregister.cultureelerfgoed.nl/monumenten/7815","oorspronkelijke_functie":"Woonhuis(K)","oorspronkelijke_functie_kort":"Woonhuis","huidige_functie":null,"type":null,"datum_inschrijving_monumentenregister":"1966-01-04","monument_aard":"onroerend gebouwd"},"geometry":{"type":"Point","coordinates":[5.390053252361656,52.1592446508078]}},{"type":"Feature","properties":{"cho_uri":"https://linkeddata.cultureelerfgoed.nl/cho-kennis/id/rijksmonument/43052","rijksmonumentnummer":"520871","naam":null,"geometry_bron":"Polygon","monumentenregister_url":"https://monumentenregister.cultureelerfgoed.nl/monumenten/520871","oorspronkelijke_functie":"Grafmonument","oorspronkelijke_functie_kort":"Grafmonument","huidige_functie":null,"type":null,"datum_inschrijving_monumentenregister":"2001-12-24","monument_aard":"onroerend gebouwd"},"geometry":{"type":"Polygon","coordinates":[[[5.087122927128627,51.986842012920384],[5.087157913305245,51.98683491152919],[5.087167959346278,51.986856508861806],[5.087134428909109,51.98686361396694],[5.087122927128627,51.986842012920384]]]}},{"type":"Feature","properties":{"cho_uri":"https://linkeddata.cultureelerfgoed.nl/cho-kennis/id/rijksmonument/45236","rijksmonumentnummer":"7810","naam":null,"geometry_bron":"Point","monumentenregister_url":"https://monumentenregister.cultureelerfgoed.nl/monumenten/7810","oorspronkelijke_functie":"Woonhuis(K)","oorspronkelijke_functie_kort":"Woonhuis","huidige_functie":null,"type":null,"datum_inschrijving_monumentenregister":"1966-01-04","monument_aard":"onroerend gebouwd"},"geometry":{"type":"Point","coordinates":[5.390345524866386,52.15943252340596]}},{"type":"Feature","properties":{"cho_uri":"https://linkeddata.cultureelerfgoed.nl/cho-kennis/id/rijksmonument/54136","rijksmonumentnummer":"524862","naam":null,"geometry_bron":"Polygon","monumentenregister_url":"https://monumentenregister.cultureelerfgoed.nl/monumenten/524862","oorspronkelijke_functie":"Gemaal(M3)","oorspronkelijke_functie_kort":"Gemaal","huidige_functie":null,"type":null,"datum_inschrijving_monumentenregister":"2003-05-27","monument_aard":"onroerend gebouwd"},"geometry":{"type":"Polygon","coordinates":[[[5.047211439952484,52.15617030328005],[5.04720272024471,52.15616398656332],[5.047092286802047,52.15608187760933],[5.047315268331229,52.1559683724656],[5.047434428461233,52.15605589913313],[5.047211439952484,52.15617030328005]]]}},{"type":"Feature","properties":{"cho_uri":"https://linkeddata.cultureelerfgoed.nl/cho-kennis/id/rijksmonument/55449","rijksmonumentnummer":"7813","naam":null,"geometry_bron":"Point","monumentenregister_url":"https://monumentenregister.cultureelerfgoed.nl/monumenten/7813","oorspronkelijke_functie":"Woonhuis(K)","oorspronkelijke_functie_kort":"Woonhuis","huidige_functie":null,"type":null,"datum_inschrijving_monumentenregister":"1966-01-04","monument_aard":"onroerend gebouwd"},"geometry":{"type":"Point","coordinates":[5.389877855358395,52.15908200665779]}},{"type":"Feature","properties":{"cho_uri":"https://linkeddata.cultureelerfgoed.nl/cho-kennis/id/rijksmonument/70477","rijksmonumentnummer":"517681","naam":"Israëlitische begraafplaats","geometry_bron":"Point","monumentenregister_url":"https://monumentenregister.cultureelerfgoed.nl/monumenten/517681","oorspronkelijke_functie":"Grafzerk","oorspronkelijke_functie_kort":"Grafzerk","huidige_functie":null,"type":"Familiegraf","datum_inschrijving_monumentenregister":"2000-12-27","monument_aard":"onroerend gebouwd"},"geometry":{"type":"Point","coordinates":[5.37014997890442,52.15690661711458]}},{"type":"Feature","properties":{"cho_uri":"https://linkeddata.cultureelerfgoed.nl/cho-kennis/id/rijksmonument/74596","rijksmonumentnummer":"514448","naam":"lijkenhuisje","geometry_bron":"Point","monumentenregister_url":"https://monumentenregister.cultureelerfgoed.nl/monumenten/514448","oorspronkelijke_functie":"Baarhuisje","oorspronkelijke_functie_kort":"Baarhuisje","huidige_functie":null,"type":"Particuliere begraafplaats","datum_inschrijving_monumentenregister":"2001-05-17","monument_aard":"onroerend gebouwd"},"geometry":{"type":"Point","coordinates":[5.105427082802311,52.10909615722117]}},{"type":"Feature","properties":{"cho_uri":"https://linkeddata.cultureelerfgoed.nl/cho-kennis/id/rijksmonument/74597","rijksmonumentnummer":"514447","naam":"poortgebouw","geometry_bron":"Point","monumentenregister_url":"https://monumentenregister.cultureelerfgoed.nl/monumenten/514447","oorspronkelijke_functie":"Begraafplaats","oorspronkelijke_functie_kort":"Begraafplaats","huidige_functie":null,"type":"Particuliere begraafplaats","datum_inschrijving_monumentenregister":"2001-05-17","monument_aard":"onroerend gebouwd"},"geometry":{"type":"Point","coordinates":[5.105427082802311,52.10909615722117]}},{"type":"Feature","properties":{"cho_uri":"https://linkeddata.cultureelerfgoed.nl/cho-kennis/id/rijksmonument/74595","rijksmonumentnummer":"514449","naam":"Aanleg","geometry_bron":"Point","monumentenregister_url":"https://monumentenregister.cultureelerfgoed.nl/monumenten/514449","oorspronkelijke_functie":"Baarhuisje","oorspronkelijke_functie_kort":"Baarhuisje","huidige_functie":null,"type":null,"datum_inschrijving_monumentenregister":"2001-05-17","monument_aard":"onroerend gebouwd"},"geometry":{"type":"Point","coordinates":[5.105427040431207,52.10909693048462]}},{"type":"Feature","properties":{"cho_uri":"https://linkeddata.cultureelerfgoed.nl/cho-kennis/id/rijksmonument/70478","rijksmonumentnummer":"517680","naam":null,"geometry_bron":"Point","monumentenregister_url":"https://monumentenregister.cultureelerfgoed.nl/monumenten/517680","oorspronkelijke_functie":"Beheerderswoning","oorspronkelijke_functie_kort":"Beheerderswoning","huidige_functie":"Beheerderswoning","type":null,"datum_inschrijving_monumentenregister":"2000-12-27","monument_aard":"onroerend gebouwd"},"geometry":{"type":"Point","coordinates":[5.370149967165939,52.15690575430319]}},{"type":"Feature","properties":{"cho_uri":"https://linkeddata.cultureelerfgoed.nl/cho-kennis/id/rijksmonument/73348","rijksmonumentnummer":"517683","naam":null,"geometry_bron":"Point","monumentenregister_url":"https://monumentenregister.cultureelerfgoed.nl/monumenten/517683","oorspronkelijke_functie":"Poortgebouw","oorspronkelijke_functie_kort":"Poortgebouw","huidige_functie":"Poortgebouw","type":null,"datum_inschrijving_monumentenregister":"2000-12-27","monument_aard":"onroerend gebouwd"},"geometry":{"type":"Point","coordinates":[5.369126819560912,52.15747184262294]}},{"type":"Feature","properties":{"cho_uri":"https://linkeddata.cultureelerfgoed.nl/cho-kennis/id/rijksmonument/70479","rijksmonumentnummer":"517679","naam":null,"geometry_bron":"Point","monumentenregister_url":"https://monumentenregister.cultureelerfgoed.nl/monumenten/517679","oorspronkelijke_functie":"Poortgebouw","oorspronkelijke_functie_kort":"Poortgebouw","huidige_functie":null,"type":null,"datum_inschrijving_monumentenregister":"2000-12-27","monument_aard":"onroerend gebouwd"},"geometry":{"type":"Point","coordinates":[5.370149967165939,52.15690575430319]}},{"type":"Feature","properties":{"cho_uri":"https://linkeddata.cultureelerfgoed.nl/cho-kennis/id/rijksmonument/73347","rijksmonumentnummer":"517684","naam":null,"geometry_bron":"Point","monumentenregister_url":"https://monumentenregister.cultureelerfgoed.nl/monumenten/517684","oorspronkelijke_functie":"Begraafplaats","oorspronkelijke_functie_kort":"Begraafplaats","huidige_functie":null,"type":null,"datum_inschrijving_monumentenregister":"2000-12-27","monument_aard":"onroerend gebouwd"},"geometry":{"type":"Point","coordinates":[5.369126830591813,52.15747270530572]}},{"type":"Feature","properties":{"cho_uri":"https://linkeddata.cultureelerfgoed.nl/cho-kennis/id/rijksmonument/76847","rijksmonumentnummer":"514995","naam":null,"geometry_bron":"Point","monumentenregister_url":"https://monumentenregister.cultureelerfgoed.nl/monumenten/514995","oorspronkelijke_functie":"Begraafplaats","oorspronkelijke_functie_kort":"Begraafplaats","huidige_functie":null,"type":null,"datum_inschrijving_monumentenregister":"2000-10-17","monument_aard":"onroerend gebouwd"},"geometry":{"type":"Point","coordinates":[5.084331056898514,51.88089697594475]}},{"type":"Feature","properties":{"cho_uri":"https://linkeddata.cultureelerfgoed.nl/cho-kennis/id/rijksmonument/76848","rijksmonumentnummer":"514994","naam":null,"geometry_bron":"Point","monumentenregister_url":"https://monumentenregister.cultureelerfgoed.nl/monumenten/514994","oorspronkelijke_functie":"Baarhuisje","oorspronkelijke_functie_kort":"Baarhuisje","huidige_functie":null,"type":null,"datum_inschrijving_monumentenregister":"2000-10-17","monument_aard":"onroerend gebouwd"},"geometry":{"type":"Point","coordinates":[5.084200529346812,51.88086967434846]}},{"type":"Feature","properties":{"cho_uri":"https://linkeddata.cultureelerfgoed.nl/cho-kennis/id/rijksmonument/76849","rijksmonumentnummer":"514993","naam":null,"geometry_bron":"Point","monumentenregister_url":"https://monumentenregister.cultureelerfgoed.nl/monumenten/514993","oorspronkelijke_functie":"Toegangshek","oorspronkelijke_functie_kort":"Toegangshek","huidige_functie":null,"type":null,"datum_inschrijving_monumentenregister":"2000-10-17","monument_aard":"onroerend gebouwd"},"geometry":{"type":"Point","coordinates":[5.08484009479787,51.880790426828085]}},{"type":"Feature","properties":{"cho_uri":"https://linkeddata.cultureelerfgoed.nl/cho-kennis/id/rijksmonument/77741","rijksmonumentnummer":"454310","naam":null,"geometry_bron":"Polygon","monumentenregister_url":"https://monumentenregister.cultureelerfgoed.nl/monumenten/454310","oorspronkelijke_functie":"Historische aanleg","oorspronkelijke_functie_kort":"Historische aanleg","huidige_functie":null,"type":null,"datum_inschrijving_monumentenregister":"1993-02-16","monument_aard":"onroerend gebouwd"},"geometry":{"type":"Polygon","coordinates":[[[5.347047649898018,51.969698640795954],[5.346954451985393,51.96977051458184],[5.346950087943417,51.969768715456674],[5.346931151657158,51.96978938183525],[5.346910764959149,51.96980465480257],[5.346890379855743,51.969818130129106],[5.34685107932117,51.969828902533834],[5.346737580397075,51.969819875509174],[5.346736125179457,51.96981987501052],[5.346734669961838,51.96981987451189],[5.346702659214242,51.96981536944379],[5.346613893377849,51.96981264251154],[5.346507656013762,51.969819796500545],[5.346347581261451,51.96982064004773],[5.346156931372527,51.969838550312346],[5.34580327865438,51.96987617724834],[5.345697038526391,51.96988602696081],[5.345606804942567,51.969896781035864],[5.345518030694622,51.96990304146248],[5.345403049108337,51.9699236736497],[5.345322999420675,51.96993712756827],[5.345203652829245,51.96995685919339],[5.345148348517816,51.96996313124118],[5.345199164797183,51.97008808515135],[5.345183155631051,51.97008987709303],[5.345149681229368,51.97009435927016],[5.345106019394515,51.97009973662502],[5.345007051351352,51.97011318358195],[5.345005596124246,51.97011318306192],[5.344940103314687,51.97012124900787],[5.344890619674108,51.97012752301766],[5.344877520936846,51.97012931596064],[5.344841136019692,51.9701337970066],[5.3448032950213,51.9701391763373],[5.344803295867356,51.97013827751876],[5.344791653197735,51.970139172156216],[5.344679586220967,51.97015441176951],[5.344641745185835,51.970159791048204],[5.344631557736055,51.97016068619434],[5.344541321642138,51.97017323708856],[5.344528222877589,51.97017502999264],[5.344433621037413,51.970187579226206],[5.344394343508664,51.97017318389023],[5.344372493705847,51.97019564643731],[5.344376857685956,51.970197445657966],[5.344369573844094,51.97020553238537],[5.344357936278265,51.970201034068694],[5.344360850157841,51.970197439850644],[5.344331716474111,51.97022798911643],[5.344327345648096,51.970233380442366],[5.344305493214323,51.97025853943236],[5.34426614883265,51.970314251898806],[5.34425160078206,51.97030975251315],[5.344245771275889,51.97031873858065],[5.344260320185745,51.97032233914848],[5.344145202904738,51.97048318579195],[5.344130653951971,51.97047958520998],[5.344124825259162,51.970487672452784],[5.344139373354717,51.97049217185398],[5.344129173785488,51.97050565041554],[5.344127716826469,51.97050744752162],[5.344126259007704,51.970510143446134],[5.344123346808398,51.97051194002119],[5.344121888989225,51.970514635945705],[5.344118975929677,51.97051733133916],[5.34411751896987,51.970519128445076],[5.344114605909769,51.97052182383844],[5.344111694569158,51.97052272159473],[5.344108781508473,51.970525416987904],[5.344104414066956,51.97052721303137],[5.344101502725791,51.97052811078737],[5.344098589664144,51.97053080618031],[5.344047640740229,51.970546966307154],[5.344050546916816,51.970551461463366],[5.34394136755902,51.970589171898105],[5.343776880955646,51.970634951270455],[5.343768146891178,51.97063764451396],[5.343730301001492,51.97064751759135],[5.343638594521344,51.97067444835166],[5.343635686639149,51.97067175082224],[5.343445015460353,51.97070673423914],[5.343248522994466,51.97074171517968],[5.343170096934466,51.970580797390525],[5.343036152945556,51.97064366467214],[5.342903661175267,51.970709228802065],[5.342848335254947,51.97073617259204],[5.34283668442206,51.970745156401975],[5.34282648883237,51.970754140757734],[5.342816293238594,51.97076312511262],[5.342806097640736,51.97077210946661],[5.342795902038793,51.97078109381969],[5.342785706432769,51.97079007817191],[5.342782793275076,51.97079277353212],[5.342781335366233,51.97079546943993],[5.342778421321292,51.97079906361848],[5.342775508162579,51.970801758978524],[5.342774049366284,51.97080535370462],[5.342772590569752,51.97080894843076],[5.34277113265977,51.97081164433836],[5.342769673862803,51.97081523906439],[5.342768215952439,51.97081793497198],[5.342766756268164,51.97082242851644],[5.342765297470494,51.970826023242445],[5.342765294809796,51.97082871969776],[5.342765291262198,51.97083231497154],[5.342765287714602,51.97083591024531],[5.342765284167003,51.97083950551909],[5.342765278845603,51.970844898429704],[5.342679345292738,51.97091946800913],[5.342618223767705,51.970920343760085],[5.342583298580337,51.97091943174601],[5.342490173975908,51.970907711867305],[5.34243343341215,51.970893309262465],[5.342375244790643,51.97087171553018],[5.342327245668922,51.9708474291866],[5.342290887703476,51.97082404607158],[5.342258896421051,51.97079976578903],[5.342239996128185,51.97078178221605],[5.342226913252388,51.970767396131706],[5.342209499664746,51.97071795446252],[5.342186286699028,51.970646938927814],[5.342164539835945,51.97056513812143],[5.342147160567855,51.97048154133945],[5.342105149460741,51.97029097570429],[5.342068919079461,51.97014085910833],[5.342052945815667,51.97010669788298],[5.342039866802268,51.97008871650236],[5.342015152307237,51.970064438934614],[5.341987523779731,51.970043755520926],[5.341945335809917,51.970030257070654],[5.34191332900933,51.97002215542513],[5.341890050850124,51.97001675357847],[5.341833306172384,51.97000774359367],[5.341754737702906,51.969994231086595],[5.341661619780149,51.969978016457915],[5.341581598923994,51.969961806818006],[5.341513218074678,51.96994739926752],[5.341443392094996,51.9699231041091],[5.341357558769888,51.969898802693095],[5.3412848188454,51.96987810158419],[5.341245558192471,51.969848425280894],[5.341225200735352,51.96983313743157],[5.341193219919649,51.96979986867034],[5.341175781203581,51.969776492579776],[5.341165607555528,51.969763905147374],[5.341143829884129,51.96971446161073],[5.341139490905478,51.96968839416865],[5.341139523085746,51.969656935518614],[5.341143913544868,51.96963266912063],[5.341151211662987,51.96961110031369],[5.341165794094562,51.96958144497706],[5.34118473937779,51.96955448779636],[5.341326012768666,51.969438595143984],[5.341430875245933,51.96935234923276],[5.341519716447561,51.96927957931245],[5.341583798058794,51.96922747259472],[5.341624576361442,51.969195130863774],[5.341652246020256,51.96917446870771],[5.341669722011599,51.969160993165374],[5.34171194812338,51.96913584251434],[5.341759990431031,51.96911518818232],[5.341828408127599,51.96909184520756],[5.341841512115861,51.969084659691895],[5.341892467408156,51.969061309968005],[5.341927408304278,51.96904514463274],[5.341953613508293,51.9690334700338],[5.342019135025762,51.968995744733476],[5.342153097098059,51.96891130694658],[5.342189508243554,51.96887986217084],[5.342202621093285,51.96886368842783],[5.342211362987851,51.96885290593168],[5.342228856637906,51.96882145393179],[5.342239077932226,51.96878640388315],[5.342242031372029,51.96874326169407],[5.342239147928294,51.9687162960244],[5.342195627213794,51.96858145658063],[5.342178234277378,51.96851224087944],[5.342169546367614,51.96846909424967],[5.342160884543917,51.96839988187538],[5.342114683502388,51.96803584249681],[5.342110372919982,51.96798101288274],[5.342107549004192,51.967894725165756],[5.3421221824285,51.967812938211765],[5.342163004001614,51.96773565534613],[5.342216879564437,51.96770062194257],[5.342244539056312,51.96768894783101],[5.342286747325251,51.967679975707256],[5.342352228097133,51.96768089942405],[5.34241624746684,51.96768811428412],[5.342535545569078,51.96771242760365],[5.342651929944265,51.9677403349791],[5.342864306650716,51.9678168145674],[5.343076686722934,51.967890597315005],[5.343172690048952,51.967928383564846],[5.343246875823884,51.96795627460405],[5.343419978362734,51.968019256269194],[5.343475261322304,51.968032759045876],[5.343511632465746,51.96804086188421],[5.343548006235774,51.968046268254895],[5.343609117738456,51.96805168375155],[5.343660047477591,51.968052601365976],[5.343744450241565,51.96804903718926],[5.343888531840022,51.96802751847978],[5.344064635400938,51.96799702310725],[5.344080645585955,51.96799343367958],[5.344122851195478,51.96798715735375],[5.344183971271217,51.9679835843636],[5.34425818347385,51.96798451020024],[5.344326567347214,51.967993523245745],[5.344362939467481,51.96800072700209],[5.3444109460391,51.96801512551755],[5.344429859692891,51.968018727647674],[5.344458960317652,51.96802143464408],[5.344502614243478,51.968022349259336],[5.344796632573579,51.96794156150596],[5.344803903281017,51.96794695703191],[5.344991480388786,51.968094430577814],[5.345126709677698,51.96820233713814],[5.34526921546016,51.968310246125576],[5.345315750769739,51.96834262013006],[5.345388465036832,51.96839028331389],[5.345446623564921,51.96844243540123],[5.345509135273883,51.96850807128248],[5.34558474791222,51.968569217652835],[5.345638547169141,51.96861507637403],[5.345714162647448,51.96867352620403],[5.345943934630523,51.9688335964984],[5.34606027560417,51.96891453080165],[5.346151892675888,51.96898017647359],[5.346292943302854,51.969093476615534],[5.346518340916323,51.96926792536492],[5.346956009975879,51.969655466294],[5.346972010890251,51.96966266229718],[5.347021467274159,51.96968604842596],[5.347047649898018,51.969698640795954]]]}}]}