{"type":"FeatureCollection","name":"rijksmonumenten","features":[{"type":"Feature","properties":{"cho_uri":"https://linkeddata.cultureelerfgoed.nl/cho-kennis/id/rijksmonument/15947","rijksmonumentnummer":"9868","naam":null,"geometry_bron":"Point","monumentenregister_url":"https://monumentenregister.cultureelerfgoed.nl/monumenten/9868","oorspronkelijke_functie":"Omwalling","oorspronkelijke_functie_kort":"Omwalling","huidige_functie":null,"type":null,"datum_inschrijving_monumentenregister":"1968-01-11","monument_aard":"onroerend gebouwd"},"geometry":{"type":"Point","coordinates":[5.527579468083552,53.064085567717065]}},{"type":"Feature","properties":{"cho_uri":"https://linkeddata.cultureelerfgoed.nl/cho-kennis/id/rijksmonument/21815","rijksmonumentnummer":"39493","naam":null,"geometry_bron":"Polygon","monumentenregister_url":"https://monumentenregister.cultureelerfgoed.nl/monumenten/39493","oorspronkelijke_functie":"Woonhuis(K)","oorspronkelijke_functie_kort":"Woonhuis","huidige_functie":null,"type":null,"datum_inschrijving_monumentenregister":"1968-01-11","monument_aard":"onroerend gebouwd"},"geometry":{"type":"Polygon","coordinates":[[[5.433805709934781,52.972547275455725],[5.433917298848501,52.972495111629954],[5.434026053761669,52.97257594496937],[5.433915955308103,52.9726299055562],[5.433805709934781,52.972547275455725]]]}},{"type":"Feature","properties":{"cho_uri":"https://linkeddata.cultureelerfgoed.nl/cho-kennis/id/rijksmonument/38407","rijksmonumentnummer":"512599","naam":null,"geometry_bron":"Polygon","monumentenregister_url":"https://monumentenregister.cultureelerfgoed.nl/monumenten/512599","oorspronkelijke_functie":"Begraafplaats","oorspronkelijke_functie_kort":"Begraafplaats","huidige_functie":null,"type":null,"datum_inschrijving_monumentenregister":"2000-04-10","monument_aard":"onroerend gebouwd"},"geometry":{"type":"Polygon","coordinates":[[[5.435338578379748,52.972195304415266],[5.435177703622985,52.97209831805182],[5.435353237013499,52.97199041249406],[5.435508153425609,52.97208380654934],[5.43542485260095,52.97213775766551],[5.435338578379748,52.972195304415266]]]}},{"type":"Feature","properties":{"cho_uri":"https://linkeddata.cultureelerfgoed.nl/cho-kennis/id/rijksmonument/50567","rijksmonumentnummer":"387988","naam":null,"geometry_bron":"Point","monumentenregister_url":"https://monumentenregister.cultureelerfgoed.nl/monumenten/387988","oorspronkelijke_functie":"Waterweg, werf en haven","oorspronkelijke_functie_kort":"Waterweg, werf en haven","huidige_functie":null,"type":null,"datum_inschrijving_monumentenregister":"1990-09-20","monument_aard":"onroerend gebouwd"},"geometry":{"type":"Point","coordinates":[5.434424762309457,52.972536343882666]}},{"type":"Feature","properties":{"cho_uri":"https://linkeddata.cultureelerfgoed.nl/cho-kennis/id/rijksmonument/57052","rijksmonumentnummer":"9812","naam":null,"geometry_bron":"Point","monumentenregister_url":"https://monumentenregister.cultureelerfgoed.nl/monumenten/9812","oorspronkelijke_functie":"Kerk","oorspronkelijke_functie_kort":"Kerk","huidige_functie":null,"type":null,"datum_inschrijving_monumentenregister":"1968-01-11","monument_aard":"onroerend gebouwd"},"geometry":{"type":"Point","coordinates":[5.526328150804528,53.06466111526231]}},{"type":"Feature","properties":{"cho_uri":"https://linkeddata.cultureelerfgoed.nl/cho-kennis/id/rijksmonument/66434","rijksmonumentnummer":"507125","naam":null,"geometry_bron":"Point","monumentenregister_url":"https://monumentenregister.cultureelerfgoed.nl/monumenten/507125","oorspronkelijke_functie":"Grafmonument","oorspronkelijke_functie_kort":"Grafmonument","huidige_functie":null,"type":null,"datum_inschrijving_monumentenregister":"1997-07-22","monument_aard":"onroerend gebouwd"},"geometry":{"type":"Point","coordinates":[5.422624828809528,53.17868705569532]}},{"type":"Feature","properties":{"cho_uri":"https://linkeddata.cultureelerfgoed.nl/cho-kennis/id/rijksmonument/66435","rijksmonumentnummer":"507124","naam":null,"geometry_bron":"Point","monumentenregister_url":"https://monumentenregister.cultureelerfgoed.nl/monumenten/507124","oorspronkelijke_functie":"Grafmonument","oorspronkelijke_functie_kort":"Grafmonument","huidige_functie":null,"type":null,"datum_inschrijving_monumentenregister":"1997-07-22","monument_aard":"onroerend gebouwd"},"geometry":{"type":"Point","coordinates":[5.422669174684319,53.178049060831825]}},{"type":"Feature","properties":{"cho_uri":"https://linkeddata.cultureelerfgoed.nl/cho-kennis/id/rijksmonument/66436","rijksmonumentnummer":"507123","naam":null,"geometry_bron":"Point","monumentenregister_url":"https://monumentenregister.cultureelerfgoed.nl/monumenten/507123","oorspronkelijke_functie":"Baarhuisje","oorspronkelijke_functie_kort":"Baarhuisje","huidige_functie":null,"type":null,"datum_inschrijving_monumentenregister":"1997-07-22","monument_aard":"onroerend gebouwd"},"geometry":{"type":"Point","coordinates":[5.423596989137281,53.17864183513112]}},{"type":"Feature","properties":{"cho_uri":"https://linkeddata.cultureelerfgoed.nl/cho-kennis/id/rijksmonument/66437","rijksmonumentnummer":"507122","naam":null,"geometry_bron":"Point","monumentenregister_url":"https://monumentenregister.cultureelerfgoed.nl/monumenten/507122","oorspronkelijke_functie":"Begraafplaats","oorspronkelijke_functie_kort":"Begraafplaats","huidige_functie":null,"type":null,"datum_inschrijving_monumentenregister":"1997-07-22","monument_aard":"onroerend gebouwd"},"geometry":{"type":"Point","coordinates":[5.423387638055296,53.178695812679905]}},{"type":"Feature","properties":{"cho_uri":"https://linkeddata.cultureelerfgoed.nl/cho-kennis/id/rijksmonument/66438","rijksmonumentnummer":"507121","naam":null,"geometry_bron":"Point","monumentenregister_url":"https://monumentenregister.cultureelerfgoed.nl/monumenten/507121","oorspronkelijke_functie":"Baarhuisje","oorspronkelijke_functie_kort":"Baarhuisje","huidige_functie":null,"type":null,"datum_inschrijving_monumentenregister":"1997-07-22","monument_aard":"onroerend gebouwd"},"geometry":{"type":"Point","coordinates":[5.423671651941874,53.17849804184208]}},{"type":"Feature","properties":{"cho_uri":"https://linkeddata.cultureelerfgoed.nl/cho-kennis/id/rijksmonument/66439","rijksmonumentnummer":"507120","naam":null,"geometry_bron":"Point","monumentenregister_url":"https://monumentenregister.cultureelerfgoed.nl/monumenten/507120","oorspronkelijke_functie":"Begraafplaatshek","oorspronkelijke_functie_kort":"Begraafplaatshek","huidige_functie":null,"type":null,"datum_inschrijving_monumentenregister":"1997-07-22","monument_aard":"onroerend gebouwd"},"geometry":{"type":"Point","coordinates":[5.423417340535385,53.178444205275305]}}]}