{"type":"FeatureCollection","name":"joodse_begraafplaatsen","features":[{"type":"Feature","properties":{"id":"jb-loc-3888","reeks":"loc","nr":3888,"naam":"Joodse Begraafplaats Scheveningen (gemengd)","label_punt":"Joodse begraafplaats, Den Haag","status":"in_gebruik","status_bron":"In gebruik","adres":"Scheveningseweg 21a","adres_aanduiding":null,"postcode":"2517 KS","plaats":"'s-Gravenhage","gemeente_bron":"Den Haag","provincie_bron":"Zuid-Holland","provincie":"Zuid-Holland","mip":false,"rijksmonument":true,"gemeentelijk_monument":false,"rijksmonumentnummer":18067,"rmon_bron":"18067","link":"https://monumentenregister.cultureelerfgoed.nl/monumenten/18067","beschermd_deel":"Begraafplaats","jaartal":1694,"jaartal_bron":"1694","circa":null,"grondvorm":"Recht","met":true,"muur":null,"bijzonderheden":"ca 3000 zerken, 10.000 graven sleutel bij receptie NIB Capital, Carnegieplein 4","grootte_m2":22380,"grootte_bron":"22380","kadaster":true,"laatste_bezoek":2024,"locatie_precisie":"ingang","terrein_koppelwijze":"binnen_naam_gelijk","terrein_naam_kml":"Joodse begraafplaats, Den Haag","terrein_opp_m2":22465,"lon":4.2962457,"lat":52.0893669,"gemeente":"'s-Gravenhage","rijksmonument_rce":{"soort":"rijksmonument","nummer":"18067","naam":null,"functie":"Begraafplaats en -onderdelen","uri":"https://linkeddata.cultureelerfgoed.nl/cho-kennis/id/rijksmonument/28303","url":"https://monumentenregister.cultureelerfgoed.nl/monumenten/18067","onderdelen":[]},"gezichten":[{"naam":"'s-Gravenhage - Archipelbuurt / Willemspark II","gezichtsnummer":"1591","uri":"https://linkeddata.cultureelerfgoed.nl/cho-kennis/id/gezicht/10134459","relatie":"binnen"}],"rijksmonumenten_nabij":[{"rijksmonumentnummer":"18067","naam":null,"functie":"Begraafplaats en -onderdelen","url":"https://monumentenregister.cultureelerfgoed.nl/monumenten/18067","relatie":"op_terrein","afstand_m":0.0},{"rijksmonumentnummer":"475933","naam":null,"functie":"Woonhuis","url":"https://monumentenregister.cultureelerfgoed.nl/monumenten/475933","relatie":"25-100m","afstand_m":77.5},{"rijksmonumentnummer":"475930","naam":null,"functie":"Woonhuis","url":"https://monumentenregister.cultureelerfgoed.nl/monumenten/475930","relatie":"25-100m","afstand_m":84.1},{"rijksmonumentnummer":"475932","naam":null,"functie":"Woonhuis","url":"https://monumentenregister.cultureelerfgoed.nl/monumenten/475932","relatie":"25-100m","afstand_m":95.8},{"rijksmonumentnummer":"475931","naam":null,"functie":"Woonhuis","url":"https://monumentenregister.cultureelerfgoed.nl/monumenten/475931","relatie":"25-100m","afstand_m":95.8},{"rijksmonumentnummer":"530028","naam":null,"functie":"Historische aanleg","url":"https://monumentenregister.cultureelerfgoed.nl/monumenten/530028","relatie":"100-250m","afstand_m":117.2},{"rijksmonumentnummer":"476046","naam":null,"functie":"Woonhuis","url":"https://monumentenregister.cultureelerfgoed.nl/monumenten/476046","relatie":"100-250m","afstand_m":129.5},{"rijksmonumentnummer":"475929","naam":null,"functie":"Woonhuis","url":"https://monumentenregister.cultureelerfgoed.nl/monumenten/475929","relatie":"100-250m","afstand_m":153.8},{"rijksmonumentnummer":"476050","naam":"Nieuw Parkwijck","functie":"Woonhuis","url":"https://monumentenregister.cultureelerfgoed.nl/monumenten/476050","relatie":"100-250m","afstand_m":165.2},{"rijksmonumentnummer":"333074","naam":"Vredespaleis","functie":"Gerechtsgebouw(EX3)","url":"https://monumentenregister.cultureelerfgoed.nl/monumenten/333074","relatie":"100-250m","afstand_m":179.7},{"rijksmonumentnummer":"477390","naam":"Beukenhage","functie":"Woonhuis","url":"https://monumentenregister.cultureelerfgoed.nl/monumenten/477390","relatie":"100-250m","afstand_m":180.2},{"rijksmonumentnummer":"477396","naam":null,"functie":"Woonhuis","url":"https://monumentenregister.cultureelerfgoed.nl/monumenten/477396","relatie":"100-250m","afstand_m":211.1},{"rijksmonumentnummer":"477395","naam":null,"functie":"Woonhuis","url":"https://monumentenregister.cultureelerfgoed.nl/monumenten/477395","relatie":"100-250m","afstand_m":211.1},{"rijksmonumentnummer":"477394","naam":null,"functie":"Woonhuis","url":"https://monumentenregister.cultureelerfgoed.nl/monumenten/477394","relatie":"100-250m","afstand_m":219.5},{"rijksmonumentnummer":"477393","naam":null,"functie":"Woonhuis","url":"https://monumentenregister.cultureelerfgoed.nl/monumenten/477393","relatie":"100-250m","afstand_m":231.4},{"rijksmonumentnummer":"477399","naam":null,"functie":"Woonhuis","url":"https://monumentenregister.cultureelerfgoed.nl/monumenten/477399","relatie":"100-250m","afstand_m":247.5},{"rijksmonumentnummer":"477398","naam":"Museum Mesdag","functie":"Museum","url":"https://monumentenregister.cultureelerfgoed.nl/monumenten/477398","relatie":"100-250m","afstand_m":247.5}],"archeologisch_nabij":[],"relaties_berekend":true,"in_gezicht":"binnen"},"geometry":{"type":"Point","coordinates":[4.2962457,52.0893669]}},{"type":"Feature","properties":{"id":"jb-ger-68","reeks":"ger","nr":68,"naam":"Joodse Begraafplaats","label_punt":"Joodse begraafplaats, Alphen aan den Rijn (geruimd)","status":"geruimd","status_bron":"Geruimd","adres":"Aarkade 63","adres_aanduiding":null,"postcode":"2406 BW","plaats":"Alphen aan den Rijn","gemeente_bron":"Alphen aan den Rijn","provincie_bron":"Zuid-Holland","provincie":"Zuid-Holland","mip":false,"rijksmonument":false,"gemeentelijk_monument":false,"rijksmonumentnummer":null,"rmon_bron":"Geen","link":null,"beschermd_deel":null,"jaartal":1802,"jaartal_bron":"1802","circa":null,"grondvorm":"Recht","met":true,"muur":null,"bijzonderheden":"1802-1964, metaheerhuisje nog aanwezig","grootte_m2":1970,"grootte_bron":"1970","kadaster":false,"laatste_bezoek":2013,"locatie_precisie":"ingang","terrein_koppelwijze":"binnen_naam_gelijk","terrein_naam_kml":"Joodse begraafplaats, Alphen aan den Rijn (geruimd)","terrein_opp_m2":1981,"lon":4.6676485,"lat":52.1307418,"gemeente":"Alphen aan den Rijn","rijksmonument_rce":null,"gezichten":[],"rijksmonumenten_nabij":[],"archeologisch_nabij":[],"relaties_berekend":true,"in_gezicht":null},"geometry":{"type":"Point","coordinates":[4.6676485,52.1307418]}},{"type":"Feature","properties":{"id":"jb-loc-1559","reeks":"loc","nr":1559,"naam":"Joodse Begraafplaats","label_punt":"Joodse begraafplaats, Delft","status":"in_gebruik","status_bron":"In gebruik","adres":"Geertruyt van Oostenstraat 53","adres_aanduiding":"bij","postcode":"2612 RP","plaats":"Delft","gemeente_bron":"Delft","provincie_bron":"Zuid-Holland","provincie":"Zuid-Holland","mip":false,"rijksmonument":false,"gemeentelijk_monument":false,"rijksmonumentnummer":null,"rmon_bron":"Geen","link":null,"beschermd_deel":null,"jaartal":1800,"jaartal_bron":"1800","circa":null,"grondvorm":"Recht","met":false,"muur":null,"bijzonderheden":"1800-1940, 25 zerken","grootte_m2":780,"grootte_bron":"780","kadaster":false,"laatste_bezoek":2010,"locatie_precisie":"ingang","terrein_koppelwijze":"binnen_naam_gelijk","terrein_naam_kml":"Joodse begraafplaats, Delft","terrein_opp_m2":781,"lon":4.3712585,"lat":52.013506,"gemeente":"Delft","rijksmonument_rce":null,"gezichten":[],"rijksmonumenten_nabij":[],"archeologisch_nabij":[],"relaties_berekend":true,"in_gezicht":null},"geometry":{"type":"Point","coordinates":[4.3712585,52.013506]}},{"type":"Feature","properties":{"id":"jb-loc-1935","reeks":"loc","nr":1935,"naam":"Joodse Begraafplaats","label_punt":"Joodse begraafplaats, Dirksland","status":"in_gebruik","status_bron":"In gebruik","adres":"Oost Havendijk 8a","adres_aanduiding":"bij","postcode":"3247 LD","plaats":"Dirksland","gemeente_bron":"Goeree-Overflakkee","provincie_bron":"Zuid-Holland","provincie":"Zuid-Holland","mip":false,"rijksmonument":false,"gemeentelijk_monument":false,"rijksmonumentnummer":null,"rmon_bron":"Geen","link":null,"beschermd_deel":null,"jaartal":1847,"jaartal_bron":"1847","circa":null,"grondvorm":"Recht","met":false,"muur":null,"bijzonderheden":"9 zerken","grootte_m2":540,"grootte_bron":"540","kadaster":false,"laatste_bezoek":2024,"locatie_precisie":"ingang","terrein_koppelwijze":"binnen_naam_gelijk","terrein_naam_kml":"Joodse begraafplaats, Dirksland","terrein_opp_m2":540,"lon":4.1048355,"lat":51.7510438,"gemeente":"Goeree-Overflakkee","rijksmonument_rce":null,"gezichten":[],"rijksmonumenten_nabij":[{"rijksmonumentnummer":"31109","naam":null,"functie":"Woonhuis(K)","url":"https://monumentenregister.cultureelerfgoed.nl/monumenten/31109","relatie":"100-250m","afstand_m":193.4},{"rijksmonumentnummer":"10252","naam":null,"functie":"Woonhuis(K)","url":"https://monumentenregister.cultureelerfgoed.nl/monumenten/10252","relatie":"100-250m","afstand_m":245.6}],"archeologisch_nabij":[],"relaties_berekend":true,"in_gezicht":null},"geometry":{"type":"Point","coordinates":[4.1048355,51.7510438]}},{"type":"Feature","properties":{"id":"jb-loc-1912","reeks":"loc","nr":1912,"naam":"Joodse Begraafplaats","label_punt":"Joodse begraafplaats, Dordrecht","status":"in_gebruik","status_bron":"In gebruik","adres":"Nieuweweg 2","adres_aanduiding":"bij","postcode":"3314 JS","plaats":"Dordrecht","gemeente_bron":"Dordrecht","provincie_bron":"Zuid-Holland","provincie":"Zuid-Holland","mip":true,"rijksmonument":true,"gemeentelijk_monument":false,"rijksmonumentnummer":522272,"rmon_bron":"522272","link":"https://monumentenregister.cultureelerfgoed.nl/monumenten/522272","beschermd_deel":"Begraafplaats","jaartal":1871,"jaartal_bron":"1871","circa":null,"grondvorm":"Recht","met":true,"muur":null,"bijzonderheden":"ca 375 zerken","grootte_m2":2100,"grootte_bron":"2100","kadaster":true,"laatste_bezoek":2016,"locatie_precisie":"ingang","terrein_koppelwijze":"binnen_naam_gelijk","terrein_naam_kml":"Joodse begraafplaats, Dordrecht","terrein_opp_m2":2108,"lon":4.6779896,"lat":51.8012888,"gemeente":"Dordrecht","rijksmonument_rce":{"soort":"rijksmonument","nummer":"522272","naam":null,"functie":"Poortgebouw","uri":"https://linkeddata.cultureelerfgoed.nl/cho-kennis/id/rijksmonument/21570","url":"https://monumentenregister.cultureelerfgoed.nl/monumenten/522272","onderdelen":[]},"gezichten":[],"rijksmonumenten_nabij":[{"rijksmonumentnummer":"522272","naam":null,"functie":"Poortgebouw","url":"https://monumentenregister.cultureelerfgoed.nl/monumenten/522272","relatie":"op_terrein","afstand_m":0.0},{"rijksmonumentnummer":"529433","naam":null,"functie":"Begraafplaats","url":"https://monumentenregister.cultureelerfgoed.nl/monumenten/529433","relatie":"100-250m","afstand_m":122.7},{"rijksmonumentnummer":"522270","naam":null,"functie":"Begraafplaats","url":"https://monumentenregister.cultureelerfgoed.nl/monumenten/522270","relatie":"100-250m","afstand_m":194.6},{"rijksmonumentnummer":"529432","naam":null,"functie":"Begraafplaatshek","url":"https://monumentenregister.cultureelerfgoed.nl/monumenten/529432","relatie":"100-250m","afstand_m":194.6},{"rijksmonumentnummer":"13321","naam":null,"functie":"Begraafplaats en -onderdelen","url":"https://monumentenregister.cultureelerfgoed.nl/monumenten/13321","relatie":"100-250m","afstand_m":194.6},{"rijksmonumentnummer":"522271","naam":null,"functie":"Begraafplaatsaula","url":"https://monumentenregister.cultureelerfgoed.nl/monumenten/522271","relatie":"100-250m","afstand_m":194.6}],"archeologisch_nabij":[],"relaties_berekend":true,"in_gezicht":null},"geometry":{"type":"Point","coordinates":[4.6779896,51.8012888]}},{"type":"Feature","properties":{"id":"jb-ver-182","reeks":"ver","nr":182,"naam":"Joodse begraafplaats","label_punt":"Joodse begraafplaats, Dordrecht","status":"verdwenen","status_bron":"Verdwenen","adres":"Hoogt 12","adres_aanduiding":"bij","postcode":"3311 WK","plaats":"Dordrecht","gemeente_bron":"Dordrecht","provincie_bron":"Zuid-Holland","provincie":"Zuid-Holland","mip":null,"rijksmonument":null,"gemeentelijk_monument":null,"rijksmonumentnummer":null,"rmon_bron":null,"link":null,"beschermd_deel":null,"jaartal":1738,"jaartal_bron":"1738","circa":null,"grondvorm":"Recht","met":null,"muur":null,"bijzonderheden":"In 1871 gesloten. In 1958 geruimd. Overgebracht naar Strijen (maar ook nieuwe begraafplaats en Rotterdam?)","grootte_m2":null,"grootte_bron":null,"kadaster":null,"laatste_bezoek":null,"locatie_precisie":"bij_benadering","terrein_koppelwijze":"niet_van_toepassing","terrein_naam_kml":null,"terrein_opp_m2":null,"lon":4.6562949,"lat":51.8111724,"gemeente":"Dordrecht","rijksmonument_rce":null,"gezichten":[],"rijksmonumenten_nabij":[],"archeologisch_nabij":[],"relaties_berekend":false,"in_gezicht":null},"geometry":{"type":"Point","coordinates":[4.6562949,51.8111724]}},{"type":"Feature","properties":{"id":"jb-loc-1714","reeks":"loc","nr":1714,"naam":"Joodse Begraafplaats van Voorne Putten","label_punt":"Joodse begraafplaats, Geervliet","status":"in_gebruik","status_bron":"In gebruik","adres":"Spuikade 2","adres_aanduiding":"tegenover","postcode":"3211 BG","plaats":"Geervliet","gemeente_bron":"Nissewaard","provincie_bron":"Zuid-Holland","provincie":"Zuid-Holland","mip":false,"rijksmonument":true,"gemeentelijk_monument":false,"rijksmonumentnummer":9377,"rmon_bron":"9377","link":"https://monumentenregister.cultureelerfgoed.nl/monumenten/9377","beschermd_deel":"Begraafplaats","jaartal":1781,"jaartal_bron":"1781","circa":null,"grondvorm":"Recht","met":false,"muur":null,"bijzonderheden":"1781-1940, 85 stèles","grootte_m2":1345,"grootte_bron":"1345","kadaster":true,"laatste_bezoek":2005,"locatie_precisie":"ingang","terrein_koppelwijze":"binnen_naam_gelijk","terrein_naam_kml":"Joodse begraafplaats, Geervliet","terrein_opp_m2":1352,"lon":4.2552275,"lat":51.8602692,"gemeente":"Nissewaard","rijksmonument_rce":{"soort":"rijksmonument","nummer":"9377","naam":null,"functie":"Begraafplaats en -onderdelen","uri":"https://linkeddata.cultureelerfgoed.nl/cho-kennis/id/rijksmonument/48477","url":"https://monumentenregister.cultureelerfgoed.nl/monumenten/9377","onderdelen":[]},"gezichten":[{"naam":"Geervliet","gezichtsnummer":"1495","uri":"https://linkeddata.cultureelerfgoed.nl/cho-kennis/id/gezicht/10134363","relatie":"binnen"}],"rijksmonumenten_nabij":[{"rijksmonumentnummer":"9377","naam":null,"functie":"Begraafplaats en -onderdelen","url":"https://monumentenregister.cultureelerfgoed.nl/monumenten/9377","relatie":"25-100m","afstand_m":36.5},{"rijksmonumentnummer":"9376","naam":null,"functie":"Woonhuis(K)","url":"https://monumentenregister.cultureelerfgoed.nl/monumenten/9376","relatie":"25-100m","afstand_m":99.7},{"rijksmonumentnummer":"9364","naam":null,"functie":"Bestuursgebouw en onderdl","url":"https://monumentenregister.cultureelerfgoed.nl/monumenten/9364","relatie":"100-250m","afstand_m":122.9},{"rijksmonumentnummer":"9365","naam":null,"functie":"Werk-woonhuis","url":"https://monumentenregister.cultureelerfgoed.nl/monumenten/9365","relatie":"100-250m","afstand_m":138.8},{"rijksmonumentnummer":"9375","naam":"De Bernisse Molen","functie":"Molen","url":"https://monumentenregister.cultureelerfgoed.nl/monumenten/9375","relatie":"100-250m","afstand_m":139.0},{"rijksmonumentnummer":"9369","naam":null,"functie":"Woonhuis(K)","url":"https://monumentenregister.cultureelerfgoed.nl/monumenten/9369","relatie":"100-250m","afstand_m":182.4},{"rijksmonumentnummer":"9368","naam":null,"functie":"Woonhuis(K)","url":"https://monumentenregister.cultureelerfgoed.nl/monumenten/9368","relatie":"100-250m","afstand_m":184.6},{"rijksmonumentnummer":"9367","naam":null,"functie":"Woonhuis(K)","url":"https://monumentenregister.cultureelerfgoed.nl/monumenten/9367","relatie":"100-250m","afstand_m":193.3},{"rijksmonumentnummer":"9371","naam":null,"functie":"Woonhuis(K)","url":"https://monumentenregister.cultureelerfgoed.nl/monumenten/9371","relatie":"100-250m","afstand_m":194.1},{"rijksmonumentnummer":"9370","naam":null,"functie":"Woonhuis(K)","url":"https://monumentenregister.cultureelerfgoed.nl/monumenten/9370","relatie":"100-250m","afstand_m":200.3},{"rijksmonumentnummer":"9361","naam":null,"functie":"Woonhuis(K)","url":"https://monumentenregister.cultureelerfgoed.nl/monumenten/9361","relatie":"100-250m","afstand_m":238.7},{"rijksmonumentnummer":"9366","naam":null,"functie":"Kerk","url":"https://monumentenregister.cultureelerfgoed.nl/monumenten/9366","relatie":"100-250m","afstand_m":243.6}],"archeologisch_nabij":[],"relaties_berekend":true,"in_gezicht":"binnen"},"geometry":{"type":"Point","coordinates":[4.2552275,51.8602692]}},{"type":"Feature","properties":{"id":"jb-loc-1913","reeks":"loc","nr":1913,"naam":"Joodse Begraafplaats","label_punt":"Joodse begraafplaats, Goedereede","status":"in_gebruik","status_bron":"In gebruik","adres":"Mariadijk 2","adres_aanduiding":"bij","postcode":"3252 BB","plaats":"Goedereede","gemeente_bron":"Goeree-Overflakkee","provincie_bron":"Zuid-Holland","provincie":"Zuid-Holland","mip":false,"rijksmonument":false,"gemeentelijk_monument":false,"rijksmonumentnummer":null,"rmon_bron":"Geen","link":null,"beschermd_deel":null,"jaartal":1812,"jaartal_bron":"1812","circa":null,"grondvorm":"Recht","met":false,"muur":null,"bijzonderheden":"1812-1900, geen stenen","grootte_m2":255,"grootte_bron":"255","kadaster":true,"laatste_bezoek":2024,"locatie_precisie":"ingang","terrein_koppelwijze":"binnen_naam_gelijk","terrein_naam_kml":"Joodse begraafplaats, Goedereede","terrein_opp_m2":257,"lon":3.9723936,"lat":51.8159909,"gemeente":"Goeree-Overflakkee","rijksmonument_rce":null,"gezichten":[],"rijksmonumenten_nabij":[],"archeologisch_nabij":[],"relaties_berekend":true,"in_gezicht":null},"geometry":{"type":"Point","coordinates":[3.9723936,51.8159909]}},{"type":"Feature","properties":{"id":"jb-loc-1844","reeks":"loc","nr":1844,"naam":"Joodse Begraafplaats","label_punt":"Joodse begraafplaats, Gorinchem","status":"in_gebruik","status_bron":"In gebruik","adres":"Willem de Vries Robbéweg 10","adres_aanduiding":null,"postcode":"4206 AL","plaats":"Gorinchem","gemeente_bron":"Gorinchem","provincie_bron":"Zuid-Holland","provincie":"Zuid-Holland","mip":false,"rijksmonument":true,"gemeentelijk_monument":false,"rijksmonumentnummer":525108,"rmon_bron":"525108","link":"https://monumentenregister.cultureelerfgoed.nl/monumenten/525108","beschermd_deel":"Begraafplaats, aula en hek","jaartal":1814,"jaartal_bron":"1814","circa":null,"grondvorm":"Recht","met":true,"muur":null,"bijzonderheden":"134 zerken","grootte_m2":1215,"grootte_bron":"1215","kadaster":true,"laatste_bezoek":2005,"locatie_precisie":"ingang","terrein_koppelwijze":"binnen_naam_gelijk","terrein_naam_kml":"Joodse begraafplaats, Gorinchem","terrein_opp_m2":1219,"lon":4.9786068,"lat":51.8366192,"gemeente":"Gorinchem","rijksmonument_rce":{"soort":"complex","nummer":"525108","naam":"Joodse begraafplaats","uri":"https://linkeddata.cultureelerfgoed.nl/cho-kennis/id/complex/64848","url":"https://monumentenregister.cultureelerfgoed.nl/monumenten/525109","onderdelen":[{"rijksmonumentnummer":"525109","url":"https://monumentenregister.cultureelerfgoed.nl/monumenten/525109","functie":"Begraafplaats","hoofdobject":true},{"rijksmonumentnummer":"525110","url":"https://monumentenregister.cultureelerfgoed.nl/monumenten/525110","functie":"Begraafplaatsaula","hoofdobject":false},{"rijksmonumentnummer":"525111","url":"https://monumentenregister.cultureelerfgoed.nl/monumenten/525111","functie":"Begraafplaatshek","hoofdobject":false}]},"gezichten":[],"rijksmonumenten_nabij":[{"rijksmonumentnummer":"525111","naam":null,"functie":"Begraafplaatshek","url":"https://monumentenregister.cultureelerfgoed.nl/monumenten/525111","relatie":"op_terrein","afstand_m":0.0},{"rijksmonumentnummer":"525109","naam":null,"functie":"Begraafplaats","url":"https://monumentenregister.cultureelerfgoed.nl/monumenten/525109","relatie":"op_terrein","afstand_m":0.0},{"rijksmonumentnummer":"525110","naam":null,"functie":"Begraafplaatsaula","url":"https://monumentenregister.cultureelerfgoed.nl/monumenten/525110","relatie":"op_terrein","afstand_m":0.0},{"rijksmonumentnummer":"525115","naam":null,"functie":"Dienstwoning(K4)","url":"https://monumentenregister.cultureelerfgoed.nl/monumenten/525115","relatie":"100-250m","afstand_m":119.4},{"rijksmonumentnummer":"525113","naam":null,"functie":"Begraafplaats","url":"https://monumentenregister.cultureelerfgoed.nl/monumenten/525113","relatie":"100-250m","afstand_m":119.4},{"rijksmonumentnummer":"525114","naam":null,"functie":"Begraafplaatshek","url":"https://monumentenregister.cultureelerfgoed.nl/monumenten/525114","relatie":"100-250m","afstand_m":119.4},{"rijksmonumentnummer":"525116","naam":null,"functie":"Begraafplaatsaula","url":"https://monumentenregister.cultureelerfgoed.nl/monumenten/525116","relatie":"100-250m","afstand_m":119.4},{"rijksmonumentnummer":"525117","naam":null,"functie":"Begraafplaatshek","url":"https://monumentenregister.cultureelerfgoed.nl/monumenten/525117","relatie":"100-250m","afstand_m":119.4},{"rijksmonumentnummer":"525105","naam":null,"functie":"Schutsluis","url":"https://monumentenregister.cultureelerfgoed.nl/monumenten/525105","relatie":"100-250m","afstand_m":184.2},{"rijksmonumentnummer":"525102","naam":null,"functie":"Kantoorgebouw","url":"https://monumentenregister.cultureelerfgoed.nl/monumenten/525102","relatie":"100-250m","afstand_m":203.7},{"rijksmonumentnummer":"525103","naam":null,"functie":"Lantaarnpaal","url":"https://monumentenregister.cultureelerfgoed.nl/monumenten/525103","relatie":"100-250m","afstand_m":203.7},{"rijksmonumentnummer":"525107","naam":null,"functie":"Schuilhokje","url":"https://monumentenregister.cultureelerfgoed.nl/monumenten/525107","relatie":"100-250m","afstand_m":238.9}],"archeologisch_nabij":[],"relaties_berekend":true,"in_gezicht":null},"geometry":{"type":"Point","coordinates":[4.9786068,51.8366192]}},{"type":"Feature","properties":{"id":"jb-ver-280","reeks":"ver","nr":280,"naam":"Joodse Begraafplaats","label_punt":"Joodse begraafplaats, Gouda","status":"verdwenen","status_bron":"Verdwenen","adres":"Bloemendaalse Weg 89","adres_aanduiding":"bij","postcode":"2803 AW","plaats":"Gouda","gemeente_bron":"Gouda","provincie_bron":"Zuid-Holland","provincie":"Zuid-Holland","mip":null,"rijksmonument":null,"gemeentelijk_monument":null,"rijksmonumentnummer":null,"rmon_bron":null,"link":null,"beschermd_deel":null,"jaartal":1930,"jaartal_bron":"1930","circa":null,"grondvorm":"Recht","met":null,"muur":null,"bijzonderheden":"In 1976 ivm hoge waterstand geruimd en overgebracht naar Wageningen","grootte_m2":null,"grootte_bron":null,"kadaster":null,"laatste_bezoek":null,"locatie_precisie":"bij_benadering","terrein_koppelwijze":"niet_van_toepassing","terrein_naam_kml":null,"terrein_opp_m2":null,"lon":4.7066487,"lat":52.0236997,"gemeente":"Gouda","rijksmonument_rce":null,"gezichten":[],"rijksmonumenten_nabij":[],"archeologisch_nabij":[],"relaties_berekend":false,"in_gezicht":null},"geometry":{"type":"Point","coordinates":[4.7066487,52.0236997]}},{"type":"Feature","properties":{"id":"jb-ver-281","reeks":"ver","nr":281,"naam":"Oude Joodse Begraafplaats","label_punt":"Oude joodse begraafplaats, Gouda","status":"verdwenen","status_bron":"Verdwenen","adres":"Boelekade 3","adres_aanduiding":"bij","postcode":"2801 PD","plaats":"Gouda","gemeente_bron":"Gouda","provincie_bron":"Zuid-Holland","provincie":"Zuid-Holland","mip":null,"rijksmonument":null,"gemeentelijk_monument":null,"rijksmonumentnummer":null,"rmon_bron":null,"link":null,"beschermd_deel":null,"jaartal":1815,"jaartal_bron":"1815","circa":null,"grondvorm":"Recht","met":null,"muur":null,"bijzonderheden":"In 1976 ivm hoge waterstand geruimd en overgebracht naar Wageningen","grootte_m2":null,"grootte_bron":null,"kadaster":null,"laatste_bezoek":null,"locatie_precisie":"bij_benadering","terrein_koppelwijze":"niet_van_toepassing","terrein_naam_kml":null,"terrein_opp_m2":null,"lon":4.7100026,"lat":52.0161317,"gemeente":"Gouda","rijksmonument_rce":null,"gezichten":[],"rijksmonumenten_nabij":[],"archeologisch_nabij":[],"relaties_berekend":false,"in_gezicht":null},"geometry":{"type":"Point","coordinates":[4.7100026,52.0161317]}},{"type":"Feature","properties":{"id":"jb-loc-4189","reeks":"loc","nr":4189,"naam":"Joodse Begraafplaats","label_punt":"Joodse begraafplaats, Katwijk aan den Rijn","status":"in_gebruik","status_bron":"In gebruik","adres":"Rijnstraat 151","adres_aanduiding":null,"postcode":"2223 EA","plaats":"Katwijk","gemeente_bron":"Katwijk","provincie_bron":"Zuid-Holland","provincie":"Zuid-Holland","mip":false,"rijksmonument":true,"gemeentelijk_monument":false,"rijksmonumentnummer":23527,"rmon_bron":"23527","link":"https://monumentenregister.cultureelerfgoed.nl/monumenten/23527","beschermd_deel":"Begraafplaats","jaartal":1758,"jaartal_bron":"1758","circa":null,"grondvorm":"Recht","met":true,"muur":null,"bijzonderheden":"ca 450 zerken, met name voor Leiden","grootte_m2":3375,"grootte_bron":"3375","kadaster":true,"laatste_bezoek":2023,"locatie_precisie":"ingang","terrein_koppelwijze":"binnen_naam_gelijk","terrein_naam_kml":"Joodse begraafplaats, Katwijk aan den Rijn","terrein_opp_m2":3386,"lon":4.4217855,"lat":52.1981616,"gemeente":"Katwijk","rijksmonument_rce":{"soort":"rijksmonument","nummer":"23527","naam":null,"functie":"Begraafplaats en -onderdelen","uri":"https://linkeddata.cultureelerfgoed.nl/cho-kennis/id/rijksmonument/60084","url":"https://monumentenregister.cultureelerfgoed.nl/monumenten/23527","onderdelen":[]},"gezichten":[],"rijksmonumenten_nabij":[{"rijksmonumentnummer":"23527","naam":null,"functie":"Begraafplaats en -onderdelen","url":"https://monumentenregister.cultureelerfgoed.nl/monumenten/23527","relatie":"0-25m","afstand_m":4.7},{"rijksmonumentnummer":"509339","naam":"Notabelenwoning","functie":"Woonhuis(K)","url":"https://monumentenregister.cultureelerfgoed.nl/monumenten/509339","relatie":"25-100m","afstand_m":93.3},{"rijksmonumentnummer":"23522","naam":null,"functie":"Sociale zorg, liefdadigheid","url":"https://monumentenregister.cultureelerfgoed.nl/monumenten/23522","relatie":"100-250m","afstand_m":160.3},{"rijksmonumentnummer":"23516","naam":null,"functie":"Onderwijs en wetenschap","url":"https://monumentenregister.cultureelerfgoed.nl/monumenten/23516","relatie":"100-250m","afstand_m":227.4},{"rijksmonumentnummer":"23517","naam":null,"functie":"Kerk","url":"https://monumentenregister.cultureelerfgoed.nl/monumenten/23517","relatie":"100-250m","afstand_m":231.8},{"rijksmonumentnummer":"23518","naam":null,"functie":"Begraafplaats en -onderdelen","url":"https://monumentenregister.cultureelerfgoed.nl/monumenten/23518","relatie":"100-250m","afstand_m":231.9}],"archeologisch_nabij":[],"relaties_berekend":true,"in_gezicht":null},"geometry":{"type":"Point","coordinates":[4.4217855,52.1981616]}},{"type":"Feature","properties":{"id":"jb-ver-107","reeks":"ver","nr":107,"naam":"Joodse armenbegraafplaats","label_punt":"Joodse armenbegraafplaats, Leiden","status":"verdwenen","status_bron":"Verdwenen","adres":"bij molen De Valk","adres_aanduiding":null,"postcode":"2312 CK","plaats":"Leiden","gemeente_bron":"Leiden","provincie_bron":"Zuid-Holland","provincie":"Zuid-Holland","mip":null,"rijksmonument":null,"gemeentelijk_monument":null,"rijksmonumentnummer":null,"rmon_bron":null,"link":null,"beschermd_deel":null,"jaartal":1869,"jaartal_bron":"1869","circa":null,"grondvorm":"Recht","met":null,"muur":null,"bijzonderheden":"in 1961 geruimd","grootte_m2":null,"grootte_bron":null,"kadaster":null,"laatste_bezoek":null,"locatie_precisie":"bij_benadering","terrein_koppelwijze":"niet_van_toepassing","terrein_naam_kml":null,"terrein_opp_m2":null,"lon":4.4877338,"lat":52.1642324,"gemeente":"Leiden","rijksmonument_rce":null,"gezichten":[],"rijksmonumenten_nabij":[],"archeologisch_nabij":[],"relaties_berekend":false,"in_gezicht":null},"geometry":{"type":"Point","coordinates":[4.4877338,52.1642324]}},{"type":"Feature","properties":{"id":"jb-ver-105","reeks":"ver","nr":105,"naam":"Oude Joodse Begraafplaats","label_punt":"Oude joodse begraafplaats, Leiden","status":"verdwenen","status_bron":"Verdwenen","adres":"Blauwe bolwerk","adres_aanduiding":null,"postcode":"2300 AA","plaats":"Leiden","gemeente_bron":"Leiden","provincie_bron":"Zuid-Holland","provincie":"Zuid-Holland","mip":null,"rijksmonument":null,"gemeentelijk_monument":null,"rijksmonumentnummer":null,"rmon_bron":null,"link":null,"beschermd_deel":null,"jaartal":1719,"jaartal_bron":"1719","circa":null,"grondvorm":"Recht","met":null,"muur":null,"bijzonderheden":"na 1758 geruimd, overgebracht naar Katwijk. Nu Sterrenwacht","grootte_m2":null,"grootte_bron":null,"kadaster":null,"laatste_bezoek":null,"locatie_precisie":"bij_benadering","terrein_koppelwijze":"niet_van_toepassing","terrein_naam_kml":null,"terrein_opp_m2":null,"lon":4.4838529,"lat":52.154936,"gemeente":"Leiden","rijksmonument_rce":null,"gezichten":[],"rijksmonumenten_nabij":[],"archeologisch_nabij":[],"relaties_berekend":false,"in_gezicht":null},"geometry":{"type":"Point","coordinates":[4.4838529,52.154936]}},{"type":"Feature","properties":{"id":"jb-loc-3452","reeks":"loc","nr":3452,"naam":"Joodse Begraafplaats","label_punt":"Joodse begraafplaats, Lekkerkerk","status":"in_gebruik","status_bron":"In gebruik","adres":"Kerkweg 149","adres_aanduiding":"bij","postcode":"2941 BJ","plaats":"Lekkerkerk","gemeente_bron":"Krimpenerwaard","provincie_bron":"Zuid-Holland","provincie":"Zuid-Holland","mip":false,"rijksmonument":false,"gemeentelijk_monument":true,"rijksmonumentnummer":null,"rmon_bron":"Geen","link":null,"beschermd_deel":"Begraafplaats","jaartal":1866,"jaartal_bron":"1866","circa":null,"grondvorm":"Recht","met":false,"muur":null,"bijzonderheden":"6 zerken","grootte_m2":150,"grootte_bron":"150","kadaster":false,"laatste_bezoek":2016,"locatie_precisie":"ingang","terrein_koppelwijze":"binnen_naam_gelijk","terrein_naam_kml":"Joodse begraafplaats, Lekkerkerk","terrein_opp_m2":154,"lon":4.6837425,"lat":51.9026238,"gemeente":"Krimpenerwaard","rijksmonument_rce":null,"gezichten":[],"rijksmonumenten_nabij":[],"archeologisch_nabij":[],"relaties_berekend":true,"in_gezicht":null},"geometry":{"type":"Point","coordinates":[4.6837425,51.9026238]}},{"type":"Feature","properties":{"id":"jb-loc-4140","reeks":"loc","nr":4140,"naam":"Joodse Begraafplaats op Algemene Begraafplaats","label_punt":"Joodse begraafplaats, Maassluis","status":"in_gebruik","status_bron":"In gebruik","adres":"Willem de Zwijgerstraat 36","adres_aanduiding":null,"postcode":"3143 LR","plaats":"Maassluis","gemeente_bron":"Maassluis","provincie_bron":"Zuid-Holland","provincie":"Zuid-Holland","mip":false,"rijksmonument":false,"gemeentelijk_monument":false,"rijksmonumentnummer":null,"rmon_bron":"Geen","link":null,"beschermd_deel":null,"jaartal":1950,"jaartal_bron":"1950","circa":null,"grondvorm":"Recht","met":false,"muur":null,"bijzonderheden":"23 zerken, in 1950 overgebracht van oude begraafplaats","grootte_m2":200,"grootte_bron":"200","kadaster":false,"laatste_bezoek":2023,"locatie_precisie":"ingang","terrein_koppelwijze":"binnen_naam_gelijk","terrein_naam_kml":"Joodse begraafplaats, Maassluis","terrein_opp_m2":198,"lon":4.2566003,"lat":51.9158603,"gemeente":"Maassluis","rijksmonument_rce":null,"gezichten":[],"rijksmonumenten_nabij":[{"rijksmonumentnummer":"521884","naam":null,"functie":"Dienstwoning(K4)","url":"https://monumentenregister.cultureelerfgoed.nl/monumenten/521884","relatie":"100-250m","afstand_m":195.9},{"rijksmonumentnummer":"521883","naam":"Dieselgemaal Mr.Dr. C.P. Zaayer","functie":"Machinehuis","url":"https://monumentenregister.cultureelerfgoed.nl/monumenten/521883","relatie":"100-250m","afstand_m":225.1}],"archeologisch_nabij":[],"relaties_berekend":true,"in_gezicht":null},"geometry":{"type":"Point","coordinates":[4.2566003,51.9158603]}},{"type":"Feature","properties":{"id":"jb-ver-425","reeks":"ver","nr":425,"naam":"Joodse begraafplaats","label_punt":"Joodse begraafplats, Maassluis","status":"verdwenen","status_bron":"Verdwenen","adres":"Mackayplein 40","adres_aanduiding":"bij","postcode":"3144 CK","plaats":"Maassluis","gemeente_bron":"Maassluis","provincie_bron":"Zuid-Holland","provincie":"Zuid-Holland","mip":null,"rijksmonument":null,"gemeentelijk_monument":null,"rijksmonumentnummer":null,"rmon_bron":null,"link":null,"beschermd_deel":null,"jaartal":null,"jaartal_bron":"onbekend","circa":null,"grondvorm":"Recht","met":null,"muur":null,"bijzonderheden":"In 1950 geruimd, overgebracht naar gemeentelijke begraafplaats","grootte_m2":null,"grootte_bron":null,"kadaster":null,"laatste_bezoek":null,"locatie_precisie":"bij_benadering","terrein_koppelwijze":"niet_van_toepassing","terrein_naam_kml":null,"terrein_opp_m2":null,"lon":4.2488789,"lat":51.922245,"gemeente":"Maassluis","rijksmonument_rce":null,"gezichten":[],"rijksmonumenten_nabij":[],"archeologisch_nabij":[],"relaties_berekend":false,"in_gezicht":null},"geometry":{"type":"Point","coordinates":[4.2488789,51.922245]}},{"type":"Feature","properties":{"id":"jb-loc-1944","reeks":"loc","nr":1944,"naam":"Joodse Begraafplaats","label_punt":"Joodse begraafplaats, Middelharnis","status":"in_gebruik","status_bron":"In gebruik","adres":"Hoflaan","adres_aanduiding":null,"postcode":"3241 AC","plaats":"Middelharnis","gemeente_bron":"Goeree-Overflakkee","provincie_bron":"Zuid-Holland","provincie":"Zuid-Holland","mip":false,"rijksmonument":false,"gemeentelijk_monument":false,"rijksmonumentnummer":null,"rmon_bron":"Geen","link":null,"beschermd_deel":null,"jaartal":1865,"jaartal_bron":"1865","circa":null,"grondvorm":"Recht","met":false,"muur":null,"bijzonderheden":"56 zerken","grootte_m2":585,"grootte_bron":"585","kadaster":false,"laatste_bezoek":2024,"locatie_precisie":"ingang","terrein_koppelwijze":"binnen_naam_gelijk","terrein_naam_kml":"Joodse begraafplaats, Middelharnis","terrein_opp_m2":586,"lon":4.1619082,"lat":51.7582398,"gemeente":"Goeree-Overflakkee","rijksmonument_rce":null,"gezichten":[],"rijksmonumenten_nabij":[{"rijksmonumentnummer":"527253","naam":null,"functie":"Woonhuis","url":"https://monumentenregister.cultureelerfgoed.nl/monumenten/527253","relatie":"100-250m","afstand_m":142.7},{"rijksmonumentnummer":"29749","naam":null,"functie":"Woonhuis(K)","url":"https://monumentenregister.cultureelerfgoed.nl/monumenten/29749","relatie":"100-250m","afstand_m":209.6},{"rijksmonumentnummer":"29769","naam":null,"functie":"Woonhuis(K)","url":"https://monumentenregister.cultureelerfgoed.nl/monumenten/29769","relatie":"100-250m","afstand_m":219.5},{"rijksmonumentnummer":"29770","naam":null,"functie":"Woonhuis(K)","url":"https://monumentenregister.cultureelerfgoed.nl/monumenten/29770","relatie":"100-250m","afstand_m":219.9},{"rijksmonumentnummer":"29768","naam":null,"functie":"Woonhuis(K)","url":"https://monumentenregister.cultureelerfgoed.nl/monumenten/29768","relatie":"100-250m","afstand_m":220.5},{"rijksmonumentnummer":"29750","naam":null,"functie":"Kerk","url":"https://monumentenregister.cultureelerfgoed.nl/monumenten/29750","relatie":"100-250m","afstand_m":223.8},{"rijksmonumentnummer":"29751","naam":null,"functie":"Kerk en kerkonderdeel","url":"https://monumentenregister.cultureelerfgoed.nl/monumenten/29751","relatie":"100-250m","afstand_m":223.8},{"rijksmonumentnummer":"29771","naam":null,"functie":"Handel en kantoor","url":"https://monumentenregister.cultureelerfgoed.nl/monumenten/29771","relatie":"100-250m","afstand_m":227.0},{"rijksmonumentnummer":"29773","naam":null,"functie":"Woonhuis(K)","url":"https://monumentenregister.cultureelerfgoed.nl/monumenten/29773","relatie":"100-250m","afstand_m":230.5},{"rijksmonumentnummer":"29772","naam":null,"functie":"Woonhuis(K)","url":"https://monumentenregister.cultureelerfgoed.nl/monumenten/29772","relatie":"100-250m","afstand_m":232.7},{"rijksmonumentnummer":"29774","naam":null,"functie":"Woonhuis(K)","url":"https://monumentenregister.cultureelerfgoed.nl/monumenten/29774","relatie":"100-250m","afstand_m":233.3},{"rijksmonumentnummer":"29748","naam":null,"functie":"Bestuursgebouw en onderdl","url":"https://monumentenregister.cultureelerfgoed.nl/monumenten/29748","relatie":"100-250m","afstand_m":237.6},{"rijksmonumentnummer":"29785","naam":null,"functie":"Woonhuis(K)","url":"https://monumentenregister.cultureelerfgoed.nl/monumenten/29785","relatie":"100-250m","afstand_m":243.6},{"rijksmonumentnummer":"29783","naam":null,"functie":"Woonhuis(K)","url":"https://monumentenregister.cultureelerfgoed.nl/monumenten/29783","relatie":"100-250m","afstand_m":244.6},{"rijksmonumentnummer":"29775","naam":null,"functie":"Woonhuis(K)","url":"https://monumentenregister.cultureelerfgoed.nl/monumenten/29775","relatie":"100-250m","afstand_m":246.9}],"archeologisch_nabij":[],"relaties_berekend":true,"in_gezicht":null},"geometry":{"type":"Point","coordinates":[4.1619082,51.7582398]}},{"type":"Feature","properties":{"id":"jb-loc-1660","reeks":"loc","nr":1660,"naam":"Joodse Begraafplaats","label_punt":"Joodse begraafplaats, Naaldwijk","status":"in_gebruik","status_bron":"In gebruik","adres":"Opstalweg 20","adres_aanduiding":"bij","postcode":"2671 LX","plaats":"Naaldwijk","gemeente_bron":"Westland","provincie_bron":"Zuid-Holland","provincie":"Zuid-Holland","mip":false,"rijksmonument":false,"gemeentelijk_monument":true,"rijksmonumentnummer":null,"rmon_bron":"Geen","link":null,"beschermd_deel":"Begraafplaats","jaartal":1793,"jaartal_bron":"1793","circa":null,"grondvorm":"Recht","met":false,"muur":null,"bijzonderheden":"31 zerken","grootte_m2":1100,"grootte_bron":"1100","kadaster":true,"laatste_bezoek":2007,"locatie_precisie":"ingang","terrein_koppelwijze":"binnen_naam_gelijk","terrein_naam_kml":"Joodse begraafplaats, Naaldwijk","terrein_opp_m2":1103,"lon":4.1946378,"lat":51.9952574,"gemeente":"Westland","rijksmonument_rce":null,"gezichten":[],"rijksmonumenten_nabij":[],"archeologisch_nabij":[],"relaties_berekend":true,"in_gezicht":null},"geometry":{"type":"Point","coordinates":[4.1946378,51.9952574]}},{"type":"Feature","properties":{"id":"jb-loc-1397","reeks":"loc","nr":1397,"naam":"Joodse Begraafplaats","label_punt":"Joodse begraafplaats, Oud Beijerland","status":"in_gebruik","status_bron":"In gebruik","adres":"Prinses Irenestraat","adres_aanduiding":null,"postcode":"3261 AP","plaats":"Oud Beijerland","gemeente_bron":"Hoeksche Waard","provincie_bron":"Zuid-Holland","provincie":"Zuid-Holland","mip":false,"rijksmonument":false,"gemeentelijk_monument":true,"rijksmonumentnummer":null,"rmon_bron":"Geen","link":null,"beschermd_deel":"Begraafplaats","jaartal":1790,"jaartal_bron":"1790","circa":null,"grondvorm":"Recht","met":false,"muur":null,"bijzonderheden":"1790-1948, 65 zerken","grootte_m2":1430,"grootte_bron":"1430","kadaster":true,"laatste_bezoek":2022,"locatie_precisie":"ingang","terrein_koppelwijze":"binnen_naam_gelijk","terrein_naam_kml":"Joodse begraafplaats, Oud Beijerland","terrein_opp_m2":1432,"lon":4.420426,"lat":51.8231068,"gemeente":"Hoeksche Waard","rijksmonument_rce":null,"gezichten":[],"rijksmonumenten_nabij":[],"archeologisch_nabij":[],"relaties_berekend":true,"in_gezicht":null},"geometry":{"type":"Point","coordinates":[4.420426,51.8231068]}},{"type":"Feature","properties":{"id":"jb-loc-874","reeks":"loc","nr":874,"naam":"Joodse Begraafplaats op Algemene Begraafplaats","label_punt":"Joods deel begraafplaats Oud-Rijswijk, Rijswijk","status":"in_gebruik","status_bron":"In gebruik","adres":"Winston Churchilllaan 233","adres_aanduiding":null,"postcode":"2282 JS","plaats":"Rijswijk","gemeente_bron":"Rijswijk","provincie_bron":"Zuid-Holland","provincie":"Zuid-Holland","mip":false,"rijksmonument":false,"gemeentelijk_monument":false,"rijksmonumentnummer":null,"rmon_bron":"Geen","link":null,"beschermd_deel":null,"jaartal":1937,"jaartal_bron":"1937","circa":null,"grondvorm":"Recht","met":false,"muur":null,"bijzonderheden":null,"grootte_m2":110,"grootte_bron":"110","kadaster":false,"laatste_bezoek":2020,"locatie_precisie":"ingang","terrein_koppelwijze":"binnen_naamvariant","terrein_naam_kml":"Joods deel op Oud Rijswijk, Rijswijk","terrein_opp_m2":112,"lon":4.3377479,"lat":52.0469267,"gemeente":"Rijswijk","rijksmonument_rce":null,"gezichten":[],"rijksmonumenten_nabij":[{"rijksmonumentnummer":"518125","naam":null,"functie":"Aula","url":"https://monumentenregister.cultureelerfgoed.nl/monumenten/518125","relatie":"100-250m","afstand_m":145.8},{"rijksmonumentnummer":"518126","naam":null,"functie":"Toegangshek","url":"https://monumentenregister.cultureelerfgoed.nl/monumenten/518126","relatie":"100-250m","afstand_m":146.6},{"rijksmonumentnummer":"518124","naam":null,"functie":"Begraafplaats","url":"https://monumentenregister.cultureelerfgoed.nl/monumenten/518124","relatie":"100-250m","afstand_m":146.6}],"archeologisch_nabij":[],"relaties_berekend":true,"in_gezicht":null},"geometry":{"type":"Point","coordinates":[4.3377479,52.0469267]}},{"type":"Feature","properties":{"id":"jb-loc-243","reeks":"loc","nr":243,"naam":"Liberaal Joodse Begraafplaats Beth Hachaim","label_punt":"Liberaal Joodse begraafplaats, Rijswijk","status":"in_gebruik","status_bron":"In gebruik","adres":"Eikelenburglaan 7","adres_aanduiding":null,"postcode":"2286 KA","plaats":"Rijswijk","gemeente_bron":"Rijswijk","provincie_bron":"Zuid-Holland","provincie":"Zuid-Holland","mip":false,"rijksmonument":false,"gemeentelijk_monument":false,"rijksmonumentnummer":null,"rmon_bron":"Geen","link":null,"beschermd_deel":null,"jaartal":1990,"jaartal_bron":"1990","circa":null,"grondvorm":"Recht","met":false,"muur":null,"bijzonderheden":null,"grootte_m2":580,"grootte_bron":"580","kadaster":false,"laatste_bezoek":2018,"locatie_precisie":"ingang","terrein_koppelwijze":"binnen_naam_gelijk","terrein_naam_kml":"Liberaal Joodse begraafplaats, Rijswijk","terrein_opp_m2":587,"lon":4.3094074,"lat":52.0209155,"gemeente":"Rijswijk","rijksmonument_rce":null,"gezichten":[],"rijksmonumenten_nabij":[],"archeologisch_nabij":[],"relaties_berekend":true,"in_gezicht":null},"geometry":{"type":"Point","coordinates":[4.3094074,52.0209155]}},{"type":"Feature","properties":{"id":"jb-loc-4200","reeks":"loc","nr":4200,"naam":"Het Toepad","label_punt":"Joodse begraafplaats Toepad, Rotterdam","status":"in_gebruik","status_bron":"In gebruik","adres":"Toepad 65","adres_aanduiding":null,"postcode":"3063 NJ","plaats":"Rotterdam","gemeente_bron":"Rotterdam","provincie_bron":"Zuid-Holland","provincie":"Zuid-Holland","mip":false,"rijksmonument":true,"gemeentelijk_monument":false,"rijksmonumentnummer":32923,"rmon_bron":"32923","link":"https://monumentenregister.cultureelerfgoed.nl/monumenten/32923","beschermd_deel":"Begraafplaats","jaartal":1895,"jaartal_bron":"1895","circa":null,"grondvorm":"Recht","met":true,"muur":null,"bijzonderheden":null,"grootte_m2":27900,"grootte_bron":"27900","kadaster":true,"laatste_bezoek":2019,"locatie_precisie":"ingang","terrein_koppelwijze":"binnen_naamvariant","terrein_naam_kml":"Joodse begraafplaats Het Toepad, Rotterdam","terrein_opp_m2":28026,"lon":4.5330266,"lat":51.9100747,"gemeente":"Rotterdam","rijksmonument_rce":{"soort":"rijksmonument","nummer":"32923","naam":null,"functie":"Begraafplaats en -onderdelen","uri":"https://linkeddata.cultureelerfgoed.nl/cho-kennis/id/rijksmonument/26672","url":"https://monumentenregister.cultureelerfgoed.nl/monumenten/32923","onderdelen":[]},"gezichten":[],"rijksmonumenten_nabij":[{"rijksmonumentnummer":"32923","naam":null,"functie":"Begraafplaats en -onderdelen","url":"https://monumentenregister.cultureelerfgoed.nl/monumenten/32923","relatie":"op_terrein","afstand_m":0.0}],"archeologisch_nabij":[],"relaties_berekend":true,"in_gezicht":null},"geometry":{"type":"Point","coordinates":[4.5330266,51.9100747]}},{"type":"Feature","properties":{"id":"jb-loc-3618","reeks":"loc","nr":3618,"naam":"Joodse Begraafplaats Delfshaven","label_punt":"Joodse begraafplaats Delfshaven, Rotterdam","status":"in_gebruik","status_bron":"In gebruik","adres":"Kerkepad 13","adres_aanduiding":null,"postcode":"3024 CJ","plaats":"Rotterdam","gemeente_bron":"Rotterdam","provincie_bron":"Zuid-Holland","provincie":"Zuid-Holland","mip":false,"rijksmonument":false,"gemeentelijk_monument":false,"rijksmonumentnummer":null,"rmon_bron":"Geen","link":null,"beschermd_deel":null,"jaartal":1865,"jaartal_bron":"1865","circa":null,"grondvorm":"Recht","met":false,"muur":null,"bijzonderheden":"1865-1898, maakte deel uit van begraafplaats Schoonderlo, geruimd 1923","grootte_m2":200,"grootte_bron":"200","kadaster":false,"laatste_bezoek":2022,"locatie_precisie":"ingang","terrein_koppelwijze":"binnen_naam_gelijk","terrein_naam_kml":"Joodse begraafplaats Delfshaven, Rotterdam","terrein_opp_m2":197,"lon":4.4573557,"lat":51.9059871,"gemeente":"Rotterdam","rijksmonument_rce":null,"gezichten":[],"rijksmonumenten_nabij":[{"rijksmonumentnummer":"524330","naam":"Rotterdamsch Lyceum","functie":"Schoolgebouw","url":"https://monumentenregister.cultureelerfgoed.nl/monumenten/524330","relatie":"25-100m","afstand_m":34.4},{"rijksmonumentnummer":"524329","naam":"Zeevaartschool","functie":"Schoolgebouw","url":"https://monumentenregister.cultureelerfgoed.nl/monumenten/524329","relatie":"100-250m","afstand_m":133.9},{"rijksmonumentnummer":"524328","naam":"Oceaanhuis (Vm. Stokvisgebouw)","functie":"Kantoorgebouw","url":"https://monumentenregister.cultureelerfgoed.nl/monumenten/524328","relatie":"100-250m","afstand_m":170.9},{"rijksmonumentnummer":"524325","naam":"Drukkerij en Uitgeverij Wyt","functie":"Drukkerij","url":"https://monumentenregister.cultureelerfgoed.nl/monumenten/524325","relatie":"100-250m","afstand_m":173.3},{"rijksmonumentnummer":"524326","naam":"Vm. kantoor Scheepvaartver. Zuid","functie":"Kantoorgebouw","url":"https://monumentenregister.cultureelerfgoed.nl/monumenten/524326","relatie":"100-250m","afstand_m":199.3}],"archeologisch_nabij":[],"relaties_berekend":true,"in_gezicht":null},"geometry":{"type":"Point","coordinates":[4.4573557,51.9059871]}},{"type":"Feature","properties":{"id":"jb-loc-1478","reeks":"loc","nr":1478,"naam":"Joodse Begraafplaats Oostzeedijk (gemengd)","label_punt":"Joodse begraafplaats Oostzeedijk, Rotterdam","status":"in_gebruik","status_bron":"In gebruik","adres":"Oostzeedijk 276","adres_aanduiding":null,"postcode":"3063 CA","plaats":"Rotterdam","gemeente_bron":"Rotterdam","provincie_bron":"Zuid-Holland","provincie":"Zuid-Holland","mip":false,"rijksmonument":false,"gemeentelijk_monument":true,"rijksmonumentnummer":null,"rmon_bron":"Geen","link":null,"beschermd_deel":"Begraafplaats","jaartal":1696,"jaartal_bron":"1696","circa":null,"grondvorm":"Recht","met":false,"muur":null,"bijzonderheden":"1696-1833, 195 zerken","grootte_m2":900,"grootte_bron":"900","kadaster":false,"laatste_bezoek":2016,"locatie_precisie":"ingang","terrein_koppelwijze":"binnen_naam_gelijk","terrein_naam_kml":"Joodse begraafplaats Oostzeedijk, Rotterdam","terrein_opp_m2":913,"lon":4.503172,"lat":51.9220034,"gemeente":"Rotterdam","rijksmonument_rce":null,"gezichten":[],"rijksmonumenten_nabij":[{"rijksmonumentnummer":"32785","naam":null,"functie":"Erfscheiding(D)","url":"https://monumentenregister.cultureelerfgoed.nl/monumenten/32785","relatie":"100-250m","afstand_m":205.5}],"archeologisch_nabij":[],"relaties_berekend":true,"in_gezicht":null},"geometry":{"type":"Point","coordinates":[4.503172,51.9220034]}},{"type":"Feature","properties":{"id":"jb-ver-361","reeks":"ver","nr":361,"naam":"Joodse begraafplaats Dijkstraat","label_punt":"Joodse begraafplaats, Rotterdam","status":"verdwenen","status_bron":"Verdwenen","adres":"Eikenpage 43","adres_aanduiding":"bij","postcode":"3061 WS","plaats":"Rotterdam","gemeente_bron":"Rotterdam","provincie_bron":"Zuid-Holland","provincie":"Zuid-Holland","mip":null,"rijksmonument":null,"gemeentelijk_monument":"Geen","rijksmonumentnummer":null,"rmon_bron":"geen","link":null,"beschermd_deel":null,"jaartal":1737,"jaartal_bron":"1737","circa":null,"grondvorm":"Recht","met":null,"muur":null,"bijzonderheden":"-1940, overgebracht naar Toepad","grootte_m2":null,"grootte_bron":null,"kadaster":null,"laatste_bezoek":null,"locatie_precisie":"bij_benadering","terrein_koppelwijze":"niet_van_toepassing","terrein_naam_kml":null,"terrein_opp_m2":null,"lon":4.5051566,"lat":51.9246427,"gemeente":"Rotterdam","rijksmonument_rce":null,"gezichten":[],"rijksmonumenten_nabij":[],"archeologisch_nabij":[],"relaties_berekend":false,"in_gezicht":null},"geometry":{"type":"Point","coordinates":[4.5051566,51.9246427]}},{"type":"Feature","properties":{"id":"jb-ver-471","reeks":"ver","nr":471,"naam":"Portugees Israëlitische Begraafplaats Crooswijk","label_punt":"Portugees-Joodse begraafplaats Crooswijk, Rotterdam","status":"verdwenen","status_bron":"Verdwenen","adres":"Nieuwe Crooswijkseweg 123","adres_aanduiding":"bij","postcode":"3034 PN","plaats":"Rotterdam","gemeente_bron":"Rotterdam","provincie_bron":"Zuid-Holland","provincie":"Zuid-Holland","mip":null,"rijksmonument":null,"gemeentelijk_monument":null,"rijksmonumentnummer":null,"rmon_bron":null,"link":null,"beschermd_deel":null,"jaartal":1696,"jaartal_bron":"1696","circa":null,"grondvorm":"Recht","met":null,"muur":null,"bijzonderheden":"-1807. Later RK begraafplaats Crooswijk","grootte_m2":null,"grootte_bron":null,"kadaster":null,"laatste_bezoek":null,"locatie_precisie":"bij_benadering","terrein_koppelwijze":"niet_van_toepassing","terrein_naam_kml":null,"terrein_opp_m2":null,"lon":4.4957784,"lat":51.9344202,"gemeente":"Rotterdam","rijksmonument_rce":null,"gezichten":[],"rijksmonumenten_nabij":[],"archeologisch_nabij":[],"relaties_berekend":false,"in_gezicht":null},"geometry":{"type":"Point","coordinates":[4.4957784,51.9344202]}},{"type":"Feature","properties":{"id":"jb-ver-872","reeks":"ver","nr":872,"naam":"Portugees Israëlitische Begraafplaats Crooswijk","label_punt":"Portugees-Israelitische begraafplaats, Rotterdam","status":"verdwenen","status_bron":"Verdwenen","adres":"Kerkhoflaan 5","adres_aanduiding":"bij","postcode":"3034 TA","plaats":"Rotterdam","gemeente_bron":"Rotterdam","provincie_bron":"Zuid-Holland","provincie":"Zuid-Holland","mip":null,"rijksmonument":null,"gemeentelijk_monument":"Geen","rijksmonumentnummer":null,"rmon_bron":"geen","link":null,"beschermd_deel":null,"jaartal":1877,"jaartal_bron":"1877","circa":null,"grondvorm":"Recht","met":null,"muur":null,"bijzonderheden":"Eind 19de eeuw verdwenen","grootte_m2":null,"grootte_bron":null,"kadaster":null,"laatste_bezoek":null,"locatie_precisie":"bij_benadering","terrein_koppelwijze":"niet_van_toepassing","terrein_naam_kml":null,"terrein_opp_m2":null,"lon":4.4920406,"lat":51.9375314,"gemeente":"Rotterdam","rijksmonument_rce":null,"gezichten":[],"rijksmonumenten_nabij":[],"archeologisch_nabij":[],"relaties_berekend":false,"in_gezicht":null},"geometry":{"type":"Point","coordinates":[4.4920406,51.9375314]}},{"type":"Feature","properties":{"id":"jb-loc-3439","reeks":"loc","nr":3439,"naam":"Portugees-Joodse Begraafplaats","label_punt":"Portugees-Joodse Begraafplaats, Rotterdam","status":"in_gebruik","status_bron":"In gebruik","adres":"Jan van Loonslaan","adres_aanduiding":null,"postcode":"3031 PK","plaats":"Rotterdam","gemeente_bron":"Rotterdam","provincie_bron":"Zuid-Holland","provincie":"Zuid-Holland","mip":false,"rijksmonument":false,"gemeentelijk_monument":false,"rijksmonumentnummer":null,"rmon_bron":"Geen","link":null,"beschermd_deel":null,"jaartal":1613,"jaartal_bron":"1613","circa":null,"grondvorm":"Recht","met":false,"muur":null,"bijzonderheden":"Sefardisch (vooral)/1613-1700","grootte_m2":770,"grootte_bron":"770","kadaster":false,"laatste_bezoek":2022,"locatie_precisie":"ingang","terrein_koppelwijze":"binnen_naam_gelijk","terrein_naam_kml":"Portugees-Joodse Begraafplaats, Rotterdam","terrein_opp_m2":774,"lon":4.4882648,"lat":51.9252501,"gemeente":"Rotterdam","rijksmonument_rce":null,"gezichten":[],"rijksmonumenten_nabij":[],"archeologisch_nabij":[],"relaties_berekend":true,"in_gezicht":null},"geometry":{"type":"Point","coordinates":[4.4882648,51.9252501]}},{"type":"Feature","properties":{"id":"jb-ver-177","reeks":"ver","nr":177,"naam":"Joodse Begraafplaats","label_punt":"Joodse begraafplaats, Schiedam","status":"verdwenen","status_bron":"Verdwenen","adres":"Emmaplein","adres_aanduiding":null,"postcode":"3112 DC","plaats":"Schiedam","gemeente_bron":"Schiedam","provincie_bron":"Zuid-Holland","provincie":"Zuid-Holland","mip":null,"rijksmonument":null,"gemeentelijk_monument":null,"rijksmonumentnummer":null,"rmon_bron":null,"link":null,"beschermd_deel":null,"jaartal":1787,"jaartal_bron":"1787","circa":null,"grondvorm":"Recht","met":null,"muur":null,"bijzonderheden":"Bij de Burcht van Mathenesse, geruimd 1962, overgebracht naar Toepad in Rotterdam","grootte_m2":null,"grootte_bron":null,"kadaster":null,"laatste_bezoek":null,"locatie_precisie":"bij_benadering","terrein_koppelwijze":"niet_van_toepassing","terrein_naam_kml":null,"terrein_opp_m2":null,"lon":4.4034728,"lat":51.9172856,"gemeente":"Schiedam","rijksmonument_rce":null,"gezichten":[],"rijksmonumenten_nabij":[],"archeologisch_nabij":[],"relaties_berekend":false,"in_gezicht":null},"geometry":{"type":"Point","coordinates":[4.4034728,51.9172856]}},{"type":"Feature","properties":{"id":"jb-ger-64","reeks":"ger","nr":64,"naam":"Joodse begraafplaats","label_punt":"Joodse begraafplaats, Schiedam (geruimd)","status":"geruimd","status_bron":"Geruimd","adres":"Poldervaartpad (Beukenhof?)","adres_aanduiding":null,"postcode":"3118 GR","plaats":"Schiedam","gemeente_bron":"Schiedam","provincie_bron":"Zuid-Holland","provincie":"Zuid-Holland","mip":false,"rijksmonument":false,"gemeentelijk_monument":false,"rijksmonumentnummer":null,"rmon_bron":"Geen","link":null,"beschermd_deel":null,"jaartal":1930,"jaartal_bron":"1930","circa":null,"grondvorm":"Recht","met":false,"muur":null,"bijzonderheden":"Na WO II geruimd","grootte_m2":null,"grootte_bron":"?","kadaster":false,"laatste_bezoek":2019,"locatie_precisie":"ingang","terrein_koppelwijze":"binnen_naamvariant","terrein_naam_kml":"Nieuwe Joodse begraafplaats, Schiedam (geruimd)","terrein_opp_m2":693,"lon":4.3765687,"lat":51.9143058,"gemeente":"Schiedam","rijksmonument_rce":null,"gezichten":[],"rijksmonumenten_nabij":[],"archeologisch_nabij":[],"relaties_berekend":true,"in_gezicht":null},"geometry":{"type":"Point","coordinates":[4.3765687,51.9143058]}},{"type":"Feature","properties":{"id":"jb-loc-4116","reeks":"loc","nr":4116,"naam":"Joodse Begraafplaats","label_punt":"Joodse begraafplaats, Schoonhoven","status":"in_gebruik","status_bron":"In gebruik","adres":"Nes 15","adres_aanduiding":null,"postcode":"2871 BD","plaats":"Schoonhoven","gemeente_bron":"Krimpenerwaard","provincie_bron":"Zuid-Holland","provincie":"Zuid-Holland","mip":false,"rijksmonument":false,"gemeentelijk_monument":false,"rijksmonumentnummer":null,"rmon_bron":"Geen","link":null,"beschermd_deel":null,"jaartal":1767,"jaartal_bron":"1767","circa":null,"grondvorm":"Recht","met":false,"muur":null,"bijzonderheden":"1767-1956, 48 zerken (2002: opgeknapt)","grootte_m2":510,"grootte_bron":"510","kadaster":true,"laatste_bezoek":2008,"locatie_precisie":"ingang","terrein_koppelwijze":"binnen_naam_gelijk","terrein_naam_kml":"Joodse begraafplaats, Schoonhoven","terrein_opp_m2":514,"lon":4.8545549,"lat":51.9455663,"gemeente":"Krimpenerwaard","rijksmonument_rce":null,"gezichten":[{"naam":"Schoonhoven","gezichtsnummer":"1483","uri":"https://linkeddata.cultureelerfgoed.nl/cho-kennis/id/gezicht/10134353","relatie":"binnen"}],"rijksmonumenten_nabij":[{"rijksmonumentnummer":"525035","naam":"orgel in Bartholomeuskerk","functie":"Orgel","url":"https://monumentenregister.cultureelerfgoed.nl/monumenten/525035","relatie":"25-100m","afstand_m":42.3},{"rijksmonumentnummer":"33421","naam":null,"functie":"Industrie","url":"https://monumentenregister.cultureelerfgoed.nl/monumenten/33421","relatie":"25-100m","afstand_m":59.3},{"rijksmonumentnummer":"33420","naam":null,"functie":"Woonhuis(K)","url":"https://monumentenregister.cultureelerfgoed.nl/monumenten/33420","relatie":"25-100m","afstand_m":63.8},{"rijksmonumentnummer":"33419","naam":null,"functie":"Woonhuis(K)","url":"https://monumentenregister.cultureelerfgoed.nl/monumenten/33419","relatie":"25-100m","afstand_m":67.9},{"rijksmonumentnummer":"33503","naam":null,"functie":"Woonhuis(K)","url":"https://monumentenregister.cultureelerfgoed.nl/monumenten/33503","relatie":"25-100m","afstand_m":77.1},{"rijksmonumentnummer":"33502","naam":null,"functie":"Woonhuis(K)","url":"https://monumentenregister.cultureelerfgoed.nl/monumenten/33502","relatie":"25-100m","afstand_m":88.6},{"rijksmonumentnummer":"33541","naam":"(OHW)","functie":"Gracht (B)","url":"https://monumentenregister.cultureelerfgoed.nl/monumenten/33541","relatie":"100-250m","afstand_m":104.6},{"rijksmonumentnummer":"33497","naam":null,"functie":"Industrie","url":"https://monumentenregister.cultureelerfgoed.nl/monumenten/33497","relatie":"100-250m","afstand_m":115.3},{"rijksmonumentnummer":"33542","naam":"(OHW)","functie":"Voorwerk (B)","url":"https://monumentenregister.cultureelerfgoed.nl/monumenten/33542","relatie":"100-250m","afstand_m":115.4},{"rijksmonumentnummer":"33547","naam":"(OHW)","functie":"Gracht (B)","url":"https://monumentenregister.cultureelerfgoed.nl/monumenten/33547","relatie":"100-250m","afstand_m":118.8},{"rijksmonumentnummer":"33507","naam":null,"functie":"Woonhuis(K)","url":"https://monumentenregister.cultureelerfgoed.nl/monumenten/33507","relatie":"100-250m","afstand_m":125.1},{"rijksmonumentnummer":"33500","naam":null,"functie":"Woonhuis(K)","url":"https://monumentenregister.cultureelerfgoed.nl/monumenten/33500","relatie":"100-250m","afstand_m":131.8},{"rijksmonumentnummer":"33501","naam":null,"functie":"Woonhuis(K)","url":"https://monumentenregister.cultureelerfgoed.nl/monumenten/33501","relatie":"100-250m","afstand_m":132.5},{"rijksmonumentnummer":"526573","naam":"Zilversmederij","functie":"Smederij","url":"https://monumentenregister.cultureelerfgoed.nl/monumenten/526573","relatie":"100-250m","afstand_m":138.8},{"rijksmonumentnummer":"33440","naam":null,"functie":"Bestuursgebouw en onderdl","url":"https://monumentenregister.cultureelerfgoed.nl/monumenten/33440","relatie":"100-250m","afstand_m":151.7},{"rijksmonumentnummer":"33506","naam":null,"functie":"Opslag","url":"https://monumentenregister.cultureelerfgoed.nl/monumenten/33506","relatie":"100-250m","afstand_m":151.9},{"rijksmonumentnummer":"33441","naam":null,"functie":"Werk-woonhuis","url":"https://monumentenregister.cultureelerfgoed.nl/monumenten/33441","relatie":"100-250m","afstand_m":154.7},{"rijksmonumentnummer":"33438","naam":null,"functie":"Woonhuis(K)","url":"https://monumentenregister.cultureelerfgoed.nl/monumenten/33438","relatie":"100-250m","afstand_m":155.8},{"rijksmonumentnummer":"33439","naam":null,"functie":"Woonhuis(K)","url":"https://monumentenregister.cultureelerfgoed.nl/monumenten/33439","relatie":"100-250m","afstand_m":158.3},{"rijksmonumentnummer":"33551","naam":null,"functie":"Gedenkteken(D)","url":"https://monumentenregister.cultureelerfgoed.nl/monumenten/33551","relatie":"100-250m","afstand_m":159.0},{"rijksmonumentnummer":"33442","naam":null,"functie":"Woonhuis(K)","url":"https://monumentenregister.cultureelerfgoed.nl/monumenten/33442","relatie":"100-250m","afstand_m":162.4},{"rijksmonumentnummer":"526572","naam":"Woonhuis","functie":"Woonhuis(K)","url":"https://monumentenregister.cultureelerfgoed.nl/monumenten/526572","relatie":"100-250m","afstand_m":163.7},{"rijksmonumentnummer":"33443","naam":null,"functie":"Woonhuis(K)","url":"https://monumentenregister.cultureelerfgoed.nl/monumenten/33443","relatie":"100-250m","afstand_m":165.7},{"rijksmonumentnummer":"33496","naam":null,"functie":"Woonhuis(K)","url":"https://monumentenregister.cultureelerfgoed.nl/monumenten/33496","relatie":"100-250m","afstand_m":167.8},{"rijksmonumentnummer":"33437","naam":null,"functie":"Woonhuis(K)","url":"https://monumentenregister.cultureelerfgoed.nl/monumenten/33437","relatie":"100-250m","afstand_m":168.0},{"rijksmonumentnummer":"33550","naam":null,"functie":"Brug(C) ","url":"https://monumentenregister.cultureelerfgoed.nl/monumenten/33550","relatie":"100-250m","afstand_m":169.4},{"rijksmonumentnummer":"33543","naam":"(OHW)","functie":"Omwalling","url":"https://monumentenregister.cultureelerfgoed.nl/monumenten/33543","relatie":"100-250m","afstand_m":170.3},{"rijksmonumentnummer":"511387","naam":null,"functie":"Orgel","url":"https://monumentenregister.cultureelerfgoed.nl/monumenten/511387","relatie":"100-250m","afstand_m":171.0},{"rijksmonumentnummer":"33436","naam":null,"functie":"Woonhuis(K)","url":"https://monumentenregister.cultureelerfgoed.nl/monumenten/33436","relatie":"100-250m","afstand_m":172.0},{"rijksmonumentnummer":"33505","naam":null,"functie":"Werk-woonhuis","url":"https://monumentenregister.cultureelerfgoed.nl/monumenten/33505","relatie":"100-250m","afstand_m":172.6},{"rijksmonumentnummer":"33444","naam":null,"functie":"Boerderij (M)","url":"https://monumentenregister.cultureelerfgoed.nl/monumenten/33444","relatie":"100-250m","afstand_m":174.6},{"rijksmonumentnummer":"33434","naam":null,"functie":"Werk-woonhuis","url":"https://monumentenregister.cultureelerfgoed.nl/monumenten/33434","relatie":"100-250m","afstand_m":176.6},{"rijksmonumentnummer":"33504","naam":null,"functie":"Werk-woonhuis","url":"https://monumentenregister.cultureelerfgoed.nl/monumenten/33504","relatie":"100-250m","afstand_m":178.7},{"rijksmonumentnummer":"33435","naam":null,"functie":"Werk-woonhuis","url":"https://monumentenregister.cultureelerfgoed.nl/monumenten/33435","relatie":"100-250m","afstand_m":180.1},{"rijksmonumentnummer":"33433","naam":null,"functie":"Woonhuis(K)","url":"https://monumentenregister.cultureelerfgoed.nl/monumenten/33433","relatie":"100-250m","afstand_m":183.2},{"rijksmonumentnummer":"33545","naam":null,"functie":"Waterweg, werf en haven","url":"https://monumentenregister.cultureelerfgoed.nl/monumenten/33545","relatie":"100-250m","afstand_m":183.7},{"rijksmonumentnummer":"33498","naam":null,"functie":"Vanwege onderdelen kerk","url":"https://monumentenregister.cultureelerfgoed.nl/monumenten/33498","relatie":"100-250m","afstand_m":186.0},{"rijksmonumentnummer":"33432","naam":null,"functie":"Woonhuis(K)","url":"https://monumentenregister.cultureelerfgoed.nl/monumenten/33432","relatie":"100-250m","afstand_m":186.8},{"rijksmonumentnummer":"33431","naam":null,"functie":"Woonhuis(K)","url":"https://monumentenregister.cultureelerfgoed.nl/monumenten/33431","relatie":"100-250m","afstand_m":190.7},{"rijksmonumentnummer":"33549","naam":null,"functie":"Brug(C) ","url":"https://monumentenregister.cultureelerfgoed.nl/monumenten/33549","relatie":"100-250m","afstand_m":194.2},{"rijksmonumentnummer":"33430","naam":null,"functie":"Kerk","url":"https://monumentenregister.cultureelerfgoed.nl/monumenten/33430","relatie":"100-250m","afstand_m":194.4},{"rijksmonumentnummer":"33459","naam":null,"functie":"Werk-woonhuis","url":"https://monumentenregister.cultureelerfgoed.nl/monumenten/33459","relatie":"100-250m","afstand_m":196.5},{"rijksmonumentnummer":"33464","naam":null,"functie":"Werk-woonhuis","url":"https://monumentenregister.cultureelerfgoed.nl/monumenten/33464","relatie":"100-250m","afstand_m":196.5},{"rijksmonumentnummer":"33495","naam":null,"functie":"Woonhuis(K)","url":"https://monumentenregister.cultureelerfgoed.nl/monumenten/33495","relatie":"100-250m","afstand_m":196.8},{"rijksmonumentnummer":"33462","naam":null,"functie":"Werk-woonhuis","url":"https://monumentenregister.cultureelerfgoed.nl/monumenten/33462","relatie":"100-250m","afstand_m":197.4},{"rijksmonumentnummer":"33460","naam":null,"functie":"Werk-woonhuis","url":"https://monumentenregister.cultureelerfgoed.nl/monumenten/33460","relatie":"100-250m","afstand_m":197.6},{"rijksmonumentnummer":"33463","naam":null,"functie":"Woonhuis(K)","url":"https://monumentenregister.cultureelerfgoed.nl/monumenten/33463","relatie":"100-250m","afstand_m":197.6},{"rijksmonumentnummer":"33461","naam":null,"functie":"Woonhuis(K)","url":"https://monumentenregister.cultureelerfgoed.nl/monumenten/33461","relatie":"100-250m","afstand_m":198.7},{"rijksmonumentnummer":"33467","naam":null,"functie":"Werk-woonhuis","url":"https://monumentenregister.cultureelerfgoed.nl/monumenten/33467","relatie":"100-250m","afstand_m":198.9},{"rijksmonumentnummer":"33458","naam":null,"functie":"Woonhuis(K)","url":"https://monumentenregister.cultureelerfgoed.nl/monumenten/33458","relatie":"100-250m","afstand_m":199.6},{"rijksmonumentnummer":"33465","naam":null,"functie":"Woonhuis(K)","url":"https://monumentenregister.cultureelerfgoed.nl/monumenten/33465","relatie":"100-250m","afstand_m":199.6},{"rijksmonumentnummer":"33429","naam":null,"functie":"Woonhuis(K)","url":"https://monumentenregister.cultureelerfgoed.nl/monumenten/33429","relatie":"100-250m","afstand_m":200.0},{"rijksmonumentnummer":"33457","naam":null,"functie":"Woonhuis(K)","url":"https://monumentenregister.cultureelerfgoed.nl/monumenten/33457","relatie":"100-250m","afstand_m":202.7},{"rijksmonumentnummer":"33428","naam":null,"functie":"Woonhuis(K)","url":"https://monumentenregister.cultureelerfgoed.nl/monumenten/33428","relatie":"100-250m","afstand_m":202.9},{"rijksmonumentnummer":"33466","naam":null,"functie":"Werk-woonhuis","url":"https://monumentenregister.cultureelerfgoed.nl/monumenten/33466","relatie":"100-250m","afstand_m":203.9},{"rijksmonumentnummer":"33456","naam":null,"functie":"Woonhuis(K)","url":"https://monumentenregister.cultureelerfgoed.nl/monumenten/33456","relatie":"100-250m","afstand_m":204.9},{"rijksmonumentnummer":"33468","naam":null,"functie":"Werk-woonhuis","url":"https://monumentenregister.cultureelerfgoed.nl/monumenten/33468","relatie":"100-250m","afstand_m":204.9},{"rijksmonumentnummer":"33452","naam":null,"functie":"Woonhuis(K)","url":"https://monumentenregister.cultureelerfgoed.nl/monumenten/33452","relatie":"100-250m","afstand_m":206.3},{"rijksmonumentnummer":"526571","naam":"Woonhuis","functie":"Bijgebouwen","url":"https://monumentenregister.cultureelerfgoed.nl/monumenten/526571","relatie":"100-250m","afstand_m":208.5},{"rijksmonumentnummer":"33455","naam":null,"functie":"Woonhuis(K)","url":"https://monumentenregister.cultureelerfgoed.nl/monumenten/33455","relatie":"100-250m","afstand_m":210.0},{"rijksmonumentnummer":"33423","naam":null,"functie":"Woonhuis(K)","url":"https://monumentenregister.cultureelerfgoed.nl/monumenten/33423","relatie":"100-250m","afstand_m":210.4},{"rijksmonumentnummer":"33426","naam":null,"functie":"Militair verblijfsgebouw","url":"https://monumentenregister.cultureelerfgoed.nl/monumenten/33426","relatie":"100-250m","afstand_m":212.9},{"rijksmonumentnummer":"33454","naam":null,"functie":"Woonhuis(K)","url":"https://monumentenregister.cultureelerfgoed.nl/monumenten/33454","relatie":"100-250m","afstand_m":213.3},{"rijksmonumentnummer":"33453","naam":null,"functie":"Woonhuis(K)","url":"https://monumentenregister.cultureelerfgoed.nl/monumenten/33453","relatie":"100-250m","afstand_m":215.4},{"rijksmonumentnummer":"33427","naam":null,"functie":"Woonhuis(K)","url":"https://monumentenregister.cultureelerfgoed.nl/monumenten/33427","relatie":"100-250m","afstand_m":215.8},{"rijksmonumentnummer":"33540","naam":null,"functie":"Begraafplaats en -onderdelen","url":"https://monumentenregister.cultureelerfgoed.nl/monumenten/33540","relatie":"100-250m","afstand_m":217.1},{"rijksmonumentnummer":"33509","naam":null,"functie":"Militair verblijfsgebouw","url":"https://monumentenregister.cultureelerfgoed.nl/monumenten/33509","relatie":"100-250m","afstand_m":219.3},{"rijksmonumentnummer":"33450","naam":null,"functie":"Werk-woonhuis","url":"https://monumentenregister.cultureelerfgoed.nl/monumenten/33450","relatie":"100-250m","afstand_m":222.8},{"rijksmonumentnummer":"33451","naam":null,"functie":"Woonhuis(K)","url":"https://monumentenregister.cultureelerfgoed.nl/monumenten/33451","relatie":"100-250m","afstand_m":223.5},{"rijksmonumentnummer":"33448","naam":null,"functie":"Woonhuis(K)","url":"https://monumentenregister.cultureelerfgoed.nl/monumenten/33448","relatie":"100-250m","afstand_m":227.4},{"rijksmonumentnummer":"33528","naam":null,"functie":"Woonhuis(K)","url":"https://monumentenregister.cultureelerfgoed.nl/monumenten/33528","relatie":"100-250m","afstand_m":228.8},{"rijksmonumentnummer":"33529","naam":null,"functie":"Woonhuis(K)","url":"https://monumentenregister.cultureelerfgoed.nl/monumenten/33529","relatie":"100-250m","afstand_m":229.1},{"rijksmonumentnummer":"33449","naam":null,"functie":"Woonhuis(K)","url":"https://monumentenregister.cultureelerfgoed.nl/monumenten/33449","relatie":"100-250m","afstand_m":233.1},{"rijksmonumentnummer":"33422","naam":null,"functie":"Overheidsgebouw","url":"https://monumentenregister.cultureelerfgoed.nl/monumenten/33422","relatie":"100-250m","afstand_m":233.5},{"rijksmonumentnummer":"33473","naam":null,"functie":"Kerk en kerkonderdeel","url":"https://monumentenregister.cultureelerfgoed.nl/monumenten/33473","relatie":"100-250m","afstand_m":234.9},{"rijksmonumentnummer":"33472","naam":null,"functie":"Kerk","url":"https://monumentenregister.cultureelerfgoed.nl/monumenten/33472","relatie":"100-250m","afstand_m":234.9},{"rijksmonumentnummer":"33447","naam":null,"functie":"Werk-woonhuis","url":"https://monumentenregister.cultureelerfgoed.nl/monumenten/33447","relatie":"100-250m","afstand_m":235.0},{"rijksmonumentnummer":"33446","naam":null,"functie":"Woonhuis(K)","url":"https://monumentenregister.cultureelerfgoed.nl/monumenten/33446","relatie":"100-250m","afstand_m":236.6},{"rijksmonumentnummer":"33445","naam":null,"functie":"Woonhuis(K)","url":"https://monumentenregister.cultureelerfgoed.nl/monumenten/33445","relatie":"100-250m","afstand_m":238.7},{"rijksmonumentnummer":"33424","naam":null,"functie":"Woonhuis(K)","url":"https://monumentenregister.cultureelerfgoed.nl/monumenten/33424","relatie":"100-250m","afstand_m":238.9},{"rijksmonumentnummer":"33527","naam":null,"functie":"Werk-woonhuis","url":"https://monumentenregister.cultureelerfgoed.nl/monumenten/33527","relatie":"100-250m","afstand_m":240.2},{"rijksmonumentnummer":"33552","naam":null,"functie":"Waterkering en -doorlaat","url":"https://monumentenregister.cultureelerfgoed.nl/monumenten/33552","relatie":"100-250m","afstand_m":241.1},{"rijksmonumentnummer":"33526","naam":null,"functie":"Woonhuis(K)","url":"https://monumentenregister.cultureelerfgoed.nl/monumenten/33526","relatie":"100-250m","afstand_m":243.4},{"rijksmonumentnummer":"33514","naam":null,"functie":"Woonhuis(K)","url":"https://monumentenregister.cultureelerfgoed.nl/monumenten/33514","relatie":"100-250m","afstand_m":246.0},{"rijksmonumentnummer":"33515","naam":null,"functie":"Woonhuis(K)","url":"https://monumentenregister.cultureelerfgoed.nl/monumenten/33515","relatie":"100-250m","afstand_m":248.3}],"archeologisch_nabij":[],"relaties_berekend":true,"in_gezicht":"binnen"},"geometry":{"type":"Point","coordinates":[4.8545549,51.9455663]}},{"type":"Feature","properties":{"id":"jb-loc-1945","reeks":"loc","nr":1945,"naam":"Joodse Begraafplaats","label_punt":"Joodse begraafplaats, Strijen","status":"in_gebruik","status_bron":"In gebruik","adres":"Oud Bonaventurasedijk 46","adres_aanduiding":"bij","postcode":"3291 CL","plaats":"Strijen","gemeente_bron":"Hoeksche Waard","provincie_bron":"Zuid-Holland","provincie":"Zuid-Holland","mip":false,"rijksmonument":false,"gemeentelijk_monument":false,"rijksmonumentnummer":null,"rmon_bron":"Geen","link":null,"beschermd_deel":null,"jaartal":1896,"jaartal_bron":"1896","circa":null,"grondvorm":"Recht","met":true,"muur":null,"bijzonderheden":"Gebruikt tot 1969, 23 stèles. Verzamelgraf Dordrecht oude begraafplaats","grootte_m2":300,"grootte_bron":"300","kadaster":true,"laatste_bezoek":2024,"locatie_precisie":"ingang","terrein_koppelwijze":"binnen_naam_gelijk","terrein_naam_kml":"Joodse begraafplaats, Strijen","terrein_opp_m2":235,"lon":4.5570454,"lat":51.7468811,"gemeente":"Hoeksche Waard","rijksmonument_rce":null,"gezichten":[],"rijksmonumenten_nabij":[],"archeologisch_nabij":[],"relaties_berekend":true,"in_gezicht":null},"geometry":{"type":"Point","coordinates":[4.5570454,51.7468811]}},{"type":"Feature","properties":{"id":"jb-loc-1405","reeks":"loc","nr":1405,"naam":"Joodse Begraafplaats","label_punt":"Joodse begraafplaats, Vlaardingen","status":"in_gebruik","status_bron":"In gebruik","adres":"Schiedamseweg/Parkweg","adres_aanduiding":null,"postcode":"3134 BA","plaats":"Vlaardingen","gemeente_bron":"Vlaardingen","provincie_bron":"Zuid-Holland","provincie":"Zuid-Holland","mip":false,"rijksmonument":false,"gemeentelijk_monument":true,"rijksmonumentnummer":null,"rmon_bron":"Geen","link":null,"beschermd_deel":"Begraafplaats","jaartal":1862,"jaartal_bron":"1862","circa":null,"grondvorm":"Recht","met":false,"muur":null,"bijzonderheden":"1 zerk, gebruikt tot 1900, 43 doden.","grootte_m2":260,"grootte_bron":"260","kadaster":false,"laatste_bezoek":2005,"locatie_precisie":"ingang","terrein_koppelwijze":"binnen_naam_gelijk","terrein_naam_kml":"Joodse begraafplaats, Vlaardingen","terrein_opp_m2":261,"lon":4.358868,"lat":51.909663,"gemeente":"Vlaardingen","rijksmonument_rce":null,"gezichten":[{"naam":"Vlaardingen","gezichtsnummer":"1698","uri":"https://linkeddata.cultureelerfgoed.nl/cho-kennis/id/gezicht/10134621","relatie":"binnen"}],"rijksmonumenten_nabij":[{"rijksmonumentnummer":"527086","naam":null,"functie":"Woonhuis","url":"https://monumentenregister.cultureelerfgoed.nl/monumenten/527086","relatie":"100-250m","afstand_m":243.2}],"archeologisch_nabij":[],"relaties_berekend":true,"in_gezicht":"binnen"},"geometry":{"type":"Point","coordinates":[4.358868,51.909663]}},{"type":"Feature","properties":{"id":"jb-loc-1343","reeks":"loc","nr":1343,"naam":"Joodse Begraafplaats","label_punt":"Joodse begraafplaats, Wassenaar","status":"in_gebruik","status_bron":"In gebruik","adres":"Het Kerkehout 4a","adres_aanduiding":null,"postcode":"2245 XR","plaats":"Wassenaar","gemeente_bron":"Wassenaar","provincie_bron":"Zuid-Holland","provincie":"Zuid-Holland","mip":false,"rijksmonument":true,"gemeentelijk_monument":false,"rijksmonumentnummer":524542,"rmon_bron":"524542","link":"https://monumentenregister.cultureelerfgoed.nl/complexen/524542","beschermd_deel":"Aanleg en metaarhuisje","jaartal":1906,"jaartal_bron":"1906","circa":null,"grondvorm":"Recht","met":true,"muur":null,"bijzonderheden":null,"grootte_m2":20840,"grootte_bron":"20840","kadaster":true,"laatste_bezoek":2007,"locatie_precisie":"ingang","terrein_koppelwijze":"binnen_naam_gelijk","terrein_naam_kml":"Joodse begraafplaats, Wassenaar","terrein_opp_m2":20919,"lon":4.370881,"lat":52.1111777,"gemeente":"Wassenaar","rijksmonument_rce":{"soort":"complex","nummer":"524542","naam":"Begraafplaats Kerkehout","uri":"https://linkeddata.cultureelerfgoed.nl/cho-kennis/id/complex/65275","url":"https://monumentenregister.cultureelerfgoed.nl/monumenten/524543","onderdelen":[{"rijksmonumentnummer":"524543","url":"https://monumentenregister.cultureelerfgoed.nl/monumenten/524543","functie":"Begraafplaats","hoofdobject":true},{"rijksmonumentnummer":"524544","url":"https://monumentenregister.cultureelerfgoed.nl/monumenten/524544","functie":"Baarhuisje","hoofdobject":false}]},"gezichten":[{"naam":"Landgoederenzone Wassenaar-Voorschoten-Leidschendam-Voorburg","gezichtsnummer":"237","uri":"https://linkeddata.cultureelerfgoed.nl/cho-kennis/id/gezicht/10134591","relatie":"binnen"}],"rijksmonumenten_nabij":[{"rijksmonumentnummer":"524543","naam":null,"functie":"Begraafplaats","url":"https://monumentenregister.cultureelerfgoed.nl/monumenten/524543","relatie":"op_terrein","afstand_m":0.0},{"rijksmonumentnummer":"524544","naam":null,"functie":"Baarhuisje","url":"https://monumentenregister.cultureelerfgoed.nl/monumenten/524544","relatie":"25-100m","afstand_m":56.1},{"rijksmonumentnummer":"524657","naam":null,"functie":"Woonhuis","url":"https://monumentenregister.cultureelerfgoed.nl/monumenten/524657","relatie":"25-100m","afstand_m":95.9},{"rijksmonumentnummer":"524600","naam":null,"functie":"Historische aanleg","url":"https://monumentenregister.cultureelerfgoed.nl/monumenten/524600","relatie":"100-250m","afstand_m":190.0},{"rijksmonumentnummer":"524635","naam":null,"functie":"Portierswoning","url":"https://monumentenregister.cultureelerfgoed.nl/monumenten/524635","relatie":"100-250m","afstand_m":209.9},{"rijksmonumentnummer":"524633","naam":null,"functie":"Toegangshek","url":"https://monumentenregister.cultureelerfgoed.nl/monumenten/524633","relatie":"100-250m","afstand_m":223.2},{"rijksmonumentnummer":"525900","naam":null,"functie":"Tuin, park en plantsoen","url":"https://monumentenregister.cultureelerfgoed.nl/monumenten/525900","relatie":"100-250m","afstand_m":241.7}],"archeologisch_nabij":[],"relaties_berekend":true,"in_gezicht":"binnen"},"geometry":{"type":"Point","coordinates":[4.370881,52.1111777]}},{"type":"Feature","properties":{"id":"jb-loc-1713","reeks":"loc","nr":1713,"naam":"Joodse Begraafplaats","label_punt":"Joodse begraafplaats, Zuidland","status":"in_gebruik","status_bron":"In gebruik","adres":"Kerkweg 38a","adres_aanduiding":null,"postcode":"3214 VE","plaats":"Zuidland","gemeente_bron":"Nissewaard","provincie_bron":"Zuid-Holland","provincie":"Zuid-Holland","mip":false,"rijksmonument":false,"gemeentelijk_monument":true,"rijksmonumentnummer":null,"rmon_bron":"Geen","link":null,"beschermd_deel":"Begraafplaats","jaartal":1888,"jaartal_bron":"1888","circa":null,"grondvorm":"Recht","met":false,"muur":null,"bijzonderheden":"5 zerken","grootte_m2":84,"grootte_bron":"84","kadaster":true,"laatste_bezoek":2005,"locatie_precisie":"ingang","terrein_koppelwijze":"binnen_naam_gelijk","terrein_naam_kml":"Joodse begraafplaats, Zuidland","terrein_opp_m2":84,"lon":4.253308,"lat":51.8209924,"gemeente":"Nissewaard","rijksmonument_rce":null,"gezichten":[],"rijksmonumenten_nabij":[{"rijksmonumentnummer":"9416","naam":"Vee en Bouwlust","functie":"Boerderij (M)","url":"https://monumentenregister.cultureelerfgoed.nl/monumenten/9416","relatie":"100-250m","afstand_m":130.6},{"rijksmonumentnummer":"525155","naam":null,"functie":"Schuur(M)","url":"https://monumentenregister.cultureelerfgoed.nl/monumenten/525155","relatie":"100-250m","afstand_m":246.0},{"rijksmonumentnummer":"525151","naam":null,"functie":"Hek","url":"https://monumentenregister.cultureelerfgoed.nl/monumenten/525151","relatie":"100-250m","afstand_m":246.0},{"rijksmonumentnummer":"525150","naam":null,"functie":"Karnhuis","url":"https://monumentenregister.cultureelerfgoed.nl/monumenten/525150","relatie":"100-250m","afstand_m":246.0},{"rijksmonumentnummer":"525149","naam":null,"functie":"Wagenschuur(M)","url":"https://monumentenregister.cultureelerfgoed.nl/monumenten/525149","relatie":"100-250m","afstand_m":246.0},{"rijksmonumentnummer":"525153","naam":null,"functie":"Schuur(M)","url":"https://monumentenregister.cultureelerfgoed.nl/monumenten/525153","relatie":"100-250m","afstand_m":246.0},{"rijksmonumentnummer":"525152","naam":null,"functie":"Hooiberg","url":"https://monumentenregister.cultureelerfgoed.nl/monumenten/525152","relatie":"100-250m","afstand_m":246.0},{"rijksmonumentnummer":"525154","naam":null,"functie":"Schuur(M)","url":"https://monumentenregister.cultureelerfgoed.nl/monumenten/525154","relatie":"100-250m","afstand_m":246.0},{"rijksmonumentnummer":"525148","naam":null,"functie":"Boerderij(M1)","url":"https://monumentenregister.cultureelerfgoed.nl/monumenten/525148","relatie":"100-250m","afstand_m":246.0}],"archeologisch_nabij":[],"relaties_berekend":true,"in_gezicht":null},"geometry":{"type":"Point","coordinates":[4.253308,51.8209924]}}]}