{"type":"FeatureCollection","name":"herbegravingen","features":[{"type":"Feature","properties":{"van_id":"jb-ver-395","naar_id":"jb-loc-1439","tekst_bron":"resten overgebracht naar Ouderkerk"},"geometry":{"type":"LineString","coordinates":[[4.6909,52.7024],[4.9051102,52.2953118]]}},{"type":"Feature","properties":{"van_id":"jb-ver-182","naar_id":"jb-loc-1945","tekst_bron":"Overgebracht naar Strijen (maar ook nieuwe begraafplaats en Rotterdam?)"},"geometry":{"type":"LineString","coordinates":[[4.6563,51.8112],[4.5570454,51.7468811]]}},{"type":"Feature","properties":{"van_id":"jb-ver-105","naar_id":"jb-loc-4189","tekst_bron":"overgebracht naar Katwijk"},"geometry":{"type":"LineString","coordinates":[[4.4839,52.1549],[4.4217855,52.1981616]]}},{"type":"Feature","properties":{"van_id":"jb-ver-425","naar_id":"jb-loc-4140","tekst_bron":"overgebracht naar gemeentelijke begraafplaats"},"geometry":{"type":"LineString","coordinates":[[4.2489,51.9222],[4.2566003,51.9158603]]}},{"type":"Feature","properties":{"van_id":"jb-ver-361","naar_id":"jb-loc-4200","tekst_bron":"overgebracht naar Toepad"},"geometry":{"type":"LineString","coordinates":[[4.5052,51.9246],[4.5330266,51.9100747]]}},{"type":"Feature","properties":{"van_id":"jb-ver-177","naar_id":"jb-loc-4200","tekst_bron":"overgebracht naar Toepad in Rotterdam"},"geometry":{"type":"LineString","coordinates":[[4.4035,51.9173],[4.5330266,51.9100747]]}},{"type":"Feature","properties":{"van_id":"jb-ver-59","naar_id":"jb-loc-2615","tekst_bron":"in 1985 geruimd, overgebracht naar Moscowa"},"geometry":{"type":"LineString","coordinates":[[5.9183,51.9907],[5.9207213,52.0031926]]}},{"type":"Feature","properties":{"van_id":"jb-ver-369","naar_id":"jb-loc-2615","tekst_bron":"resten overgebracht naar Moscowa"},"geometry":{"type":"LineString","coordinates":[[5.8958,51.9846],[5.9207213,52.0031926]]}},{"type":"Feature","properties":{"van_id":"jb-ver-528","naar_id":"jb-loc-3210","tekst_bron":"Resten in 1965 overgebracht naar Zutphen"},"geometry":{"type":"LineString","coordinates":[[6.3533,52.0464],[6.204934,52.1296905]]}},{"type":"Feature","properties":{"van_id":"jb-ver-24","naar_id":"jb-loc-4099","tekst_bron":"In 1961 overgebracht naar Nijmegen"},"geometry":{"type":"LineString","coordinates":[[5.6165,51.8818],[5.8836385,51.8307766]]}},{"type":"Feature","properties":{"van_id":"jb-ver-512","naar_id":"jb-loc-3204","tekst_bron":"resten overgebracht naar nieuwe"},"geometry":{"type":"LineString","coordinates":[[6.6192,51.9436],[6.6192306,51.9409842]]}},{"type":"Feature","properties":{"van_id":"jb-ver-677","naar_id":"jb-ver-678","tekst_bron":"eerst overgebracht naar buiten de Meipoort, daarna naar Doetinchem"},"geometry":{"type":"LineString","coordinates":[[6.1303,52.0139],[6.1421,52.0126]]}},{"type":"Feature","properties":{"van_id":"jb-ver-676","naar_id":"jb-ver-678","tekst_bron":"eerst overgebracht naar buiten de Meipoort, daarna naar Doetinchem"},"geometry":{"type":"LineString","coordinates":[[6.1337,52.0122],[6.1421,52.0126]]}},{"type":"Feature","properties":{"van_id":"jb-ver-678","naar_id":"jb-loc-2636","tekst_bron":"In 1963 overgebracht naar Doetinchem"},"geometry":{"type":"LineString","coordinates":[[6.1421,52.0126],[6.2936256,51.9718935]]}},{"type":"Feature","properties":{"van_id":"jb-ger-85","naar_id":"jb-loc-2035","tekst_bron":"In 1950 geruimd, wegens sanering, resten overgebracht naar Ijsselmuiden"},"geometry":{"type":"LineString","coordinates":[[5.9206131,52.5520721],[5.9340247,52.5696635]]}},{"type":"Feature","properties":{"van_id":"jb-ver-436","naar_id":"jb-loc-3027","tekst_bron":"overgebracht naar Enschede"},"geometry":{"type":"LineString","coordinates":[[7.0119,52.2666],[6.9103554,52.2197709]]}},{"type":"Feature","properties":{"van_id":"jb-ver-440","naar_id":"jb-loc-2900","tekst_bron":"in 1949 resten overgebracht naar Arend Baanstraat"},"geometry":{"type":"LineString","coordinates":[[6.5224,52.3064],[6.5190357,52.2927337]]}},{"type":"Feature","properties":{"van_id":"jb-ver-576","naar_id":"jb-loc-2079","tekst_bron":"overgebracht naar nieuwe joodse begraafplaats"},"geometry":{"type":"LineString","coordinates":[[6.078,52.5057],[6.140299,52.5106718]]}},{"type":"Feature","properties":{"van_id":"jb-ver-53","naar_id":"jb-loc-318","tekst_bron":"resten overgebracht naar Oosterhout"},"geometry":{"type":"LineString","coordinates":[[4.8285,51.5922],[4.8201248,51.639683]]}},{"type":"Feature","properties":{"van_id":"jb-ver-358","naar_id":"jb-ver-357","tekst_bron":"In 1924 geruimd"},"geometry":{"type":"LineString","coordinates":[[5.8756,51.7299],[5.8781,51.7313]]}},{"type":"Feature","properties":{"van_id":"jb-ver-357","naar_id":"jb-loc-2061","tekst_bron":"Geruimd in 1963"},"geometry":{"type":"LineString","coordinates":[[5.8781,51.7313],[5.8841752,51.7221229]]}},{"type":"Feature","properties":{"van_id":"jb-ver-9","naar_id":"jb-loc-823","tekst_bron":"Na WO II overgebracht naar Linderweg"},"geometry":{"type":"LineString","coordinates":[[6.0163,50.7676],[6.0096427,50.7675084]]}},{"type":"Feature","properties":{"van_id":"jb-ver-896","naar_id":"jb-loc-2804","tekst_bron":"resten overgebracht naar Duinhof"},"geometry":{"type":"LineString","coordinates":[[4.6564,52.4971],[4.6347182,52.4931832]]}},{"type":"Feature","properties":{"van_id":"jb-ver-168","naar_id":"jb-loc-2849","tekst_bron":"228 zerken overgebracht! (bij Hoorn, jb-loc-2849)"},"geometry":{"type":"LineString","coordinates":[[5.0507,52.6439],[5.0379286,52.6469239]]}},{"type":"Feature","properties":{"van_id":"jb-ver-182","naar_id":"jb-loc-1912","tekst_bron":"Overgebracht naar Strijen (maar ook nieuwe begraafplaats en Rotterdam?)"},"geometry":{"type":"LineString","coordinates":[[4.6563,51.8112],[4.6779896,51.8012888]]}},{"type":"Feature","properties":{"van_id":"jb-ver-498","naar_id":"jb-loc-366","tekst_bron":"resten overgebracht naar voorste begraafplaats op Dijk"},"geometry":{"type":"LineString","coordinates":[[5.0966,51.8908],[5.0840322,51.8808774]]}},{"type":"Feature","properties":{"van_id":"jb-ver-774","naar_id":"jb-loc-366","tekst_bron":"(geen tekst in de bron)"},"geometry":{"type":"LineString","coordinates":[[5.0806,51.8991],[5.0840322,51.8808774]]}},{"type":"Feature","properties":{"van_id":"jb-ver-280","naar_id":"jb-loc-2887","tekst_bron":"overgebracht naar Wageningen"},"geometry":{"type":"LineString","coordinates":[[4.7066,52.0237],[5.6821885,51.9851963]]}},{"type":"Feature","properties":{"van_id":"jb-ver-281","naar_id":"jb-loc-2887","tekst_bron":"overgebracht naar Wageningen"},"geometry":{"type":"LineString","coordinates":[[4.71,52.0161],[5.6821885,51.9851963]]}},{"type":"Feature","properties":{"van_id":"jb-ver-21","naar_id":"jb-loc-986","tekst_bron":"lijken overgebracht naar Woensel"},"geometry":{"type":"LineString","coordinates":[[5.5098,51.4497],[5.4577923,51.450793]]}},{"type":"Feature","properties":{"van_id":"jb-ger-43","naar_id":"jb-loc-580","tekst_bron":"overgebracht naar Vrangendael"},"geometry":{"type":"LineString","coordinates":[[5.8735648,50.9968736],[5.8809459,50.9967211]]}},{"type":"Feature","properties":{"van_id":"jb-ver-12","naar_id":"jb-loc-580","tekst_bron":"overgebracht naar Vrangendael"},"geometry":{"type":"LineString","coordinates":[[5.8669,51.0004],[5.8809459,50.9967211]]}},{"type":"Feature","properties":{"van_id":"jb-ver-67","naar_id":"jb-loc-4068","tekst_bron":"1954 overgebracht naar Noorderbegraafplaats"},"geometry":{"type":"LineString","coordinates":[[6.5637,53.2261],[6.5498982,53.2310964]]}},{"type":"Feature","properties":{"van_id":"jb-ver-253","naar_id":"jb-loc-2488","tekst_bron":"Eind 19de eeuw opgeheven, overgebracht naar nieuwe"},"geometry":{"type":"LineString","coordinates":[[6.7386,52.6598],[6.7349899,52.6715209]]}},{"type":"Feature","properties":{"van_id":"jb-ver-246","naar_id":"jb-loc-1250","tekst_bron":"Geruim in 1953, overgebracht naar nieuwe begraafplaats"},"geometry":{"type":"LineString","coordinates":[[5.4123,53.1731],[5.4235279,53.1785888]]}}]}