{
 "type": "FeatureCollection",
 "name": "joodse_begraafplaatsen",
 "generated_at": "2026-10-02T12:45:05.926866+00:00",
 "features": [
  {
   "type": "Feature",
   "properties": {
    "id": "jb-loc-1459",
    "reeks": "loc",
    "nr": 1459,
    "naam": "Nieuwe Israelitische Begraafplaats",
    "label_punt": "Nieuw Joodse begraafplaats, Amersfoort",
    "status": "in_gebruik",
    "status_bron": "In gebruik",
    "adres": "Soesterweg 126",
    "adres_aanduiding": null,
    "postcode": "3812 BD",
    "plaats": "Amersfoort",
    "gemeente_bron": "Amersfoort",
    "provincie_bron": "Utrecht",
    "provincie": "Utrecht",
    "mip": false,
    "rijksmonument": true,
    "gemeentelijk_monument": false,
    "rijksmonumentnummer": 517678,
    "rmon_bron": "517678",
    "link": "https://monumentenregister.cultureelerfgoed.nl/monumenten/517678",
    "beschermd_deel": "Poortgebouw, beheerderswoning, zerken",
    "eigenaar": null,
    "eigenaar_postadres": null,
    "eigenaar_postcode": null,
    "eigenaar_plaats": null,
    "jaartal": 1873,
    "jaartal_bron": "1873",
    "circa": null,
    "grondvorm": "Recht",
    "met": true,
    "muur": null,
    "bijzonderheden": "500 zerken",
    "grootte_m2": 2695,
    "grootte_bron": "2695",
    "kadaster": true,
    "laatste_bezoek": 2008,
    "locatie_precisie": "ingang",
    "terrein_koppelwijze": "binnen_naamvariant",
    "terrein_naam_kml": "Nieuwe joodse begraafplaats, Amersfoort",
    "terrein_opp_m2": 2706,
    "lon": 5.3698673,
    "lat": 52.1566943
   },
   "geometry": {
    "type": "Point",
    "coordinates": [
     5.3698673,
     52.1566943
    ]
   }
  },
  {
   "type": "Feature",
   "properties": {
    "id": "jb-loc-1458",
    "reeks": "loc",
    "nr": 1458,
    "naam": "Oude Israëlitische begraafplaats",
    "label_punt": "Oud Joodse begraafplaats, Amersfoort",
    "status": "in_gebruik",
    "status_bron": "In gebruik",
    "adres": "Bloemendalsestraat",
    "adres_aanduiding": null,
    "postcode": "3811 ES",
    "plaats": "Amersfoort",
    "gemeente_bron": "Amersfoort",
    "provincie_bron": "Utrecht",
    "provincie": "Utrecht",
    "mip": true,
    "rijksmonument": false,
    "gemeentelijk_monument": false,
    "rijksmonumentnummer": null,
    "rmon_bron": "Geen",
    "link": null,
    "beschermd_deel": null,
    "eigenaar": null,
    "eigenaar_postadres": null,
    "eigenaar_postcode": null,
    "eigenaar_plaats": null,
    "jaartal": 1700,
    "jaartal_bron": "1700",
    "circa": null,
    "grondvorm": "Recht",
    "met": false,
    "muur": null,
    "bijzonderheden": "1750-1880, 150 zerken",
    "grootte_m2": 2100,
    "grootte_bron": "2100",
    "kadaster": true,
    "laatste_bezoek": 2019,
    "locatie_precisie": "ingang",
    "terrein_koppelwijze": "binnen_naamvariant",
    "terrein_naam_kml": "Oude joodse begraafplaats, Amersfoort",
    "terrein_opp_m2": 2117,
    "lon": 5.3896718,
    "lat": 52.1601392
   },
   "geometry": {
    "type": "Point",
    "coordinates": [
     5.3896718,
     52.1601392
    ]
   }
  },
  {
   "type": "Feature",
   "properties": {
    "id": "jb-loc-2443",
    "reeks": "loc",
    "nr": 2443,
    "naam": "Portugees-Joodse Begraafplaats",
    "label_punt": "Portugees-Joodse begraafplaats, Amersfoort",
    "status": "in_gebruik",
    "status_bron": "In gebruik",
    "adres": "Bloemendalsestraat",
    "adres_aanduiding": null,
    "postcode": "3811 ES",
    "plaats": "Amersfoort",
    "gemeente_bron": "Amersfoort",
    "provincie_bron": "Utrecht",
    "provincie": "Utrecht",
    "mip": false,
    "rijksmonument": false,
    "gemeentelijk_monument": false,
    "rijksmonumentnummer": null,
    "rmon_bron": "Geen",
    "link": null,
    "beschermd_deel": null,
    "eigenaar": null,
    "eigenaar_postadres": null,
    "eigenaar_postcode": null,
    "eigenaar_plaats": null,
    "jaartal": 1670,
    "jaartal_bron": "1670",
    "circa": null,
    "grondvorm": "Recht",
    "met": false,
    "muur": null,
    "bijzonderheden": "halve grafsteen, rest is overgebracht naar de overkant",
    "grootte_m2": 150,
    "grootte_bron": "150",
    "kadaster": false,
    "laatste_bezoek": 2019,
    "locatie_precisie": "ingang",
    "terrein_koppelwijze": "binnen_naam_gelijk",
    "terrein_naam_kml": "Portugees Joodse begraafplaats, Amersfoort",
    "terrein_opp_m2": 152,
    "lon": 5.3900699,
    "lat": 52.1604282
   },
   "geometry": {
    "type": "Point",
    "coordinates": [
     5.3900699,
     52.1604282
    ]
   }
  },
  {
   "type": "Feature",
   "properties": {
    "id": "jb-loc-4368",
    "reeks": "loc",
    "nr": 4368,
    "naam": "Progressieve joodse begraafplaats",
    "label_punt": "Joodse begraafplaats, Bilthoven",
    "status": "in_gebruik",
    "status_bron": "In gebruik",
    "adres": "1e Brandenburgerweg 38",
    "adres_aanduiding": null,
    "postcode": "3721 MJ",
    "plaats": "Bilthoven",
    "gemeente_bron": "De Bilt",
    "provincie_bron": "Utrecht",
    "provincie": "Utrecht",
    "mip": false,
    "rijksmonument": false,
    "gemeentelijk_monument": false,
    "rijksmonumentnummer": null,
    "rmon_bron": "Geen",
    "link": null,
    "beschermd_deel": null,
    "eigenaar": "Progressief Joodse Gemeente Midden Nederland.",
    "eigenaar_postadres": null,
    "eigenaar_postcode": null,
    "eigenaar_plaats": null,
    "jaartal": 2024,
    "jaartal_bron": "2024",
    "circa": null,
    "grondvorm": "Recht",
    "met": false,
    "muur": null,
    "bijzonderheden": null,
    "grootte_m2": 300,
    "grootte_bron": "300",
    "kadaster": false,
    "laatste_bezoek": 2024,
    "locatie_precisie": "ingang",
    "terrein_koppelwijze": "geen_terrein",
    "terrein_naam_kml": null,
    "terrein_opp_m2": null,
    "lon": 5.1886787,
    "lat": 52.1171137
   },
   "geometry": {
    "type": "Point",
    "coordinates": [
     5.1886787,
     52.1171137
    ]
   }
  },
  {
   "type": "Feature",
   "properties": {
    "id": "jb-ver-491",
    "reeks": "ver",
    "nr": 491,
    "naam": "Joodse begraafplaats",
    "label_punt": "Joodse begraafplaats, De Bilt",
    "status": "verdwenen",
    "status_bron": "Verdwenen",
    "adres": "De Kwinkelier 30",
    "adres_aanduiding": null,
    "postcode": "3722 AR",
    "plaats": "De Bilt",
    "gemeente_bron": "De Bilt",
    "provincie_bron": "Utrecht",
    "provincie": "Utrecht",
    "mip": null,
    "rijksmonument": null,
    "gemeentelijk_monument": null,
    "rijksmonumentnummer": null,
    "rmon_bron": null,
    "link": null,
    "beschermd_deel": null,
    "eigenaar": null,
    "eigenaar_postadres": null,
    "eigenaar_postcode": null,
    "eigenaar_plaats": null,
    "jaartal": 1797,
    "jaartal_bron": "1797",
    "circa": null,
    "grondvorm": "Recht",
    "met": null,
    "muur": null,
    "bijzonderheden": "- 1807, verder gegaan in Utrecht, nu winkelcentrum",
    "grootte_m2": null,
    "grootte_bron": null,
    "kadaster": null,
    "laatste_bezoek": null,
    "locatie_precisie": "bij_benadering",
    "terrein_koppelwijze": "niet_van_toepassing",
    "terrein_naam_kml": null,
    "terrein_opp_m2": null,
    "lon": 5.2098476,
    "lat": 52.1283342
   },
   "geometry": {
    "type": "Point",
    "coordinates": [
     5.2098476,
     52.1283342
    ]
   }
  },
  {
   "type": "Feature",
   "properties": {
    "id": "jb-loc-239",
    "reeks": "loc",
    "nr": 239,
    "naam": "Joods deel achter de Algemene begraafplaats",
    "label_punt": "Joods deel achter de alg. begraafplaats, Leerdam",
    "status": "in_gebruik",
    "status_bron": "In gebruik",
    "adres": "Lingedijk 34",
    "adres_aanduiding": null,
    "postcode": "4142 LD",
    "plaats": "Leerdam",
    "gemeente_bron": "Vijfheerenlanden",
    "provincie_bron": "Utrecht",
    "provincie": "Utrecht",
    "mip": false,
    "rijksmonument": false,
    "gemeentelijk_monument": false,
    "rijksmonumentnummer": null,
    "rmon_bron": "Geen",
    "link": null,
    "beschermd_deel": null,
    "eigenaar": null,
    "eigenaar_postadres": null,
    "eigenaar_postcode": null,
    "eigenaar_plaats": null,
    "jaartal": 1832,
    "jaartal_bron": "1832",
    "circa": null,
    "grondvorm": "Recht",
    "met": false,
    "muur": null,
    "bijzonderheden": "Aangelegd achter de oorspronkelijke begraafplaats",
    "grootte_m2": 40,
    "grootte_bron": "40",
    "kadaster": false,
    "laatste_bezoek": 2022,
    "locatie_precisie": "ingang",
    "terrein_koppelwijze": "binnen_naam_gelijk",
    "terrein_naam_kml": "Joods deel achter de alg. begraafplaats, Leerdam",
    "terrein_opp_m2": 37,
    "lon": 5.083136,
    "lat": 51.8814605
   },
   "geometry": {
    "type": "Point",
    "coordinates": [
     5.083136,
     51.8814605
    ]
   }
  },
  {
   "type": "Feature",
   "properties": {
    "id": "jb-loc-366",
    "reeks": "loc",
    "nr": 366,
    "naam": "Joodse Begraafplaats op Algemene Begraafplaats",
    "label_punt": "Joodse begraafplaats, Leerdam",
    "status": "in_gebruik",
    "status_bron": "In gebruik",
    "adres": "Lingedijk 34",
    "adres_aanduiding": null,
    "postcode": "4142 LD",
    "plaats": "Leerdam",
    "gemeente_bron": "Vijfheerenlanden",
    "provincie_bron": "Utrecht",
    "provincie": "Utrecht",
    "mip": false,
    "rijksmonument": true,
    "gemeentelijk_monument": false,
    "rijksmonumentnummer": 514992,
    "rmon_bron": "514992",
    "link": "https://monumentenregister.cultureelerfgoed.nl/monumenten/514992",
    "beschermd_deel": "Onderdeel",
    "eigenaar": null,
    "eigenaar_postadres": null,
    "eigenaar_postcode": null,
    "eigenaar_plaats": null,
    "jaartal": 1854,
    "jaartal_bron": "1854",
    "circa": null,
    "grondvorm": "Recht",
    "met": false,
    "muur": null,
    "bijzonderheden": "Aangelegd als onderdeel van Algemene begraafplaats Leerdam, 33 zerken",
    "grootte_m2": 270,
    "grootte_bron": "270",
    "kadaster": false,
    "laatste_bezoek": 2022,
    "locatie_precisie": "ingang",
    "terrein_koppelwijze": "binnen_naam_gelijk",
    "terrein_naam_kml": "Joodse begraafplaats, Leerdam",
    "terrein_opp_m2": 272,
    "lon": 5.0840322,
    "lat": 51.8808774
   },
   "geometry": {
    "type": "Point",
    "coordinates": [
     5.0840322,
     51.8808774
    ]
   }
  },
  {
   "type": "Feature",
   "properties": {
    "id": "jb-ver-498",
    "reeks": "ver",
    "nr": 498,
    "naam": "Joodse begraafplaats",
    "label_punt": "Joodse begraafplaats, Leerdam",
    "status": "verdwenen",
    "status_bron": "Verdwenen",
    "adres": "Oranje Nassaulaan 1",
    "adres_aanduiding": null,
    "postcode": "4141 CR",
    "plaats": "Leerdam",
    "gemeente_bron": "Vijfheerenlanden",
    "provincie_bron": "Utrecht",
    "provincie": "Utrecht",
    "mip": null,
    "rijksmonument": null,
    "gemeentelijk_monument": null,
    "rijksmonumentnummer": null,
    "rmon_bron": null,
    "link": null,
    "beschermd_deel": null,
    "eigenaar": null,
    "eigenaar_postadres": null,
    "eigenaar_postcode": null,
    "eigenaar_plaats": null,
    "jaartal": 1767,
    "jaartal_bron": "1767",
    "circa": null,
    "grondvorm": "Recht",
    "met": null,
    "muur": null,
    "bijzonderheden": "Bebouwd, resten overgebracht naar voorste begraafplaats op Dijk (opgehoogd)",
    "grootte_m2": null,
    "grootte_bron": null,
    "kadaster": null,
    "laatste_bezoek": null,
    "locatie_precisie": "bij_benadering",
    "terrein_koppelwijze": "niet_van_toepassing",
    "terrein_naam_kml": null,
    "terrein_opp_m2": null,
    "lon": 5.0965617,
    "lat": 51.8907765
   },
   "geometry": {
    "type": "Point",
    "coordinates": [
     5.0965617,
     51.8907765
    ]
   }
  },
  {
   "type": "Feature",
   "properties": {
    "id": "jb-ver-774",
    "reeks": "ver",
    "nr": 774,
    "naam": "Oude Joodse begraafplaats",
    "label_punt": "Oude Joodse begraafplaats, Leerdam",
    "status": "verdwenen",
    "status_bron": "Verdwenen",
    "adres": "Recht van Ter Lede 11",
    "adres_aanduiding": null,
    "postcode": "4143 LN",
    "plaats": "Leerdam",
    "gemeente_bron": "Vijfheerenlanden",
    "provincie_bron": "Utrecht",
    "provincie": "Utrecht",
    "mip": null,
    "rijksmonument": null,
    "gemeentelijk_monument": null,
    "rijksmonumentnummer": null,
    "rmon_bron": null,
    "link": null,
    "beschermd_deel": null,
    "eigenaar": null,
    "eigenaar_postadres": null,
    "eigenaar_postcode": null,
    "eigenaar_plaats": null,
    "jaartal": null,
    "jaartal_bron": "onbekend",
    "circa": null,
    "grondvorm": null,
    "met": null,
    "muur": null,
    "bijzonderheden": null,
    "grootte_m2": null,
    "grootte_bron": null,
    "kadaster": null,
    "laatste_bezoek": null,
    "locatie_precisie": "bij_benadering",
    "terrein_koppelwijze": "niet_van_toepassing",
    "terrein_naam_kml": null,
    "terrein_opp_m2": null,
    "lon": 5.0806311,
    "lat": 51.8990554
   },
   "geometry": {
    "type": "Point",
    "coordinates": [
     5.0806311,
     51.8990554
    ]
   }
  },
  {
   "type": "Feature",
   "properties": {
    "id": "jb-loc-1643",
    "reeks": "loc",
    "nr": 1643,
    "naam": "Joodse Begraafplaats Tienhoven",
    "label_punt": "Joodse begraafplaats, Maarssen",
    "status": "in_gebruik",
    "status_bron": "In gebruik",
    "adres": "Machinekade",
    "adres_aanduiding": null,
    "postcode": "3601 AS",
    "plaats": "Maarssen",
    "gemeente_bron": "Stichtse Vecht",
    "provincie_bron": "Utrecht",
    "provincie": "Utrecht",
    "mip": true,
    "rijksmonument": false,
    "gemeentelijk_monument": true,
    "rijksmonumentnummer": null,
    "rmon_bron": "Geen",
    "link": null,
    "beschermd_deel": "Begraafplaats",
    "eigenaar": "Nederlands Israëlitisch Kerkgenootschap",
    "eigenaar_postadres": null,
    "eigenaar_postcode": null,
    "eigenaar_plaats": null,
    "jaartal": 1749,
    "jaartal_bron": "1749",
    "circa": null,
    "grondvorm": "Recht",
    "met": false,
    "muur": null,
    "bijzonderheden": "3 stenen",
    "grootte_m2": 550,
    "grootte_bron": "550",
    "kadaster": false,
    "laatste_bezoek": 2008,
    "locatie_precisie": "ingang",
    "terrein_koppelwijze": "binnen_naamvariant",
    "terrein_naam_kml": "Joods Maarssen",
    "terrein_opp_m2": 551,
    "lon": 5.0459287,
    "lat": 52.1563514
   },
   "geometry": {
    "type": "Point",
    "coordinates": [
     5.0459287,
     52.1563514
    ]
   }
  },
  {
   "type": "Feature",
   "properties": {
    "id": "jb-loc-1448",
    "reeks": "loc",
    "nr": 1448,
    "naam": "Joodse Begraafplaats",
    "label_punt": "Joodse begraafplaats, Rhenen",
    "status": "in_gebruik",
    "status_bron": "In gebruik",
    "adres": "Lupinestraat",
    "adres_aanduiding": null,
    "postcode": "3911 ZJ",
    "plaats": "Rhenen",
    "gemeente_bron": "Rhenen",
    "provincie_bron": "Utrecht",
    "provincie": "Utrecht",
    "mip": true,
    "rijksmonument": false,
    "gemeentelijk_monument": true,
    "rijksmonumentnummer": null,
    "rmon_bron": "Geen",
    "link": null,
    "beschermd_deel": "Begraafplaats",
    "eigenaar": null,
    "eigenaar_postadres": null,
    "eigenaar_postcode": null,
    "eigenaar_plaats": null,
    "jaartal": 1891,
    "jaartal_bron": "1891",
    "circa": null,
    "grondvorm": "Recht",
    "met": false,
    "muur": null,
    "bijzonderheden": "3 stenen",
    "grootte_m2": 370,
    "grootte_bron": "370",
    "kadaster": false,
    "laatste_bezoek": 2013,
    "locatie_precisie": "ingang",
    "terrein_koppelwijze": "binnen_naam_gelijk",
    "terrein_naam_kml": "Joodse begraafplaats, Rhenen",
    "terrein_opp_m2": 372,
    "lon": 5.5721317,
    "lat": 51.9660573
   },
   "geometry": {
    "type": "Point",
    "coordinates": [
     5.5721317,
     51.9660573
    ]
   }
  },
  {
   "type": "Feature",
   "properties": {
    "id": "jb-loc-1854",
    "reeks": "loc",
    "nr": 1854,
    "naam": "Joodse Begraafplaats aan de Vecht",
    "label_punt": "Joodse begraafplaats, Utrecht",
    "status": "in_gebruik",
    "status_bron": "In gebruik",
    "adres": "Zandpad 3",
    "adres_aanduiding": null,
    "postcode": "3552 TJ",
    "plaats": "Utrecht",
    "gemeente_bron": "Utrecht",
    "provincie_bron": "Utrecht",
    "provincie": "Utrecht",
    "mip": false,
    "rijksmonument": true,
    "gemeentelijk_monument": false,
    "rijksmonumentnummer": 514446,
    "rmon_bron": "514446",
    "link": "https://monumentenregister.cultureelerfgoed.nl/complexen/514446",
    "beschermd_deel": "Poortgebouw, baarhuisje en aanleg",
    "eigenaar": null,
    "eigenaar_postadres": null,
    "eigenaar_postcode": null,
    "eigenaar_plaats": null,
    "jaartal": 1807,
    "jaartal_bron": "1807",
    "circa": null,
    "grondvorm": "Recht",
    "met": true,
    "muur": null,
    "bijzonderheden": "ca 375 zerken",
    "grootte_m2": 5330,
    "grootte_bron": "5330",
    "kadaster": true,
    "laatste_bezoek": 2007,
    "locatie_precisie": "ingang",
    "terrein_koppelwijze": "binnen_naam_gelijk",
    "terrein_naam_kml": "Joodse begraafplaats, Utrecht",
    "terrein_opp_m2": 5352,
    "lon": 5.1058909,
    "lat": 52.1095755
   },
   "geometry": {
    "type": "Point",
    "coordinates": [
     5.1058909,
     52.1095755
    ]
   }
  },
  {
   "type": "Feature",
   "properties": {
    "id": "jb-loc-4171",
    "reeks": "loc",
    "nr": 4171,
    "naam": "Joodse Begraafplaats",
    "label_punt": "Joodse begraafplaats, Veenendaal",
    "status": "in_gebruik",
    "status_bron": "In gebruik",
    "adres": "Parallelweg 66",
    "adres_aanduiding": null,
    "postcode": "3903 BD",
    "plaats": "Veenendaal",
    "gemeente_bron": "Veenendaal",
    "provincie_bron": "Utrecht",
    "provincie": "Utrecht",
    "mip": true,
    "rijksmonument": false,
    "gemeentelijk_monument": true,
    "rijksmonumentnummer": null,
    "rmon_bron": "Geen",
    "link": null,
    "beschermd_deel": "Begraafplaats",
    "eigenaar": null,
    "eigenaar_postadres": null,
    "eigenaar_postcode": null,
    "eigenaar_plaats": null,
    "jaartal": 1890,
    "jaartal_bron": "1890",
    "circa": null,
    "grondvorm": "Recht",
    "met": true,
    "muur": null,
    "bijzonderheden": null,
    "grootte_m2": 920,
    "grootte_bron": "920",
    "kadaster": true,
    "laatste_bezoek": 2019,
    "locatie_precisie": "ingang",
    "terrein_koppelwijze": "geen_terrein",
    "terrein_naam_kml": null,
    "terrein_opp_m2": null,
    "lon": 5.5543408,
    "lat": 52.0135508
   },
   "geometry": {
    "type": "Point",
    "coordinates": [
     5.5543408,
     52.0135508
    ]
   }
  },
  {
   "type": "Feature",
   "properties": {
    "id": "jb-loc-1856",
    "reeks": "loc",
    "nr": 1856,
    "naam": "Joodse Begraafplaats",
    "label_punt": "Joodse begraafplaats, Vianen",
    "status": "in_gebruik",
    "status_bron": "In gebruik",
    "adres": "Sparrendreef 12",
    "adres_aanduiding": "bij",
    "postcode": "4132 XX",
    "plaats": "Vianen",
    "gemeente_bron": "Vijfheerenlanden",
    "provincie_bron": "Utrecht",
    "provincie": "Utrecht",
    "mip": false,
    "rijksmonument": false,
    "gemeentelijk_monument": false,
    "rijksmonumentnummer": null,
    "rmon_bron": "Geen",
    "link": null,
    "beschermd_deel": null,
    "eigenaar": null,
    "eigenaar_postadres": null,
    "eigenaar_postcode": null,
    "eigenaar_plaats": null,
    "jaartal": 1829,
    "jaartal_bron": "1829",
    "circa": null,
    "grondvorm": "Recht",
    "met": false,
    "muur": null,
    "bijzonderheden": "35 zerken",
    "grootte_m2": 830,
    "grootte_bron": "830",
    "kadaster": false,
    "laatste_bezoek": 2022,
    "locatie_precisie": "ingang",
    "terrein_koppelwijze": "binnen_naam_gelijk",
    "terrein_naam_kml": "Joodse begraafplaats, Vianen",
    "terrein_opp_m2": 833,
    "lon": 5.0873032,
    "lat": 51.9863641
   },
   "geometry": {
    "type": "Point",
    "coordinates": [
     5.0873032,
     51.9863641
    ]
   }
  },
  {
   "type": "Feature",
   "properties": {
    "id": "jb-ver-294",
    "reeks": "ver",
    "nr": 294,
    "naam": "Joodse begraafplaats Walsland",
    "label_punt": "Joodse begraafplaats Walsland, Vianen",
    "status": "verdwenen",
    "status_bron": "Verdwenen",
    "adres": "Walsland 94",
    "adres_aanduiding": "bij",
    "postcode": "4132 BN",
    "plaats": "Vianen",
    "gemeente_bron": "Vijfheerenlanden",
    "provincie_bron": "Utrecht",
    "provincie": "Utrecht",
    "mip": null,
    "rijksmonument": null,
    "gemeentelijk_monument": null,
    "rijksmonumentnummer": null,
    "rmon_bron": null,
    "link": null,
    "beschermd_deel": null,
    "eigenaar": null,
    "eigenaar_postadres": null,
    "eigenaar_postcode": null,
    "eigenaar_plaats": null,
    "jaartal": 1807,
    "jaartal_bron": "1807",
    "circa": null,
    "grondvorm": "Recht",
    "met": null,
    "muur": null,
    "bijzonderheden": "1807-1820, nu overbouwd",
    "grootte_m2": null,
    "grootte_bron": null,
    "kadaster": null,
    "laatste_bezoek": null,
    "locatie_precisie": "bij_benadering",
    "terrein_koppelwijze": "niet_van_toepassing",
    "terrein_naam_kml": null,
    "terrein_opp_m2": null,
    "lon": 5.0953769,
    "lat": 51.9932156
   },
   "geometry": {
    "type": "Point",
    "coordinates": [
     5.0953769,
     51.9932156
    ]
   }
  },
  {
   "type": "Feature",
   "properties": {
    "id": "jb-ver-293",
    "reeks": "ver",
    "nr": 293,
    "naam": "Oude Joodse begraafplaats",
    "label_punt": "Oude Joodse begraafplaats, Vianen",
    "status": "verdwenen",
    "status_bron": "Verdwenen",
    "adres": "Zomerdijk",
    "adres_aanduiding": null,
    "postcode": null,
    "plaats": "Vianen",
    "gemeente_bron": "Vijfheerenlanden",
    "provincie_bron": "Utrecht",
    "provincie": "Utrecht",
    "mip": null,
    "rijksmonument": null,
    "gemeentelijk_monument": null,
    "rijksmonumentnummer": null,
    "rmon_bron": null,
    "link": null,
    "beschermd_deel": null,
    "eigenaar": null,
    "eigenaar_postadres": null,
    "eigenaar_postcode": null,
    "eigenaar_plaats": null,
    "jaartal": 1720,
    "jaartal_bron": "1720",
    "circa": null,
    "grondvorm": "Recht",
    "met": null,
    "muur": null,
    "bijzonderheden": "1720-1810",
    "grootte_m2": null,
    "grootte_bron": null,
    "kadaster": null,
    "laatste_bezoek": null,
    "locatie_precisie": "bij_benadering",
    "terrein_koppelwijze": "niet_van_toepassing",
    "terrein_naam_kml": null,
    "terrein_opp_m2": null,
    "lon": 5.096026,
    "lat": 51.9966968
   },
   "geometry": {
    "type": "Point",
    "coordinates": [
     5.096026,
     51.9966968
    ]
   }
  },
  {
   "type": "Feature",
   "properties": {
    "id": "jb-loc-167",
    "reeks": "loc",
    "nr": 167,
    "naam": "Joodse Begraafplaats",
    "label_punt": "Joodse begraafplaats, Wijk bij Duurstede",
    "status": "in_gebruik",
    "status_bron": "In gebruik",
    "adres": "Steenstraat 6",
    "adres_aanduiding": "bij",
    "postcode": "3961 CE",
    "plaats": "Wijk bij Duurstede",
    "gemeente_bron": "Wijk bij Duurstede",
    "provincie_bron": "Utrecht",
    "provincie": "Utrecht",
    "mip": false,
    "rijksmonument": false,
    "gemeentelijk_monument": true,
    "rijksmonumentnummer": null,
    "rmon_bron": "Geen",
    "link": null,
    "beschermd_deel": null,
    "eigenaar": null,
    "eigenaar_postadres": null,
    "eigenaar_postcode": null,
    "eigenaar_plaats": null,
    "jaartal": 1828,
    "jaartal_bron": "1828",
    "circa": null,
    "grondvorm": "Recht",
    "met": false,
    "muur": null,
    "bijzonderheden": "15 zerken",
    "grootte_m2": 575,
    "grootte_bron": "575",
    "kadaster": false,
    "laatste_bezoek": 2013,
    "locatie_precisie": "ingang",
    "terrein_koppelwijze": "binnen_naam_gelijk",
    "terrein_naam_kml": "Joodse begraafplaats, Wijk bij Duurstede",
    "terrein_opp_m2": 579,
    "lon": 5.3433507,
    "lat": 51.9756898
   },
   "geometry": {
    "type": "Point",
    "coordinates": [
     5.3433507,
     51.9756898
    ]
   }
  },
  {
   "type": "Feature",
   "properties": {
    "id": "jb-ver-753",
    "reeks": "ver",
    "nr": 753,
    "naam": "Joodse begraafplaats",
    "label_punt": "Eerste joodse begraafplaats, Wijk bij Duurstede",
    "status": "verdwenen",
    "status_bron": "Verdwenen",
    "adres": "Lekdijk Oost 3",
    "adres_aanduiding": "bij",
    "postcode": "3961 MB",
    "plaats": "Wijk bij Duurstede",
    "gemeente_bron": "Wijk bij Duurstede",
    "provincie_bron": "Utrecht",
    "provincie": "Utrecht",
    "mip": null,
    "rijksmonument": null,
    "gemeentelijk_monument": null,
    "rijksmonumentnummer": null,
    "rmon_bron": null,
    "link": null,
    "beschermd_deel": null,
    "eigenaar": null,
    "eigenaar_postadres": null,
    "eigenaar_postcode": null,
    "eigenaar_plaats": null,
    "jaartal": 1734,
    "jaartal_bron": "1734",
    "circa": "ja",
    "grondvorm": "Recht",
    "met": null,
    "muur": null,
    "bijzonderheden": "Exacte locatie niet duidelijk….",
    "grootte_m2": null,
    "grootte_bron": null,
    "kadaster": null,
    "laatste_bezoek": null,
    "locatie_precisie": "bij_benadering",
    "terrein_koppelwijze": "niet_van_toepassing",
    "terrein_naam_kml": null,
    "terrein_opp_m2": null,
    "lon": 5.3475609,
    "lat": 51.9698338
   },
   "geometry": {
    "type": "Point",
    "coordinates": [
     5.3475609,
     51.9698338
    ]
   }
  },
  {
   "type": "Feature",
   "properties": {
    "id": "jb-loc-819",
    "reeks": "loc",
    "nr": 819,
    "naam": "Oude Joodse Begraafplaats",
    "label_punt": "Oude Joodse begraafplaats, Wijk bij Duurstede",
    "status": "in_gebruik",
    "status_bron": "In gebruik",
    "adres": "Langs de Wal 1",
    "adres_aanduiding": "bij",
    "postcode": "3961 AB",
    "plaats": "Wijk bij Duurstede",
    "gemeente_bron": "Wijk bij Duurstede",
    "provincie_bron": "Utrecht",
    "provincie": "Utrecht",
    "mip": false,
    "rijksmonument": false,
    "gemeentelijk_monument": false,
    "rijksmonumentnummer": null,
    "rmon_bron": "Geen",
    "link": null,
    "beschermd_deel": null,
    "eigenaar": null,
    "eigenaar_postadres": null,
    "eigenaar_postcode": null,
    "eigenaar_plaats": null,
    "jaartal": 1817,
    "jaartal_bron": "1817",
    "circa": null,
    "grondvorm": "Recht",
    "met": false,
    "muur": null,
    "bijzonderheden": "2 zerken",
    "grootte_m2": 245,
    "grootte_bron": "245",
    "kadaster": false,
    "laatste_bezoek": 2013,
    "locatie_precisie": "ingang",
    "terrein_koppelwijze": "binnen_naam_gelijk",
    "terrein_naam_kml": "Oude Joodse begraafplaats, Wijk bij Duurstede",
    "terrein_opp_m2": 248,
    "lon": 5.3428905,
    "lat": 51.9709228
   },
   "geometry": {
    "type": "Point",
    "coordinates": [
     5.3428905,
     51.9709228
    ]
   }
  },
  {
   "type": "Feature",
   "properties": {
    "id": "jb-loc-1838",
    "reeks": "loc",
    "nr": 1838,
    "naam": "Joodse Begraafplaats",
    "label_punt": "Joodse begraafplaats, Woerden",
    "status": "in_gebruik",
    "status_bron": "In gebruik",
    "adres": "Westdam 1",
    "adres_aanduiding": null,
    "postcode": "3441 GA",
    "plaats": "Woerden",
    "gemeente_bron": "Woerden",
    "provincie_bron": "Utrecht",
    "provincie": "Utrecht",
    "mip": true,
    "rijksmonument": false,
    "gemeentelijk_monument": true,
    "rijksmonumentnummer": null,
    "rmon_bron": "Geen",
    "link": null,
    "beschermd_deel": "Begraafplaats",
    "eigenaar": null,
    "eigenaar_postadres": null,
    "eigenaar_postcode": null,
    "eigenaar_plaats": null,
    "jaartal": 1856,
    "jaartal_bron": "1856",
    "circa": null,
    "grondvorm": "Recht",
    "met": true,
    "muur": null,
    "bijzonderheden": "22 zerken (ook uit Gouda)",
    "grootte_m2": 370,
    "grootte_bron": "370",
    "kadaster": true,
    "laatste_bezoek": 2008,
    "locatie_precisie": "ingang",
    "terrein_koppelwijze": "binnen_naam_gelijk",
    "terrein_naam_kml": "Joodse begraafplaats, Woerden",
    "terrein_opp_m2": 370,
    "lon": 4.8813828,
    "lat": 52.0885976
   },
   "geometry": {
    "type": "Point",
    "coordinates": [
     4.8813828,
     52.0885976
    ]
   }
  },
  {
   "type": "Feature",
   "properties": {
    "id": "jb-loc-3888",
    "reeks": "loc",
    "nr": 3888,
    "naam": "Joodse Begraafplaats Scheveningen (gemengd)",
    "label_punt": "Joodse begraafplaats, Den Haag",
    "status": "in_gebruik",
    "status_bron": "In gebruik",
    "adres": "Scheveningseweg 21a",
    "adres_aanduiding": null,
    "postcode": "2517 KS",
    "plaats": "'s-Gravenhage",
    "gemeente_bron": "Den Haag",
    "provincie_bron": "Zuid-Holland",
    "provincie": "Zuid-Holland",
    "mip": false,
    "rijksmonument": true,
    "gemeentelijk_monument": false,
    "rijksmonumentnummer": 18067,
    "rmon_bron": "18067",
    "link": "https://monumentenregister.cultureelerfgoed.nl/monumenten/18067",
    "beschermd_deel": "Begraafplaats",
    "eigenaar": "Joodse gemeente Den Haag",
    "eigenaar_postadres": "Kruisbeklaan 57",
    "eigenaar_postcode": "2566CN",
    "eigenaar_plaats": "Den Haag",
    "jaartal": 1694,
    "jaartal_bron": "1694",
    "circa": null,
    "grondvorm": "Recht",
    "met": true,
    "muur": null,
    "bijzonderheden": "ca 3000 zerken, 10.000 graven sleutel bij receptie NIB Capital, Carnegieplein 4",
    "grootte_m2": 22380,
    "grootte_bron": "22380",
    "kadaster": true,
    "laatste_bezoek": 2024,
    "locatie_precisie": "ingang",
    "terrein_koppelwijze": "binnen_naam_gelijk",
    "terrein_naam_kml": "Joodse begraafplaats, Den Haag",
    "terrein_opp_m2": 22465,
    "lon": 4.2962457,
    "lat": 52.0893669
   },
   "geometry": {
    "type": "Point",
    "coordinates": [
     4.2962457,
     52.0893669
    ]
   }
  },
  {
   "type": "Feature",
   "properties": {
    "id": "jb-ger-68",
    "reeks": "ger",
    "nr": 68,
    "naam": "Joodse Begraafplaats",
    "label_punt": "Joodse begraafplaats, Alphen aan den Rijn (geruimd)",
    "status": "geruimd",
    "status_bron": "Geruimd",
    "adres": "Aarkade 63",
    "adres_aanduiding": null,
    "postcode": "2406 BW",
    "plaats": "Alphen aan den Rijn",
    "gemeente_bron": "Alphen aan den Rijn",
    "provincie_bron": "Zuid-Holland",
    "provincie": "Zuid-Holland",
    "mip": false,
    "rijksmonument": false,
    "gemeentelijk_monument": false,
    "rijksmonumentnummer": null,
    "rmon_bron": "Geen",
    "link": null,
    "beschermd_deel": null,
    "eigenaar": null,
    "eigenaar_postadres": null,
    "eigenaar_postcode": null,
    "eigenaar_plaats": null,
    "jaartal": 1802,
    "jaartal_bron": "1802",
    "circa": null,
    "grondvorm": "Recht",
    "met": true,
    "muur": null,
    "bijzonderheden": "1802-1964, metaheerhuisje nog aanwezig",
    "grootte_m2": 1970,
    "grootte_bron": "1970",
    "kadaster": false,
    "laatste_bezoek": 2013,
    "locatie_precisie": "ingang",
    "terrein_koppelwijze": "binnen_naam_gelijk",
    "terrein_naam_kml": "Joodse begraafplaats, Alphen aan den Rijn (geruimd)",
    "terrein_opp_m2": 1981,
    "lon": 4.6676485,
    "lat": 52.1307418
   },
   "geometry": {
    "type": "Point",
    "coordinates": [
     4.6676485,
     52.1307418
    ]
   }
  },
  {
   "type": "Feature",
   "properties": {
    "id": "jb-loc-1559",
    "reeks": "loc",
    "nr": 1559,
    "naam": "Joodse Begraafplaats",
    "label_punt": "Joodse begraafplaats, Delft",
    "status": "in_gebruik",
    "status_bron": "In gebruik",
    "adres": "Geertruyt van Oostenstraat 53",
    "adres_aanduiding": "bij",
    "postcode": "2612 RP",
    "plaats": "Delft",
    "gemeente_bron": "Delft",
    "provincie_bron": "Zuid-Holland",
    "provincie": "Zuid-Holland",
    "mip": false,
    "rijksmonument": false,
    "gemeentelijk_monument": false,
    "rijksmonumentnummer": null,
    "rmon_bron": "Geen",
    "link": null,
    "beschermd_deel": null,
    "eigenaar": null,
    "eigenaar_postadres": null,
    "eigenaar_postcode": null,
    "eigenaar_plaats": null,
    "jaartal": 1800,
    "jaartal_bron": "1800",
    "circa": null,
    "grondvorm": "Recht",
    "met": false,
    "muur": null,
    "bijzonderheden": "1800-1940, 25 zerken",
    "grootte_m2": 780,
    "grootte_bron": "780",
    "kadaster": false,
    "laatste_bezoek": 2010,
    "locatie_precisie": "ingang",
    "terrein_koppelwijze": "binnen_naam_gelijk",
    "terrein_naam_kml": "Joodse begraafplaats, Delft",
    "terrein_opp_m2": 781,
    "lon": 4.3712585,
    "lat": 52.013506
   },
   "geometry": {
    "type": "Point",
    "coordinates": [
     4.3712585,
     52.013506
    ]
   }
  },
  {
   "type": "Feature",
   "properties": {
    "id": "jb-loc-1935",
    "reeks": "loc",
    "nr": 1935,
    "naam": "Joodse Begraafplaats",
    "label_punt": "Joodse begraafplaats, Dirksland",
    "status": "in_gebruik",
    "status_bron": "In gebruik",
    "adres": "Oost Havendijk 8a",
    "adres_aanduiding": "bij",
    "postcode": "3247 LD",
    "plaats": "Dirksland",
    "gemeente_bron": "Goeree-Overflakkee",
    "provincie_bron": "Zuid-Holland",
    "provincie": "Zuid-Holland",
    "mip": false,
    "rijksmonument": false,
    "gemeentelijk_monument": false,
    "rijksmonumentnummer": null,
    "rmon_bron": "Geen",
    "link": null,
    "beschermd_deel": null,
    "eigenaar": null,
    "eigenaar_postadres": null,
    "eigenaar_postcode": null,
    "eigenaar_plaats": null,
    "jaartal": 1847,
    "jaartal_bron": "1847",
    "circa": null,
    "grondvorm": "Recht",
    "met": false,
    "muur": null,
    "bijzonderheden": "9 zerken",
    "grootte_m2": 540,
    "grootte_bron": "540",
    "kadaster": false,
    "laatste_bezoek": 2024,
    "locatie_precisie": "ingang",
    "terrein_koppelwijze": "binnen_naam_gelijk",
    "terrein_naam_kml": "Joodse begraafplaats, Dirksland",
    "terrein_opp_m2": 540,
    "lon": 4.1048355,
    "lat": 51.7510438
   },
   "geometry": {
    "type": "Point",
    "coordinates": [
     4.1048355,
     51.7510438
    ]
   }
  },
  {
   "type": "Feature",
   "properties": {
    "id": "jb-loc-1912",
    "reeks": "loc",
    "nr": 1912,
    "naam": "Joodse Begraafplaats",
    "label_punt": "Joodse begraafplaats, Dordrecht",
    "status": "in_gebruik",
    "status_bron": "In gebruik",
    "adres": "Nieuweweg 2",
    "adres_aanduiding": "bij",
    "postcode": "3314 JS",
    "plaats": "Dordrecht",
    "gemeente_bron": "Dordrecht",
    "provincie_bron": "Zuid-Holland",
    "provincie": "Zuid-Holland",
    "mip": true,
    "rijksmonument": true,
    "gemeentelijk_monument": false,
    "rijksmonumentnummer": 522272,
    "rmon_bron": "522272",
    "link": "https://monumentenregister.cultureelerfgoed.nl/monumenten/522272",
    "beschermd_deel": "Begraafplaats",
    "eigenaar": null,
    "eigenaar_postadres": null,
    "eigenaar_postcode": null,
    "eigenaar_plaats": null,
    "jaartal": 1871,
    "jaartal_bron": "1871",
    "circa": null,
    "grondvorm": "Recht",
    "met": true,
    "muur": null,
    "bijzonderheden": "ca 375 zerken",
    "grootte_m2": 2100,
    "grootte_bron": "2100",
    "kadaster": true,
    "laatste_bezoek": 2016,
    "locatie_precisie": "ingang",
    "terrein_koppelwijze": "binnen_naam_gelijk",
    "terrein_naam_kml": "Joodse begraafplaats, Dordrecht",
    "terrein_opp_m2": 2108,
    "lon": 4.6779896,
    "lat": 51.8012888
   },
   "geometry": {
    "type": "Point",
    "coordinates": [
     4.6779896,
     51.8012888
    ]
   }
  },
  {
   "type": "Feature",
   "properties": {
    "id": "jb-ver-182",
    "reeks": "ver",
    "nr": 182,
    "naam": "Joodse begraafplaats",
    "label_punt": "Joodse begraafplaats, Dordrecht",
    "status": "verdwenen",
    "status_bron": "Verdwenen",
    "adres": "Hoogt 12",
    "adres_aanduiding": "bij",
    "postcode": "3311 WK",
    "plaats": "Dordrecht",
    "gemeente_bron": "Dordrecht",
    "provincie_bron": "Zuid-Holland",
    "provincie": "Zuid-Holland",
    "mip": null,
    "rijksmonument": null,
    "gemeentelijk_monument": null,
    "rijksmonumentnummer": null,
    "rmon_bron": null,
    "link": null,
    "beschermd_deel": null,
    "eigenaar": null,
    "eigenaar_postadres": null,
    "eigenaar_postcode": null,
    "eigenaar_plaats": null,
    "jaartal": 1738,
    "jaartal_bron": "1738",
    "circa": null,
    "grondvorm": "Recht",
    "met": null,
    "muur": null,
    "bijzonderheden": "In 1871 gesloten. In 1958 geruimd. Overgebracht naar Strijen (maar ook nieuwe begraafplaats en Rotterdam?)",
    "grootte_m2": null,
    "grootte_bron": null,
    "kadaster": null,
    "laatste_bezoek": null,
    "locatie_precisie": "bij_benadering",
    "terrein_koppelwijze": "niet_van_toepassing",
    "terrein_naam_kml": null,
    "terrein_opp_m2": null,
    "lon": 4.6562949,
    "lat": 51.8111724
   },
   "geometry": {
    "type": "Point",
    "coordinates": [
     4.6562949,
     51.8111724
    ]
   }
  },
  {
   "type": "Feature",
   "properties": {
    "id": "jb-loc-1714",
    "reeks": "loc",
    "nr": 1714,
    "naam": "Joodse Begraafplaats van Voorne Putten",
    "label_punt": "Joodse begraafplaats, Geervliet",
    "status": "in_gebruik",
    "status_bron": "In gebruik",
    "adres": "Spuikade 2",
    "adres_aanduiding": "tegenover",
    "postcode": "3211 BG",
    "plaats": "Geervliet",
    "gemeente_bron": "Nissewaard",
    "provincie_bron": "Zuid-Holland",
    "provincie": "Zuid-Holland",
    "mip": false,
    "rijksmonument": true,
    "gemeentelijk_monument": false,
    "rijksmonumentnummer": 9377,
    "rmon_bron": "9377",
    "link": "https://monumentenregister.cultureelerfgoed.nl/monumenten/9377",
    "beschermd_deel": "Begraafplaats",
    "eigenaar": null,
    "eigenaar_postadres": null,
    "eigenaar_postcode": null,
    "eigenaar_plaats": null,
    "jaartal": 1781,
    "jaartal_bron": "1781",
    "circa": null,
    "grondvorm": "Recht",
    "met": false,
    "muur": null,
    "bijzonderheden": "1781-1940, 85 stèles",
    "grootte_m2": 1345,
    "grootte_bron": "1345",
    "kadaster": true,
    "laatste_bezoek": 2005,
    "locatie_precisie": "ingang",
    "terrein_koppelwijze": "binnen_naam_gelijk",
    "terrein_naam_kml": "Joodse begraafplaats, Geervliet",
    "terrein_opp_m2": 1352,
    "lon": 4.2552275,
    "lat": 51.8602692
   },
   "geometry": {
    "type": "Point",
    "coordinates": [
     4.2552275,
     51.8602692
    ]
   }
  },
  {
   "type": "Feature",
   "properties": {
    "id": "jb-loc-1913",
    "reeks": "loc",
    "nr": 1913,
    "naam": "Joodse Begraafplaats",
    "label_punt": "Joodse begraafplaats, Goedereede",
    "status": "in_gebruik",
    "status_bron": "In gebruik",
    "adres": "Mariadijk 2",
    "adres_aanduiding": "bij",
    "postcode": "3252 BB",
    "plaats": "Goedereede",
    "gemeente_bron": "Goeree-Overflakkee",
    "provincie_bron": "Zuid-Holland",
    "provincie": "Zuid-Holland",
    "mip": false,
    "rijksmonument": false,
    "gemeentelijk_monument": false,
    "rijksmonumentnummer": null,
    "rmon_bron": "Geen",
    "link": null,
    "beschermd_deel": null,
    "eigenaar": null,
    "eigenaar_postadres": null,
    "eigenaar_postcode": null,
    "eigenaar_plaats": null,
    "jaartal": 1812,
    "jaartal_bron": "1812",
    "circa": null,
    "grondvorm": "Recht",
    "met": false,
    "muur": null,
    "bijzonderheden": "1812-1900, geen stenen",
    "grootte_m2": 255,
    "grootte_bron": "255",
    "kadaster": true,
    "laatste_bezoek": 2024,
    "locatie_precisie": "ingang",
    "terrein_koppelwijze": "binnen_naam_gelijk",
    "terrein_naam_kml": "Joodse begraafplaats, Goedereede",
    "terrein_opp_m2": 257,
    "lon": 3.9723936,
    "lat": 51.8159909
   },
   "geometry": {
    "type": "Point",
    "coordinates": [
     3.9723936,
     51.8159909
    ]
   }
  },
  {
   "type": "Feature",
   "properties": {
    "id": "jb-loc-1844",
    "reeks": "loc",
    "nr": 1844,
    "naam": "Joodse Begraafplaats",
    "label_punt": "Joodse begraafplaats, Gorinchem",
    "status": "in_gebruik",
    "status_bron": "In gebruik",
    "adres": "Willem de Vries Robbéweg 10",
    "adres_aanduiding": null,
    "postcode": "4206 AL",
    "plaats": "Gorinchem",
    "gemeente_bron": "Gorinchem",
    "provincie_bron": "Zuid-Holland",
    "provincie": "Zuid-Holland",
    "mip": false,
    "rijksmonument": true,
    "gemeentelijk_monument": false,
    "rijksmonumentnummer": 525108,
    "rmon_bron": "525108",
    "link": "https://monumentenregister.cultureelerfgoed.nl/monumenten/525108",
    "beschermd_deel": "Begraafplaats, aula en hek",
    "eigenaar": null,
    "eigenaar_postadres": null,
    "eigenaar_postcode": null,
    "eigenaar_plaats": null,
    "jaartal": 1814,
    "jaartal_bron": "1814",
    "circa": null,
    "grondvorm": "Recht",
    "met": true,
    "muur": null,
    "bijzonderheden": "134 zerken",
    "grootte_m2": 1215,
    "grootte_bron": "1215",
    "kadaster": true,
    "laatste_bezoek": 2005,
    "locatie_precisie": "ingang",
    "terrein_koppelwijze": "binnen_naam_gelijk",
    "terrein_naam_kml": "Joodse begraafplaats, Gorinchem",
    "terrein_opp_m2": 1219,
    "lon": 4.9786068,
    "lat": 51.8366192
   },
   "geometry": {
    "type": "Point",
    "coordinates": [
     4.9786068,
     51.8366192
    ]
   }
  },
  {
   "type": "Feature",
   "properties": {
    "id": "jb-ver-280",
    "reeks": "ver",
    "nr": 280,
    "naam": "Joodse Begraafplaats",
    "label_punt": "Joodse begraafplaats, Gouda",
    "status": "verdwenen",
    "status_bron": "Verdwenen",
    "adres": "Bloemendaalse Weg 89",
    "adres_aanduiding": "bij",
    "postcode": "2803 AW",
    "plaats": "Gouda",
    "gemeente_bron": "Gouda",
    "provincie_bron": "Zuid-Holland",
    "provincie": "Zuid-Holland",
    "mip": null,
    "rijksmonument": null,
    "gemeentelijk_monument": null,
    "rijksmonumentnummer": null,
    "rmon_bron": null,
    "link": null,
    "beschermd_deel": null,
    "eigenaar": null,
    "eigenaar_postadres": null,
    "eigenaar_postcode": null,
    "eigenaar_plaats": null,
    "jaartal": 1930,
    "jaartal_bron": "1930",
    "circa": null,
    "grondvorm": "Recht",
    "met": null,
    "muur": null,
    "bijzonderheden": "In 1976 ivm hoge waterstand geruimd en overgebracht naar Wageningen",
    "grootte_m2": null,
    "grootte_bron": null,
    "kadaster": null,
    "laatste_bezoek": null,
    "locatie_precisie": "bij_benadering",
    "terrein_koppelwijze": "niet_van_toepassing",
    "terrein_naam_kml": null,
    "terrein_opp_m2": null,
    "lon": 4.7066487,
    "lat": 52.0236997
   },
   "geometry": {
    "type": "Point",
    "coordinates": [
     4.7066487,
     52.0236997
    ]
   }
  },
  {
   "type": "Feature",
   "properties": {
    "id": "jb-ver-281",
    "reeks": "ver",
    "nr": 281,
    "naam": "Oude Joodse Begraafplaats",
    "label_punt": "Oude joodse begraafplaats, Gouda",
    "status": "verdwenen",
    "status_bron": "Verdwenen",
    "adres": "Boelekade 3",
    "adres_aanduiding": "bij",
    "postcode": "2801 PD",
    "plaats": "Gouda",
    "gemeente_bron": "Gouda",
    "provincie_bron": "Zuid-Holland",
    "provincie": "Zuid-Holland",
    "mip": null,
    "rijksmonument": null,
    "gemeentelijk_monument": null,
    "rijksmonumentnummer": null,
    "rmon_bron": null,
    "link": null,
    "beschermd_deel": null,
    "eigenaar": null,
    "eigenaar_postadres": null,
    "eigenaar_postcode": null,
    "eigenaar_plaats": null,
    "jaartal": 1815,
    "jaartal_bron": "1815",
    "circa": null,
    "grondvorm": "Recht",
    "met": null,
    "muur": null,
    "bijzonderheden": "In 1976 ivm hoge waterstand geruimd en overgebracht naar Wageningen",
    "grootte_m2": null,
    "grootte_bron": null,
    "kadaster": null,
    "laatste_bezoek": null,
    "locatie_precisie": "bij_benadering",
    "terrein_koppelwijze": "niet_van_toepassing",
    "terrein_naam_kml": null,
    "terrein_opp_m2": null,
    "lon": 4.7100026,
    "lat": 52.0161317
   },
   "geometry": {
    "type": "Point",
    "coordinates": [
     4.7100026,
     52.0161317
    ]
   }
  },
  {
   "type": "Feature",
   "properties": {
    "id": "jb-loc-4189",
    "reeks": "loc",
    "nr": 4189,
    "naam": "Joodse Begraafplaats",
    "label_punt": "Joodse begraafplaats, Katwijk aan den Rijn",
    "status": "in_gebruik",
    "status_bron": "In gebruik",
    "adres": "Rijnstraat 151",
    "adres_aanduiding": null,
    "postcode": "2223 EA",
    "plaats": "Katwijk",
    "gemeente_bron": "Katwijk",
    "provincie_bron": "Zuid-Holland",
    "provincie": "Zuid-Holland",
    "mip": false,
    "rijksmonument": true,
    "gemeentelijk_monument": false,
    "rijksmonumentnummer": 23527,
    "rmon_bron": "23527",
    "link": "https://monumentenregister.cultureelerfgoed.nl/monumenten/23527",
    "beschermd_deel": "Begraafplaats",
    "eigenaar": null,
    "eigenaar_postadres": "Rijnstraat 151",
    "eigenaar_postcode": "2223 EA",
    "eigenaar_plaats": "Katwijk",
    "jaartal": 1758,
    "jaartal_bron": "1758",
    "circa": null,
    "grondvorm": "Recht",
    "met": true,
    "muur": null,
    "bijzonderheden": "ca 450 zerken, met name voor Leiden",
    "grootte_m2": 3375,
    "grootte_bron": "3375",
    "kadaster": true,
    "laatste_bezoek": 2023,
    "locatie_precisie": "ingang",
    "terrein_koppelwijze": "binnen_naam_gelijk",
    "terrein_naam_kml": "Joodse begraafplaats, Katwijk aan den Rijn",
    "terrein_opp_m2": 3386,
    "lon": 4.4217855,
    "lat": 52.1981616
   },
   "geometry": {
    "type": "Point",
    "coordinates": [
     4.4217855,
     52.1981616
    ]
   }
  },
  {
   "type": "Feature",
   "properties": {
    "id": "jb-ver-107",
    "reeks": "ver",
    "nr": 107,
    "naam": "Joodse armenbegraafplaats",
    "label_punt": "Joodse armenbegraafplaats, Leiden",
    "status": "verdwenen",
    "status_bron": "Verdwenen",
    "adres": "bij molen De Valk",
    "adres_aanduiding": null,
    "postcode": "2312 CK",
    "plaats": "Leiden",
    "gemeente_bron": "Leiden",
    "provincie_bron": "Zuid-Holland",
    "provincie": "Zuid-Holland",
    "mip": null,
    "rijksmonument": null,
    "gemeentelijk_monument": null,
    "rijksmonumentnummer": null,
    "rmon_bron": null,
    "link": null,
    "beschermd_deel": null,
    "eigenaar": null,
    "eigenaar_postadres": null,
    "eigenaar_postcode": null,
    "eigenaar_plaats": null,
    "jaartal": 1869,
    "jaartal_bron": "1869",
    "circa": null,
    "grondvorm": "Recht",
    "met": null,
    "muur": null,
    "bijzonderheden": "in 1961 geruimd",
    "grootte_m2": null,
    "grootte_bron": null,
    "kadaster": null,
    "laatste_bezoek": null,
    "locatie_precisie": "bij_benadering",
    "terrein_koppelwijze": "niet_van_toepassing",
    "terrein_naam_kml": null,
    "terrein_opp_m2": null,
    "lon": 4.4877338,
    "lat": 52.1642324
   },
   "geometry": {
    "type": "Point",
    "coordinates": [
     4.4877338,
     52.1642324
    ]
   }
  },
  {
   "type": "Feature",
   "properties": {
    "id": "jb-ver-105",
    "reeks": "ver",
    "nr": 105,
    "naam": "Oude Joodse Begraafplaats",
    "label_punt": "Oude joodse begraafplaats, Leiden",
    "status": "verdwenen",
    "status_bron": "Verdwenen",
    "adres": "Blauwe bolwerk",
    "adres_aanduiding": null,
    "postcode": "2300 AA",
    "plaats": "Leiden",
    "gemeente_bron": "Leiden",
    "provincie_bron": "Zuid-Holland",
    "provincie": "Zuid-Holland",
    "mip": null,
    "rijksmonument": null,
    "gemeentelijk_monument": null,
    "rijksmonumentnummer": null,
    "rmon_bron": null,
    "link": null,
    "beschermd_deel": null,
    "eigenaar": null,
    "eigenaar_postadres": null,
    "eigenaar_postcode": null,
    "eigenaar_plaats": null,
    "jaartal": 1719,
    "jaartal_bron": "1719",
    "circa": null,
    "grondvorm": "Recht",
    "met": null,
    "muur": null,
    "bijzonderheden": "na 1758 geruimd, overgebracht naar Katwijk. Nu Sterrenwacht",
    "grootte_m2": null,
    "grootte_bron": null,
    "kadaster": null,
    "laatste_bezoek": null,
    "locatie_precisie": "bij_benadering",
    "terrein_koppelwijze": "niet_van_toepassing",
    "terrein_naam_kml": null,
    "terrein_opp_m2": null,
    "lon": 4.4838529,
    "lat": 52.154936
   },
   "geometry": {
    "type": "Point",
    "coordinates": [
     4.4838529,
     52.154936
    ]
   }
  },
  {
   "type": "Feature",
   "properties": {
    "id": "jb-loc-3452",
    "reeks": "loc",
    "nr": 3452,
    "naam": "Joodse Begraafplaats",
    "label_punt": "Joodse begraafplaats, Lekkerkerk",
    "status": "in_gebruik",
    "status_bron": "In gebruik",
    "adres": "Kerkweg 149",
    "adres_aanduiding": "bij",
    "postcode": "2941 BJ",
    "plaats": "Lekkerkerk",
    "gemeente_bron": "Krimpenerwaard",
    "provincie_bron": "Zuid-Holland",
    "provincie": "Zuid-Holland",
    "mip": false,
    "rijksmonument": false,
    "gemeentelijk_monument": true,
    "rijksmonumentnummer": null,
    "rmon_bron": "Geen",
    "link": null,
    "beschermd_deel": "Begraafplaats",
    "eigenaar": null,
    "eigenaar_postadres": null,
    "eigenaar_postcode": null,
    "eigenaar_plaats": null,
    "jaartal": 1866,
    "jaartal_bron": "1866",
    "circa": null,
    "grondvorm": "Recht",
    "met": false,
    "muur": null,
    "bijzonderheden": "6 zerken",
    "grootte_m2": 150,
    "grootte_bron": "150",
    "kadaster": false,
    "laatste_bezoek": 2016,
    "locatie_precisie": "ingang",
    "terrein_koppelwijze": "binnen_naam_gelijk",
    "terrein_naam_kml": "Joodse begraafplaats, Lekkerkerk",
    "terrein_opp_m2": 154,
    "lon": 4.6837425,
    "lat": 51.9026238
   },
   "geometry": {
    "type": "Point",
    "coordinates": [
     4.6837425,
     51.9026238
    ]
   }
  },
  {
   "type": "Feature",
   "properties": {
    "id": "jb-loc-4140",
    "reeks": "loc",
    "nr": 4140,
    "naam": "Joodse Begraafplaats op Algemene Begraafplaats",
    "label_punt": "Joodse begraafplaats, Maassluis",
    "status": "in_gebruik",
    "status_bron": "In gebruik",
    "adres": "Willem de Zwijgerstraat 36",
    "adres_aanduiding": null,
    "postcode": "3143 LR",
    "plaats": "Maassluis",
    "gemeente_bron": "Maassluis",
    "provincie_bron": "Zuid-Holland",
    "provincie": "Zuid-Holland",
    "mip": false,
    "rijksmonument": false,
    "gemeentelijk_monument": false,
    "rijksmonumentnummer": null,
    "rmon_bron": "Geen",
    "link": null,
    "beschermd_deel": null,
    "eigenaar": null,
    "eigenaar_postadres": null,
    "eigenaar_postcode": null,
    "eigenaar_plaats": null,
    "jaartal": 1950,
    "jaartal_bron": "1950",
    "circa": null,
    "grondvorm": "Recht",
    "met": false,
    "muur": null,
    "bijzonderheden": "23 zerken, in 1950 overgebracht van oude begraafplaats",
    "grootte_m2": 200,
    "grootte_bron": "200",
    "kadaster": false,
    "laatste_bezoek": 2023,
    "locatie_precisie": "ingang",
    "terrein_koppelwijze": "binnen_naam_gelijk",
    "terrein_naam_kml": "Joodse begraafplaats, Maassluis",
    "terrein_opp_m2": 198,
    "lon": 4.2566003,
    "lat": 51.9158603
   },
   "geometry": {
    "type": "Point",
    "coordinates": [
     4.2566003,
     51.9158603
    ]
   }
  },
  {
   "type": "Feature",
   "properties": {
    "id": "jb-ver-425",
    "reeks": "ver",
    "nr": 425,
    "naam": "Joodse begraafplaats",
    "label_punt": "Joodse begraafplats, Maassluis",
    "status": "verdwenen",
    "status_bron": "Verdwenen",
    "adres": "Mackayplein 40",
    "adres_aanduiding": "bij",
    "postcode": "3144 CK",
    "plaats": "Maassluis",
    "gemeente_bron": "Maassluis",
    "provincie_bron": "Zuid-Holland",
    "provincie": "Zuid-Holland",
    "mip": null,
    "rijksmonument": null,
    "gemeentelijk_monument": null,
    "rijksmonumentnummer": null,
    "rmon_bron": null,
    "link": null,
    "beschermd_deel": null,
    "eigenaar": null,
    "eigenaar_postadres": null,
    "eigenaar_postcode": null,
    "eigenaar_plaats": null,
    "jaartal": null,
    "jaartal_bron": "onbekend",
    "circa": null,
    "grondvorm": "Recht",
    "met": null,
    "muur": null,
    "bijzonderheden": "In 1950 geruimd, overgebracht naar gemeentelijke begraafplaats",
    "grootte_m2": null,
    "grootte_bron": null,
    "kadaster": null,
    "laatste_bezoek": null,
    "locatie_precisie": "bij_benadering",
    "terrein_koppelwijze": "niet_van_toepassing",
    "terrein_naam_kml": null,
    "terrein_opp_m2": null,
    "lon": 4.2488789,
    "lat": 51.922245
   },
   "geometry": {
    "type": "Point",
    "coordinates": [
     4.2488789,
     51.922245
    ]
   }
  },
  {
   "type": "Feature",
   "properties": {
    "id": "jb-loc-1944",
    "reeks": "loc",
    "nr": 1944,
    "naam": "Joodse Begraafplaats",
    "label_punt": "Joodse begraafplaats, Middelharnis",
    "status": "in_gebruik",
    "status_bron": "In gebruik",
    "adres": "Hoflaan",
    "adres_aanduiding": null,
    "postcode": "3241 AC",
    "plaats": "Middelharnis",
    "gemeente_bron": "Goeree-Overflakkee",
    "provincie_bron": "Zuid-Holland",
    "provincie": "Zuid-Holland",
    "mip": false,
    "rijksmonument": false,
    "gemeentelijk_monument": false,
    "rijksmonumentnummer": null,
    "rmon_bron": "Geen",
    "link": null,
    "beschermd_deel": null,
    "eigenaar": null,
    "eigenaar_postadres": null,
    "eigenaar_postcode": null,
    "eigenaar_plaats": null,
    "jaartal": 1865,
    "jaartal_bron": "1865",
    "circa": null,
    "grondvorm": "Recht",
    "met": false,
    "muur": null,
    "bijzonderheden": "56 zerken",
    "grootte_m2": 585,
    "grootte_bron": "585",
    "kadaster": false,
    "laatste_bezoek": 2024,
    "locatie_precisie": "ingang",
    "terrein_koppelwijze": "binnen_naam_gelijk",
    "terrein_naam_kml": "Joodse begraafplaats, Middelharnis",
    "terrein_opp_m2": 586,
    "lon": 4.1619082,
    "lat": 51.7582398
   },
   "geometry": {
    "type": "Point",
    "coordinates": [
     4.1619082,
     51.7582398
    ]
   }
  },
  {
   "type": "Feature",
   "properties": {
    "id": "jb-loc-1660",
    "reeks": "loc",
    "nr": 1660,
    "naam": "Joodse Begraafplaats",
    "label_punt": "Joodse begraafplaats, Naaldwijk",
    "status": "in_gebruik",
    "status_bron": "In gebruik",
    "adres": "Opstalweg 20",
    "adres_aanduiding": "bij",
    "postcode": "2671 LX",
    "plaats": "Naaldwijk",
    "gemeente_bron": "Westland",
    "provincie_bron": "Zuid-Holland",
    "provincie": "Zuid-Holland",
    "mip": false,
    "rijksmonument": false,
    "gemeentelijk_monument": true,
    "rijksmonumentnummer": null,
    "rmon_bron": "Geen",
    "link": null,
    "beschermd_deel": "Begraafplaats",
    "eigenaar": "Joodse gemeente Den Haag",
    "eigenaar_postadres": null,
    "eigenaar_postcode": null,
    "eigenaar_plaats": null,
    "jaartal": 1793,
    "jaartal_bron": "1793",
    "circa": null,
    "grondvorm": "Recht",
    "met": false,
    "muur": null,
    "bijzonderheden": "31 zerken",
    "grootte_m2": 1100,
    "grootte_bron": "1100",
    "kadaster": true,
    "laatste_bezoek": 2007,
    "locatie_precisie": "ingang",
    "terrein_koppelwijze": "binnen_naam_gelijk",
    "terrein_naam_kml": "Joodse begraafplaats, Naaldwijk",
    "terrein_opp_m2": 1103,
    "lon": 4.1946378,
    "lat": 51.9952574
   },
   "geometry": {
    "type": "Point",
    "coordinates": [
     4.1946378,
     51.9952574
    ]
   }
  },
  {
   "type": "Feature",
   "properties": {
    "id": "jb-loc-1397",
    "reeks": "loc",
    "nr": 1397,
    "naam": "Joodse Begraafplaats",
    "label_punt": "Joodse begraafplaats, Oud Beijerland",
    "status": "in_gebruik",
    "status_bron": "In gebruik",
    "adres": "Prinses Irenestraat",
    "adres_aanduiding": null,
    "postcode": "3261 AP",
    "plaats": "Oud Beijerland",
    "gemeente_bron": "Hoeksche Waard",
    "provincie_bron": "Zuid-Holland",
    "provincie": "Zuid-Holland",
    "mip": false,
    "rijksmonument": false,
    "gemeentelijk_monument": true,
    "rijksmonumentnummer": null,
    "rmon_bron": "Geen",
    "link": null,
    "beschermd_deel": "Begraafplaats",
    "eigenaar": null,
    "eigenaar_postadres": null,
    "eigenaar_postcode": null,
    "eigenaar_plaats": null,
    "jaartal": 1790,
    "jaartal_bron": "1790",
    "circa": null,
    "grondvorm": "Recht",
    "met": false,
    "muur": null,
    "bijzonderheden": "1790-1948, 65 zerken",
    "grootte_m2": 1430,
    "grootte_bron": "1430",
    "kadaster": true,
    "laatste_bezoek": 2022,
    "locatie_precisie": "ingang",
    "terrein_koppelwijze": "binnen_naam_gelijk",
    "terrein_naam_kml": "Joodse begraafplaats, Oud Beijerland",
    "terrein_opp_m2": 1432,
    "lon": 4.420426,
    "lat": 51.8231068
   },
   "geometry": {
    "type": "Point",
    "coordinates": [
     4.420426,
     51.8231068
    ]
   }
  },
  {
   "type": "Feature",
   "properties": {
    "id": "jb-loc-874",
    "reeks": "loc",
    "nr": 874,
    "naam": "Joodse Begraafplaats op Algemene Begraafplaats",
    "label_punt": "Joods deel begraafplaats Oud-Rijswijk, Rijswijk",
    "status": "in_gebruik",
    "status_bron": "In gebruik",
    "adres": "Winston Churchilllaan 233",
    "adres_aanduiding": null,
    "postcode": "2282 JS",
    "plaats": "Rijswijk",
    "gemeente_bron": "Rijswijk",
    "provincie_bron": "Zuid-Holland",
    "provincie": "Zuid-Holland",
    "mip": false,
    "rijksmonument": false,
    "gemeentelijk_monument": false,
    "rijksmonumentnummer": null,
    "rmon_bron": "Geen",
    "link": null,
    "beschermd_deel": null,
    "eigenaar": null,
    "eigenaar_postadres": null,
    "eigenaar_postcode": null,
    "eigenaar_plaats": null,
    "jaartal": 1937,
    "jaartal_bron": "1937",
    "circa": null,
    "grondvorm": "Recht",
    "met": false,
    "muur": null,
    "bijzonderheden": null,
    "grootte_m2": 110,
    "grootte_bron": "110",
    "kadaster": false,
    "laatste_bezoek": 2020,
    "locatie_precisie": "ingang",
    "terrein_koppelwijze": "binnen_naamvariant",
    "terrein_naam_kml": "Joods deel op Oud Rijswijk, Rijswijk",
    "terrein_opp_m2": 112,
    "lon": 4.3377479,
    "lat": 52.0469267
   },
   "geometry": {
    "type": "Point",
    "coordinates": [
     4.3377479,
     52.0469267
    ]
   }
  },
  {
   "type": "Feature",
   "properties": {
    "id": "jb-loc-243",
    "reeks": "loc",
    "nr": 243,
    "naam": "Liberaal Joodse Begraafplaats Beth Hachaim",
    "label_punt": "Liberaal Joodse begraafplaats, Rijswijk",
    "status": "in_gebruik",
    "status_bron": "In gebruik",
    "adres": "Eikelenburglaan 7",
    "adres_aanduiding": null,
    "postcode": "2286 KA",
    "plaats": "Rijswijk",
    "gemeente_bron": "Rijswijk",
    "provincie_bron": "Zuid-Holland",
    "provincie": "Zuid-Holland",
    "mip": false,
    "rijksmonument": false,
    "gemeentelijk_monument": false,
    "rijksmonumentnummer": null,
    "rmon_bron": "Geen",
    "link": null,
    "beschermd_deel": null,
    "eigenaar": "Liberale Joodse Gemeente Den Haag",
    "eigenaar_postadres": null,
    "eigenaar_postcode": null,
    "eigenaar_plaats": null,
    "jaartal": 1990,
    "jaartal_bron": "1990",
    "circa": null,
    "grondvorm": "Recht",
    "met": false,
    "muur": null,
    "bijzonderheden": null,
    "grootte_m2": 580,
    "grootte_bron": "580",
    "kadaster": false,
    "laatste_bezoek": 2018,
    "locatie_precisie": "ingang",
    "terrein_koppelwijze": "binnen_naam_gelijk",
    "terrein_naam_kml": "Liberaal Joodse begraafplaats, Rijswijk",
    "terrein_opp_m2": 587,
    "lon": 4.3094074,
    "lat": 52.0209155
   },
   "geometry": {
    "type": "Point",
    "coordinates": [
     4.3094074,
     52.0209155
    ]
   }
  },
  {
   "type": "Feature",
   "properties": {
    "id": "jb-loc-4200",
    "reeks": "loc",
    "nr": 4200,
    "naam": "Het Toepad",
    "label_punt": "Joodse begraafplaats Toepad, Rotterdam",
    "status": "in_gebruik",
    "status_bron": "In gebruik",
    "adres": "Toepad 65",
    "adres_aanduiding": null,
    "postcode": "3063 NJ",
    "plaats": "Rotterdam",
    "gemeente_bron": "Rotterdam",
    "provincie_bron": "Zuid-Holland",
    "provincie": "Zuid-Holland",
    "mip": false,
    "rijksmonument": true,
    "gemeentelijk_monument": false,
    "rijksmonumentnummer": 32923,
    "rmon_bron": "32923",
    "link": "https://monumentenregister.cultureelerfgoed.nl/monumenten/32923",
    "beschermd_deel": "Begraafplaats",
    "eigenaar": "N.I.G. Rotterdam",
    "eigenaar_postadres": null,
    "eigenaar_postcode": null,
    "eigenaar_plaats": null,
    "jaartal": 1895,
    "jaartal_bron": "1895",
    "circa": null,
    "grondvorm": "Recht",
    "met": true,
    "muur": null,
    "bijzonderheden": null,
    "grootte_m2": 27900,
    "grootte_bron": "27900",
    "kadaster": true,
    "laatste_bezoek": 2019,
    "locatie_precisie": "ingang",
    "terrein_koppelwijze": "binnen_naamvariant",
    "terrein_naam_kml": "Joodse begraafplaats Het Toepad, Rotterdam",
    "terrein_opp_m2": 28026,
    "lon": 4.5330266,
    "lat": 51.9100747
   },
   "geometry": {
    "type": "Point",
    "coordinates": [
     4.5330266,
     51.9100747
    ]
   }
  },
  {
   "type": "Feature",
   "properties": {
    "id": "jb-loc-3618",
    "reeks": "loc",
    "nr": 3618,
    "naam": "Joodse Begraafplaats Delfshaven",
    "label_punt": "Joodse begraafplaats Delfshaven, Rotterdam",
    "status": "in_gebruik",
    "status_bron": "In gebruik",
    "adres": "Kerkepad 13",
    "adres_aanduiding": null,
    "postcode": "3024 CJ",
    "plaats": "Rotterdam",
    "gemeente_bron": "Rotterdam",
    "provincie_bron": "Zuid-Holland",
    "provincie": "Zuid-Holland",
    "mip": false,
    "rijksmonument": false,
    "gemeentelijk_monument": false,
    "rijksmonumentnummer": null,
    "rmon_bron": "Geen",
    "link": null,
    "beschermd_deel": null,
    "eigenaar": null,
    "eigenaar_postadres": null,
    "eigenaar_postcode": null,
    "eigenaar_plaats": null,
    "jaartal": 1865,
    "jaartal_bron": "1865",
    "circa": null,
    "grondvorm": "Recht",
    "met": false,
    "muur": null,
    "bijzonderheden": "1865-1898, maakte deel uit van begraafplaats Schoonderlo, geruimd 1923",
    "grootte_m2": 200,
    "grootte_bron": "200",
    "kadaster": false,
    "laatste_bezoek": 2022,
    "locatie_precisie": "ingang",
    "terrein_koppelwijze": "binnen_naam_gelijk",
    "terrein_naam_kml": "Joodse begraafplaats Delfshaven, Rotterdam",
    "terrein_opp_m2": 197,
    "lon": 4.4573557,
    "lat": 51.9059871
   },
   "geometry": {
    "type": "Point",
    "coordinates": [
     4.4573557,
     51.9059871
    ]
   }
  },
  {
   "type": "Feature",
   "properties": {
    "id": "jb-loc-1478",
    "reeks": "loc",
    "nr": 1478,
    "naam": "Joodse Begraafplaats Oostzeedijk (gemengd)",
    "label_punt": "Joodse begraafplaats Oostzeedijk, Rotterdam",
    "status": "in_gebruik",
    "status_bron": "In gebruik",
    "adres": "Oostzeedijk 276",
    "adres_aanduiding": null,
    "postcode": "3063 CA",
    "plaats": "Rotterdam",
    "gemeente_bron": "Rotterdam",
    "provincie_bron": "Zuid-Holland",
    "provincie": "Zuid-Holland",
    "mip": false,
    "rijksmonument": false,
    "gemeentelijk_monument": true,
    "rijksmonumentnummer": null,
    "rmon_bron": "Geen",
    "link": null,
    "beschermd_deel": "Begraafplaats",
    "eigenaar": "N.I.G. Rotterdam",
    "eigenaar_postadres": "bij Infirmeriestraat",
    "eigenaar_postcode": null,
    "eigenaar_plaats": null,
    "jaartal": 1696,
    "jaartal_bron": "1696",
    "circa": null,
    "grondvorm": "Recht",
    "met": false,
    "muur": null,
    "bijzonderheden": "1696-1833, 195 zerken",
    "grootte_m2": 900,
    "grootte_bron": "900",
    "kadaster": false,
    "laatste_bezoek": 2016,
    "locatie_precisie": "ingang",
    "terrein_koppelwijze": "binnen_naam_gelijk",
    "terrein_naam_kml": "Joodse begraafplaats Oostzeedijk, Rotterdam",
    "terrein_opp_m2": 913,
    "lon": 4.503172,
    "lat": 51.9220034
   },
   "geometry": {
    "type": "Point",
    "coordinates": [
     4.503172,
     51.9220034
    ]
   }
  },
  {
   "type": "Feature",
   "properties": {
    "id": "jb-ver-361",
    "reeks": "ver",
    "nr": 361,
    "naam": "Joodse begraafplaats Dijkstraat",
    "label_punt": "Joodse begraafplaats, Rotterdam",
    "status": "verdwenen",
    "status_bron": "Verdwenen",
    "adres": "Eikenpage 43",
    "adres_aanduiding": "bij",
    "postcode": "3061 WS",
    "plaats": "Rotterdam",
    "gemeente_bron": "Rotterdam",
    "provincie_bron": "Zuid-Holland",
    "provincie": "Zuid-Holland",
    "mip": null,
    "rijksmonument": null,
    "gemeentelijk_monument": "Geen",
    "rijksmonumentnummer": null,
    "rmon_bron": "geen",
    "link": null,
    "beschermd_deel": null,
    "eigenaar": null,
    "eigenaar_postadres": null,
    "eigenaar_postcode": null,
    "eigenaar_plaats": null,
    "jaartal": 1737,
    "jaartal_bron": "1737",
    "circa": null,
    "grondvorm": "Recht",
    "met": null,
    "muur": null,
    "bijzonderheden": "-1940, overgebracht naar Toepad",
    "grootte_m2": null,
    "grootte_bron": null,
    "kadaster": null,
    "laatste_bezoek": null,
    "locatie_precisie": "bij_benadering",
    "terrein_koppelwijze": "niet_van_toepassing",
    "terrein_naam_kml": null,
    "terrein_opp_m2": null,
    "lon": 4.5051566,
    "lat": 51.9246427
   },
   "geometry": {
    "type": "Point",
    "coordinates": [
     4.5051566,
     51.9246427
    ]
   }
  },
  {
   "type": "Feature",
   "properties": {
    "id": "jb-ver-471",
    "reeks": "ver",
    "nr": 471,
    "naam": "Portugees Israëlitische Begraafplaats Crooswijk",
    "label_punt": "Portugees-Joodse begraafplaats Crooswijk, Rotterdam",
    "status": "verdwenen",
    "status_bron": "Verdwenen",
    "adres": "Nieuwe Crooswijkseweg 123",
    "adres_aanduiding": "bij",
    "postcode": "3034 PN",
    "plaats": "Rotterdam",
    "gemeente_bron": "Rotterdam",
    "provincie_bron": "Zuid-Holland",
    "provincie": "Zuid-Holland",
    "mip": null,
    "rijksmonument": null,
    "gemeentelijk_monument": null,
    "rijksmonumentnummer": null,
    "rmon_bron": null,
    "link": null,
    "beschermd_deel": null,
    "eigenaar": null,
    "eigenaar_postadres": null,
    "eigenaar_postcode": null,
    "eigenaar_plaats": null,
    "jaartal": 1696,
    "jaartal_bron": "1696",
    "circa": null,
    "grondvorm": "Recht",
    "met": null,
    "muur": null,
    "bijzonderheden": "-1807. Later RK begraafplaats Crooswijk",
    "grootte_m2": null,
    "grootte_bron": null,
    "kadaster": null,
    "laatste_bezoek": null,
    "locatie_precisie": "bij_benadering",
    "terrein_koppelwijze": "niet_van_toepassing",
    "terrein_naam_kml": null,
    "terrein_opp_m2": null,
    "lon": 4.4957784,
    "lat": 51.9344202
   },
   "geometry": {
    "type": "Point",
    "coordinates": [
     4.4957784,
     51.9344202
    ]
   }
  },
  {
   "type": "Feature",
   "properties": {
    "id": "jb-ver-872",
    "reeks": "ver",
    "nr": 872,
    "naam": "Portugees Israëlitische Begraafplaats Crooswijk",
    "label_punt": "Portugees-Israelitische begraafplaats, Rotterdam",
    "status": "verdwenen",
    "status_bron": "Verdwenen",
    "adres": "Kerkhoflaan 5",
    "adres_aanduiding": "bij",
    "postcode": "3034 TA",
    "plaats": "Rotterdam",
    "gemeente_bron": "Rotterdam",
    "provincie_bron": "Zuid-Holland",
    "provincie": "Zuid-Holland",
    "mip": null,
    "rijksmonument": null,
    "gemeentelijk_monument": "Geen",
    "rijksmonumentnummer": null,
    "rmon_bron": "geen",
    "link": null,
    "beschermd_deel": null,
    "eigenaar": null,
    "eigenaar_postadres": null,
    "eigenaar_postcode": null,
    "eigenaar_plaats": null,
    "jaartal": 1877,
    "jaartal_bron": "1877",
    "circa": null,
    "grondvorm": "Recht",
    "met": null,
    "muur": null,
    "bijzonderheden": "Eind 19de eeuw verdwenen",
    "grootte_m2": null,
    "grootte_bron": null,
    "kadaster": null,
    "laatste_bezoek": null,
    "locatie_precisie": "bij_benadering",
    "terrein_koppelwijze": "niet_van_toepassing",
    "terrein_naam_kml": null,
    "terrein_opp_m2": null,
    "lon": 4.4920406,
    "lat": 51.9375314
   },
   "geometry": {
    "type": "Point",
    "coordinates": [
     4.4920406,
     51.9375314
    ]
   }
  },
  {
   "type": "Feature",
   "properties": {
    "id": "jb-loc-3439",
    "reeks": "loc",
    "nr": 3439,
    "naam": "Portugees-Joodse Begraafplaats",
    "label_punt": "Portugees-Joodse Begraafplaats, Rotterdam",
    "status": "in_gebruik",
    "status_bron": "In gebruik",
    "adres": "Jan van Loonslaan",
    "adres_aanduiding": null,
    "postcode": "3031 PK",
    "plaats": "Rotterdam",
    "gemeente_bron": "Rotterdam",
    "provincie_bron": "Zuid-Holland",
    "provincie": "Zuid-Holland",
    "mip": false,
    "rijksmonument": false,
    "gemeentelijk_monument": false,
    "rijksmonumentnummer": null,
    "rmon_bron": "Geen",
    "link": null,
    "beschermd_deel": null,
    "eigenaar": null,
    "eigenaar_postadres": null,
    "eigenaar_postcode": null,
    "eigenaar_plaats": null,
    "jaartal": 1613,
    "jaartal_bron": "1613",
    "circa": null,
    "grondvorm": "Recht",
    "met": false,
    "muur": null,
    "bijzonderheden": "Sefardisch (vooral)/1613-1700",
    "grootte_m2": 770,
    "grootte_bron": "770",
    "kadaster": false,
    "laatste_bezoek": 2022,
    "locatie_precisie": "ingang",
    "terrein_koppelwijze": "binnen_naam_gelijk",
    "terrein_naam_kml": "Portugees-Joodse Begraafplaats, Rotterdam",
    "terrein_opp_m2": 774,
    "lon": 4.4882648,
    "lat": 51.9252501
   },
   "geometry": {
    "type": "Point",
    "coordinates": [
     4.4882648,
     51.9252501
    ]
   }
  },
  {
   "type": "Feature",
   "properties": {
    "id": "jb-ver-177",
    "reeks": "ver",
    "nr": 177,
    "naam": "Joodse Begraafplaats",
    "label_punt": "Joodse begraafplaats, Schiedam",
    "status": "verdwenen",
    "status_bron": "Verdwenen",
    "adres": "Emmaplein",
    "adres_aanduiding": null,
    "postcode": "3112 DC",
    "plaats": "Schiedam",
    "gemeente_bron": "Schiedam",
    "provincie_bron": "Zuid-Holland",
    "provincie": "Zuid-Holland",
    "mip": null,
    "rijksmonument": null,
    "gemeentelijk_monument": null,
    "rijksmonumentnummer": null,
    "rmon_bron": null,
    "link": null,
    "beschermd_deel": null,
    "eigenaar": null,
    "eigenaar_postadres": null,
    "eigenaar_postcode": null,
    "eigenaar_plaats": null,
    "jaartal": 1787,
    "jaartal_bron": "1787",
    "circa": null,
    "grondvorm": "Recht",
    "met": null,
    "muur": null,
    "bijzonderheden": "Bij de Burcht van Mathenesse, geruimd 1962, overgebracht naar Toepad in Rotterdam",
    "grootte_m2": null,
    "grootte_bron": null,
    "kadaster": null,
    "laatste_bezoek": null,
    "locatie_precisie": "bij_benadering",
    "terrein_koppelwijze": "niet_van_toepassing",
    "terrein_naam_kml": null,
    "terrein_opp_m2": null,
    "lon": 4.4034728,
    "lat": 51.9172856
   },
   "geometry": {
    "type": "Point",
    "coordinates": [
     4.4034728,
     51.9172856
    ]
   }
  },
  {
   "type": "Feature",
   "properties": {
    "id": "jb-ger-64",
    "reeks": "ger",
    "nr": 64,
    "naam": "Joodse begraafplaats",
    "label_punt": "Joodse begraafplaats, Schiedam (geruimd)",
    "status": "geruimd",
    "status_bron": "Geruimd",
    "adres": "Poldervaartpad (Beukenhof?)",
    "adres_aanduiding": null,
    "postcode": "3118 GR",
    "plaats": "Schiedam",
    "gemeente_bron": "Schiedam",
    "provincie_bron": "Zuid-Holland",
    "provincie": "Zuid-Holland",
    "mip": false,
    "rijksmonument": false,
    "gemeentelijk_monument": false,
    "rijksmonumentnummer": null,
    "rmon_bron": "Geen",
    "link": null,
    "beschermd_deel": null,
    "eigenaar": null,
    "eigenaar_postadres": null,
    "eigenaar_postcode": null,
    "eigenaar_plaats": null,
    "jaartal": 1930,
    "jaartal_bron": "1930",
    "circa": null,
    "grondvorm": "Recht",
    "met": false,
    "muur": null,
    "bijzonderheden": "Na WO II geruimd",
    "grootte_m2": null,
    "grootte_bron": "?",
    "kadaster": false,
    "laatste_bezoek": 2019,
    "locatie_precisie": "ingang",
    "terrein_koppelwijze": "binnen_naamvariant",
    "terrein_naam_kml": "Nieuwe Joodse begraafplaats, Schiedam (geruimd)",
    "terrein_opp_m2": 693,
    "lon": 4.3765687,
    "lat": 51.9143058
   },
   "geometry": {
    "type": "Point",
    "coordinates": [
     4.3765687,
     51.9143058
    ]
   }
  },
  {
   "type": "Feature",
   "properties": {
    "id": "jb-loc-4116",
    "reeks": "loc",
    "nr": 4116,
    "naam": "Joodse Begraafplaats",
    "label_punt": "Joodse begraafplaats, Schoonhoven",
    "status": "in_gebruik",
    "status_bron": "In gebruik",
    "adres": "Nes 15",
    "adres_aanduiding": null,
    "postcode": "2871 BD",
    "plaats": "Schoonhoven",
    "gemeente_bron": "Krimpenerwaard",
    "provincie_bron": "Zuid-Holland",
    "provincie": "Zuid-Holland",
    "mip": false,
    "rijksmonument": false,
    "gemeentelijk_monument": false,
    "rijksmonumentnummer": null,
    "rmon_bron": "Geen",
    "link": null,
    "beschermd_deel": null,
    "eigenaar": null,
    "eigenaar_postadres": null,
    "eigenaar_postcode": null,
    "eigenaar_plaats": null,
    "jaartal": 1767,
    "jaartal_bron": "1767",
    "circa": null,
    "grondvorm": "Recht",
    "met": false,
    "muur": null,
    "bijzonderheden": "1767-1956, 48 zerken (2002: opgeknapt)",
    "grootte_m2": 510,
    "grootte_bron": "510",
    "kadaster": true,
    "laatste_bezoek": 2008,
    "locatie_precisie": "ingang",
    "terrein_koppelwijze": "binnen_naam_gelijk",
    "terrein_naam_kml": "Joodse begraafplaats, Schoonhoven",
    "terrein_opp_m2": 514,
    "lon": 4.8545549,
    "lat": 51.9455663
   },
   "geometry": {
    "type": "Point",
    "coordinates": [
     4.8545549,
     51.9455663
    ]
   }
  },
  {
   "type": "Feature",
   "properties": {
    "id": "jb-loc-1945",
    "reeks": "loc",
    "nr": 1945,
    "naam": "Joodse Begraafplaats",
    "label_punt": "Joodse begraafplaats, Strijen",
    "status": "in_gebruik",
    "status_bron": "In gebruik",
    "adres": "Oud Bonaventurasedijk 46",
    "adres_aanduiding": "bij",
    "postcode": "3291 CL",
    "plaats": "Strijen",
    "gemeente_bron": "Hoeksche Waard",
    "provincie_bron": "Zuid-Holland",
    "provincie": "Zuid-Holland",
    "mip": false,
    "rijksmonument": false,
    "gemeentelijk_monument": false,
    "rijksmonumentnummer": null,
    "rmon_bron": "Geen",
    "link": null,
    "beschermd_deel": null,
    "eigenaar": null,
    "eigenaar_postadres": null,
    "eigenaar_postcode": null,
    "eigenaar_plaats": null,
    "jaartal": 1896,
    "jaartal_bron": "1896",
    "circa": null,
    "grondvorm": "Recht",
    "met": true,
    "muur": null,
    "bijzonderheden": "Gebruikt tot 1969, 23 stèles. Verzamelgraf Dordrecht oude begraafplaats",
    "grootte_m2": 300,
    "grootte_bron": "300",
    "kadaster": true,
    "laatste_bezoek": 2024,
    "locatie_precisie": "ingang",
    "terrein_koppelwijze": "binnen_naam_gelijk",
    "terrein_naam_kml": "Joodse begraafplaats, Strijen",
    "terrein_opp_m2": 235,
    "lon": 4.5570454,
    "lat": 51.7468811
   },
   "geometry": {
    "type": "Point",
    "coordinates": [
     4.5570454,
     51.7468811
    ]
   }
  },
  {
   "type": "Feature",
   "properties": {
    "id": "jb-loc-1405",
    "reeks": "loc",
    "nr": 1405,
    "naam": "Joodse Begraafplaats",
    "label_punt": "Joodse begraafplaats, Vlaardingen",
    "status": "in_gebruik",
    "status_bron": "In gebruik",
    "adres": "Schiedamseweg/Parkweg",
    "adres_aanduiding": null,
    "postcode": "3134 BA",
    "plaats": "Vlaardingen",
    "gemeente_bron": "Vlaardingen",
    "provincie_bron": "Zuid-Holland",
    "provincie": "Zuid-Holland",
    "mip": false,
    "rijksmonument": false,
    "gemeentelijk_monument": true,
    "rijksmonumentnummer": null,
    "rmon_bron": "Geen",
    "link": null,
    "beschermd_deel": "Begraafplaats",
    "eigenaar": null,
    "eigenaar_postadres": null,
    "eigenaar_postcode": null,
    "eigenaar_plaats": null,
    "jaartal": 1862,
    "jaartal_bron": "1862",
    "circa": null,
    "grondvorm": "Recht",
    "met": false,
    "muur": null,
    "bijzonderheden": "1 zerk, gebruikt tot 1900, 43 doden.",
    "grootte_m2": 260,
    "grootte_bron": "260",
    "kadaster": false,
    "laatste_bezoek": 2005,
    "locatie_precisie": "ingang",
    "terrein_koppelwijze": "binnen_naam_gelijk",
    "terrein_naam_kml": "Joodse begraafplaats, Vlaardingen",
    "terrein_opp_m2": 261,
    "lon": 4.358868,
    "lat": 51.909663
   },
   "geometry": {
    "type": "Point",
    "coordinates": [
     4.358868,
     51.909663
    ]
   }
  },
  {
   "type": "Feature",
   "properties": {
    "id": "jb-loc-1343",
    "reeks": "loc",
    "nr": 1343,
    "naam": "Joodse Begraafplaats",
    "label_punt": "Joodse begraafplaats, Wassenaar",
    "status": "in_gebruik",
    "status_bron": "In gebruik",
    "adres": "Het Kerkehout 4a",
    "adres_aanduiding": null,
    "postcode": "2245 XR",
    "plaats": "Wassenaar",
    "gemeente_bron": "Wassenaar",
    "provincie_bron": "Zuid-Holland",
    "provincie": "Zuid-Holland",
    "mip": false,
    "rijksmonument": true,
    "gemeentelijk_monument": false,
    "rijksmonumentnummer": 524542,
    "rmon_bron": "524542",
    "link": "https://monumentenregister.cultureelerfgoed.nl/complexen/524542",
    "beschermd_deel": "Aanleg en metaarhuisje",
    "eigenaar": null,
    "eigenaar_postadres": "Postbus  93037",
    "eigenaar_postcode": "2509AA",
    "eigenaar_plaats": "Den Haag",
    "jaartal": 1906,
    "jaartal_bron": "1906",
    "circa": null,
    "grondvorm": "Recht",
    "met": true,
    "muur": null,
    "bijzonderheden": null,
    "grootte_m2": 20840,
    "grootte_bron": "20840",
    "kadaster": true,
    "laatste_bezoek": 2007,
    "locatie_precisie": "ingang",
    "terrein_koppelwijze": "binnen_naam_gelijk",
    "terrein_naam_kml": "Joodse begraafplaats, Wassenaar",
    "terrein_opp_m2": 20919,
    "lon": 4.370881,
    "lat": 52.1111777
   },
   "geometry": {
    "type": "Point",
    "coordinates": [
     4.370881,
     52.1111777
    ]
   }
  },
  {
   "type": "Feature",
   "properties": {
    "id": "jb-loc-1713",
    "reeks": "loc",
    "nr": 1713,
    "naam": "Joodse Begraafplaats",
    "label_punt": "Joodse begraafplaats, Zuidland",
    "status": "in_gebruik",
    "status_bron": "In gebruik",
    "adres": "Kerkweg 38a",
    "adres_aanduiding": null,
    "postcode": "3214 VE",
    "plaats": "Zuidland",
    "gemeente_bron": "Nissewaard",
    "provincie_bron": "Zuid-Holland",
    "provincie": "Zuid-Holland",
    "mip": false,
    "rijksmonument": false,
    "gemeentelijk_monument": true,
    "rijksmonumentnummer": null,
    "rmon_bron": "Geen",
    "link": null,
    "beschermd_deel": "Begraafplaats",
    "eigenaar": null,
    "eigenaar_postadres": null,
    "eigenaar_postcode": null,
    "eigenaar_plaats": null,
    "jaartal": 1888,
    "jaartal_bron": "1888",
    "circa": null,
    "grondvorm": "Recht",
    "met": false,
    "muur": null,
    "bijzonderheden": "5 zerken",
    "grootte_m2": 84,
    "grootte_bron": "84",
    "kadaster": true,
    "laatste_bezoek": 2005,
    "locatie_precisie": "ingang",
    "terrein_koppelwijze": "binnen_naam_gelijk",
    "terrein_naam_kml": "Joodse begraafplaats, Zuidland",
    "terrein_opp_m2": 84,
    "lon": 4.253308,
    "lat": 51.8209924
   },
   "geometry": {
    "type": "Point",
    "coordinates": [
     4.253308,
     51.8209924
    ]
   }
  }
 ]
}