{"type": "FeatureCollection", "name": "terreinen", "features": [{"type": "Feature", "properties": {"id": "jb-loc-2443", "status": "in_gebruik", "naam": "Portugees-Joodse Begraafplaats", "terrein_naam_kml": "Portugees Joodse begraafplaats, Amersfoort"}, "geometry": {"type": "Polygon", "coordinates": [[[5.39010672542068, 52.16035677059995], [5.390198311217327, 52.16042988574004], [5.390100266891889, 52.16046999690859], [5.389979222330855, 52.16046767285751], [5.389884970581549, 52.16044913159161], [5.389983296010508, 52.16039669205016], [5.39010672542068, 52.16035677059995]]]}}, {"type": "Feature", "properties": {"id": "jb-loc-1458", "status": "in_gebruik", "naam": "Oude Israëlitische begraafplaats", "terrein_naam_kml": "Oude joodse begraafplaats, Amersfoort"}, "geometry": {"type": "Polygon", "coordinates": [[[5.389035675508939, 52.1598835014357], [5.38901320150722, 52.15986459098674], [5.389073224306651, 52.15984796811394], [5.389129230450354, 52.15984955308876], [5.389663809577698, 52.15996508987185], [5.390114142559403, 52.16006297265729], [5.390087551979745, 52.16017480392093], [5.390078420154289, 52.16019779222898], [5.390055923177628, 52.16025037610179], [5.39002430692781, 52.16029300635487], [5.389954071298257, 52.16032239458436], [5.389832482048089, 52.16036334203098], [5.389721782653898, 52.16039772157685], [5.389541152683178, 52.16026165294551], [5.389418798155128, 52.16016991752505], [5.389306069907747, 52.1600877852191], [5.389035675508939, 52.1598835014357]]]}}, {"type": "Feature", "properties": {"id": "jb-loc-1459", "status": "in_gebruik", "naam": "Nieuwe Israelitische Begraafplaats", "terrein_naam_kml": "Nieuwe joodse begraafplaats, Amersfoort"}, "geometry": {"type": "Polygon", "coordinates": [[[5.370068643753189, 52.15633778937555], [5.370176769518292, 52.15665164965141], [5.370088959583248, 52.15666818188315], [5.370124875016636, 52.15677434368213], [5.370037422037457, 52.15680586417977], [5.370151327270662, 52.15693830333881], [5.369693882040068, 52.15709053778212], [5.369479918762652, 52.15639569752891], [5.370068643753189, 52.15633778937555]]]}}, {"type": "Feature", "properties": {"id": "jb-loc-1448", "status": "in_gebruik", "naam": "Joodse Begraafplaats", "terrein_naam_kml": "Joodse begraafplaats, Rhenen"}, "geometry": {"type": "Polygon", "coordinates": [[[5.571963267810443, 51.96599451549802], [5.572246497406638, 51.96595712627145], [5.572309439268421, 51.96612859055622], [5.572027247005725, 51.96615324126475], [5.571963267810443, 51.96599451549802]]]}}, {"type": "Feature", "properties": {"id": "jb-loc-1643", "status": "in_gebruik", "naam": "Joodse Begraafplaats Tienhoven", "terrein_naam_kml": "Joods Maarssen"}, "geometry": {"type": "Polygon", "coordinates": [[[5.046125489794918, 52.15631387861988], [5.046012081881585, 52.1565282234766], [5.045695225620605, 52.15647856152518], [5.045849233958691, 52.15625422856264], [5.046125489794918, 52.15631387861988]]]}}, {"type": "Feature", "properties": {"id": "jb-loc-1854", "status": "in_gebruik", "naam": "Joodse Begraafplaats aan de Vecht", "terrein_naam_kml": "Joodse begraafplaats, Utrecht"}, "geometry": {"type": "Polygon", "coordinates": [[[5.105613544053234, 52.10898104567445], [5.106585657564362, 52.10981676611132], [5.106043645230008, 52.11007258010152], [5.105096946065846, 52.10929639118967], [5.105103176005542, 52.10928620742153], [5.105613544053234, 52.10898104567445]]]}}, {"type": "Feature", "properties": {"id": "jb-loc-239", "status": "in_gebruik", "naam": "Joods deel achter de Algemene begraafplaats", "terrein_naam_kml": "Joods deel achter de alg. begraafplaats, Leerdam"}, "geometry": {"type": "Polygon", "coordinates": [[[5.083224472684207, 51.88149641088894], [5.083189195938582, 51.88151392185922], [5.083065487183482, 51.88143599490621], [5.083102265266861, 51.88142030263839], [5.083224472684207, 51.88149641088894]]]}}, {"type": "Feature", "properties": {"id": "jb-loc-366", "status": "in_gebruik", "naam": "Joodse Begraafplaats op Algemene Begraafplaats", "terrein_naam_kml": "Joodse begraafplaats, Leerdam"}, "geometry": {"type": "Polygon", "coordinates": [[[5.084084393317809, 51.88079259265872], [5.084160697864363, 51.88087387390257], [5.08382622724622, 51.88099736919155], [5.083749506520803, 51.88092497789857], [5.084084393317809, 51.88079259265872]]]}}, {"type": "Feature", "properties": {"id": "jb-loc-1856", "status": "in_gebruik", "naam": "Joodse Begraafplaats", "terrein_naam_kml": "Joodse begraafplaats, Vianen"}, "geometry": {"type": "Polygon", "coordinates": [[[5.087140362816582, 51.98649257035768], [5.087053731422784, 51.98634468731247], [5.087513613233476, 51.98616708389201], [5.087651137599691, 51.98640756249022], [5.087140362816582, 51.98649257035768]]]}}, {"type": "Feature", "properties": {"id": "jb-loc-819", "status": "in_gebruik", "naam": "Oude Joodse Begraafplaats", "terrein_naam_kml": "Oude Joodse begraafplaats, Wijk bij Duurstede"}, "geometry": {"type": "Polygon", "coordinates": [[[5.342981733741585, 51.97097495804026], [5.342777297347132, 51.97099670815383], [5.342734154323818, 51.9708439806965], [5.342940409665564, 51.97082118466261], [5.342981733741585, 51.97097495804026]]]}}, {"type": "Feature", "properties": {"id": "jb-loc-167", "status": "in_gebruik", "naam": "Joodse Begraafplaats", "terrein_naam_kml": "Joodse begraafplaats, Wijk bij Duurstede"}, "geometry": {"type": "Polygon", "coordinates": [[[5.343144179918895, 51.97562366713272], [5.343345609481284, 51.97561598817103], [5.343349775238644, 51.97558685231729], [5.343563270256069, 51.97558771797231], [5.343551145823771, 51.97579343614354], [5.343195500219364, 51.97579032930206], [5.343147450271744, 51.97572037859232], [5.343144179918895, 51.97562366713272]]]}}, {"type": "Feature", "properties": {"id": "jb-loc-1838", "status": "in_gebruik", "naam": "Joodse Begraafplaats", "terrein_naam_kml": "Joodse begraafplaats, Woerden"}, "geometry": {"type": "Polygon", "coordinates": [[[4.881207300543933, 52.08867718905637], [4.881270022091949, 52.08846717418042], [4.881477927969122, 52.08848593463813], [4.881431500984625, 52.08870570363082], [4.881266385869085, 52.08869569191384], [4.881261013774816, 52.08868172546767], [4.881207300543933, 52.08867718905637]]]}}, {"type": "Feature", "properties": {"id": "jb-ger-68", "status": "geruimd", "naam": "Joodse Begraafplaats", "terrein_naam_kml": "Joodse begraafplaats, Alphen aan den Rijn (geruimd)"}, "geometry": {"type": "Polygon", "coordinates": [[[4.667250067265513, 52.1307088646664], [4.667402452390672, 52.13031771277536], [4.668072272153488, 52.13038655661233], [4.66808998465805, 52.13066376105093], [4.667725839993489, 52.13062944327417], [4.667649209153195, 52.13076673731995], [4.667250067265513, 52.1307088646664]]]}}, {"type": "Feature", "properties": {"id": "jb-loc-1559", "status": "in_gebruik", "naam": "Joodse Begraafplaats", "terrein_naam_kml": "Joodse begraafplaats, Delft"}, "geometry": {"type": "Polygon", "coordinates": [[[4.371551404925897, 52.0133512399315], [4.371135714288266, 52.01372062697745], [4.37096354968631, 52.01364839926306], [4.371344253477762, 52.01326737867525], [4.371551404925897, 52.0133512399315]]]}}, {"type": "Feature", "properties": {"id": "jb-loc-3888", "status": "in_gebruik", "naam": "Joodse Begraafplaats Scheveningen (gemengd)", "terrein_naam_kml": "Joodse begraafplaats, Den Haag"}, "geometry": {"type": "Polygon", "coordinates": [[[4.295474352432914, 52.09055452212368], [4.295413952345141, 52.08916162906315], [4.295400866375254, 52.08913226400695], [4.296277223100042, 52.08841121738854], [4.296483014821586, 52.0885087859006], [4.296602602874707, 52.08841808585711], [4.296491876336108, 52.08835933045167], [4.296763686763134, 52.08815183911865], [4.297597273971614, 52.08853791885533], [4.297599045202456, 52.08855818101493], [4.297754934604603, 52.0886371668977], [4.297527212227028, 52.08885779905099], [4.297491108885552, 52.08894772360226], [4.29624978352517, 52.09018448856191], [4.296248658653015, 52.0901929912674], [4.296186195400504, 52.09025706126797], [4.295968370804763, 52.09047680031869], [4.295949650816864, 52.09048767772606], [4.295910406135599, 52.09049745558604], [4.295603094622623, 52.09055424670776], [4.295474352432914, 52.09055452212368]]]}}, {"type": "Feature", "properties": {"id": "jb-loc-1912", "status": "in_gebruik", "naam": "Joodse Begraafplaats", "terrein_naam_kml": "Joodse begraafplaats, Dordrecht"}, "geometry": {"type": "Polygon", "coordinates": [[[4.677507461819451, 51.80115944409559], [4.677365152561313, 51.8010865379311], [4.678029302323898, 51.80099749796375], [4.67832014413927, 51.80166694513922], [4.678141904830017, 51.80169022516021], [4.677815434032642, 51.80138956248472], [4.677507461819451, 51.80115944409559]]]}}, {"type": "Feature", "properties": {"id": "jb-loc-1935", "status": "in_gebruik", "naam": "Joodse Begraafplaats", "terrein_naam_kml": "Joodse begraafplaats, Dirksland"}, "geometry": {"type": "Polygon", "coordinates": [[[4.104614617801101, 51.75109098307928], [4.104594986665624, 51.75092768408449], [4.105031745485555, 51.75093142229081], [4.105040033526068, 51.75109471528705], [4.104614617801101, 51.75109098307928]]]}}, {"type": "Feature", "properties": {"id": "jb-loc-1913", "status": "in_gebruik", "naam": "Joodse Begraafplaats", "terrein_naam_kml": "Joodse begraafplaats, Goedereede"}, "geometry": {"type": "Polygon", "coordinates": [[[3.972569375068535, 51.8159831632968], [3.972500697206118, 51.81609273212331], [3.972213957782633, 51.81600574412074], [3.972268420006064, 51.81591919476738], [3.972569375068535, 51.8159831632968]]]}}, {"type": "Feature", "properties": {"id": "jb-loc-1944", "status": "in_gebruik", "naam": "Joodse Begraafplaats", "terrein_naam_kml": "Joodse begraafplaats, Middelharnis"}, "geometry": {"type": "Polygon", "coordinates": [[[4.161999738535737, 51.75834415055051], [4.161605719688629, 51.75833380090523], [4.161690961281632, 51.75812521580641], [4.162003593247048, 51.75812197589636], [4.161999738535737, 51.75834415055051]]]}}, {"type": "Feature", "properties": {"id": "jb-loc-1844", "status": "in_gebruik", "naam": "Joodse Begraafplaats", "terrein_naam_kml": "Joodse begraafplaats, Gorinchem"}, "geometry": {"type": "Polygon", "coordinates": [[[4.977769272225492, 51.83660187125096], [4.977768644153997, 51.8365464483235], [4.978125876229518, 51.83655791181752], [4.978497992676914, 51.83640815000888], [4.978526929570275, 51.83637212372025], [4.978922698271107, 51.83661180030045], [4.978627125569092, 51.83676352851495], [4.978431118182572, 51.83661829506339], [4.978220053772962, 51.83660683766599], [4.978215177014825, 51.8366122608849], [4.977769272225492, 51.83660187125096]]]}}, {"type": "Feature", "properties": {"id": "jb-loc-1397", "status": "in_gebruik", "naam": "Joodse Begraafplaats", "terrein_naam_kml": "Joodse begraafplaats, Oud Beijerland"}, "geometry": {"type": "Polygon", "coordinates": [[[4.420283509600176, 51.82336057497327], [4.420150298647907, 51.82287837899579], [4.420517821482912, 51.82283416508496], [4.420666698465214, 51.82331210181326], [4.420283509600176, 51.82336057497327]]]}}, {"type": "Feature", "properties": {"id": "jb-loc-1945", "status": "in_gebruik", "naam": "Joodse Begraafplaats", "terrein_naam_kml": "Joodse begraafplaats, Strijen"}, "geometry": {"type": "Polygon", "coordinates": [[[4.556863247629011, 51.74682036077452], [4.556997242369474, 51.74674545671475], [4.557178611861239, 51.7468466234174], [4.55702549992407, 51.74694201058728], [4.556863247629011, 51.74682036077452]]]}}, {"type": "Feature", "properties": {"id": "jb-loc-4189", "status": "in_gebruik", "naam": "Joodse Begraafplaats", "terrein_naam_kml": "Joodse begraafplaats, Katwijk aan den Rijn"}, "geometry": {"type": "Polygon", "coordinates": [[[4.420905760393827, 52.19822421383744], [4.421820734791455, 52.19780378904521], [4.422196814817636, 52.19813209772363], [4.421260754240446, 52.19853324949216], [4.420905760393827, 52.19822421383744]]]}}, {"type": "Feature", "properties": {"id": "jb-loc-3452", "status": "in_gebruik", "naam": "Joodse Begraafplaats", "terrein_naam_kml": "Joodse begraafplaats, Lekkerkerk"}, "geometry": {"type": "Polygon", "coordinates": [[[4.683843905409397, 51.90259772343021], [4.683855771923769, 51.90266748293632], [4.683508782317301, 51.90265461560506], [4.683501000398471, 51.90260770942513], [4.683843905409397, 51.90259772343021]]]}}, {"type": "Feature", "properties": {"id": "jb-loc-4116", "status": "in_gebruik", "naam": "Joodse Begraafplaats", "terrein_naam_kml": "Joodse begraafplaats, Schoonhoven"}, "geometry": {"type": "Polygon", "coordinates": [[[4.854325469803513, 51.94563622291331], [4.85431854312732, 51.94550928495757], [4.85486075933931, 51.94549855485226], [4.854873614455102, 51.94561752975763], [4.854325469803513, 51.94563622291331]]]}}, {"type": "Feature", "properties": {"id": "jb-loc-4140", "status": "in_gebruik", "naam": "Joodse Begraafplaats op Algemene Begraafplaats", "terrein_naam_kml": "Joodse begraafplaats, Maassluis"}, "geometry": {"type": "Polygon", "coordinates": [[[4.25676388646751, 51.91585345397781], [4.256685389611945, 51.91593916768301], [4.256469446753755, 51.91585675255656], [4.256566915969671, 51.91576510374337], [4.25676388646751, 51.91585345397781]]]}}, {"type": "Feature", "properties": {"id": "jb-loc-1714", "status": "in_gebruik", "naam": "Joodse Begraafplaats van Voorne Putten", "terrein_naam_kml": "Joodse begraafplaats, Geervliet"}, "geometry": {"type": "Polygon", "coordinates": [[[4.254717133133088, 51.86030939080288], [4.255060843847238, 51.86009062535869], [4.255209489926384, 51.86000764892551], [4.255504199841176, 51.86018866842619], [4.255488973385639, 51.86020416849531], [4.255243694719402, 51.8603219092882], [4.254901885094737, 51.86049792193032], [4.254750251707371, 51.86033423781835], [4.254717133133088, 51.86030939080288]]]}}, {"type": "Feature", "properties": {"id": "jb-loc-1713", "status": "in_gebruik", "naam": "Joodse Begraafplaats", "terrein_naam_kml": "Joodse begraafplaats, Zuidland"}, "geometry": {"type": "Polygon", "coordinates": [[[4.253240874847172, 51.82098743805409], [4.253339761620483, 51.82093374105283], [4.253427403665344, 51.821002564338], [4.253334842443657, 51.82105029261312], [4.253240874847172, 51.82098743805409]]]}}, {"type": "Feature", "properties": {"id": "jb-loc-874", "status": "in_gebruik", "naam": "Joodse Begraafplaats op Algemene Begraafplaats", "terrein_naam_kml": "Joods deel op Oud Rijswijk, Rijswijk"}, "geometry": {"type": "Polygon", "coordinates": [[[4.337786898814187, 52.04685354489694], [4.33788462775729, 52.04690503429291], [4.337744555729699, 52.04698718376711], [4.337658913969477, 52.0469265616652], [4.337786898814187, 52.04685354489694]]]}}, {"type": "Feature", "properties": {"id": "jb-loc-243", "status": "in_gebruik", "naam": "Liberaal Joodse Begraafplaats Beth Hachaim", "terrein_naam_kml": "Liberaal Joodse begraafplaats, Rijswijk"}, "geometry": {"type": "Polygon", "coordinates": [[[4.309410102043136, 52.02102438301919], [4.309062961579002, 52.02091489075225], [4.309209669751352, 52.02074347950361], [4.309562453774567, 52.02084769338856], [4.309410102043136, 52.02102438301919]]]}}, {"type": "Feature", "properties": {"id": "jb-loc-3439", "status": "in_gebruik", "naam": "Portugees-Joodse Begraafplaats", "terrein_naam_kml": "Portugees-Joodse Begraafplaats, Rotterdam"}, "geometry": {"type": "Polygon", "coordinates": [[[4.488054733741045, 51.92534467665334], [4.488033811374246, 51.92516048210217], [4.488487173210918, 51.92509389273553], [4.488570847945999, 51.92531658158713], [4.488054733741045, 51.92534467665334]]]}}, {"type": "Feature", "properties": {"id": "jb-loc-1478", "status": "in_gebruik", "naam": "Joodse Begraafplaats Oostzeedijk (gemengd)", "terrein_naam_kml": "Joodse begraafplaats Oostzeedijk, Rotterdam"}, "geometry": {"type": "Polygon", "coordinates": [[[4.503581790281435, 51.92187018512686], [4.503646499637788, 51.92200002475239], [4.502788839257093, 51.9221772275427], [4.502737812056887, 51.92205100696132], [4.503581790281435, 51.92187018512686]]]}}, {"type": "Feature", "properties": {"id": "jb-loc-3618", "status": "in_gebruik", "naam": "Joodse Begraafplaats Delfshaven", "terrein_naam_kml": "Joodse begraafplaats Delfshaven, Rotterdam"}, "geometry": {"type": "Polygon", "coordinates": [[[4.457183146098609, 51.90602562090731], [4.457248639329268, 51.90593019528582], [4.457483392434982, 51.90597776312311], [4.457435615899835, 51.90607218948966], [4.457183146098609, 51.90602562090731]]]}}, {"type": "Feature", "properties": {"id": "jb-loc-4200", "status": "in_gebruik", "naam": "Het Toepad", "terrein_naam_kml": "Joodse begraafplaats Het Toepad, Rotterdam"}, "geometry": {"type": "Polygon", "coordinates": [[[4.533219224700693, 51.91181936744999], [4.53183265654566, 51.90921489862596], [4.533152258012958, 51.90895835021499], [4.534446989841769, 51.91157686236865], [4.533219224700693, 51.91181936744999]]]}}, {"type": "Feature", "properties": {"id": "jb-ger-64", "status": "geruimd", "naam": "Joodse begraafplaats", "terrein_naam_kml": "Nieuwe Joodse begraafplaats, Schiedam (geruimd)"}, "geometry": {"type": "Polygon", "coordinates": [[[4.376436926896394, 51.91419465584179], [4.376826049090361, 51.91428079344742], [4.37672519933929, 51.9144891194146], [4.376313629097483, 51.91438506568954], [4.376436926896394, 51.91419465584179]]]}}, {"type": "Feature", "properties": {"id": "jb-loc-1405", "status": "in_gebruik", "naam": "Joodse Begraafplaats", "terrein_naam_kml": "Joodse begraafplaats, Vlaardingen"}, "geometry": {"type": "Polygon", "coordinates": [[[4.358844090383782, 51.90975474001898], [4.358715294311275, 51.90961425893704], [4.358840382607196, 51.90956923073041], [4.358983563955395, 51.90962827557328], [4.359016915280975, 51.9096541806244], [4.359058685446742, 51.90969203246228], [4.358844090383782, 51.90975474001898]]]}}, {"type": "Feature", "properties": {"id": "jb-loc-1343", "status": "in_gebruik", "naam": "Joodse Begraafplaats", "terrein_naam_kml": "Joodse begraafplaats, Wassenaar"}, "geometry": {"type": "Polygon", "coordinates": [[[4.369098693889885, 52.11066033267307], [4.369936765484268, 52.11001114716745], [4.372370875066903, 52.11157443122576], [4.371914912605675, 52.11189507609475], [4.371796340579737, 52.1118117208736], [4.371380996612717, 52.11208716055125], [4.369098693889885, 52.11066033267307]]]}}, {"type": "Feature", "properties": {"id": "jb-loc-1660", "status": "in_gebruik", "naam": "Joodse Begraafplaats", "terrein_naam_kml": "Joodse begraafplaats, Naaldwijk"}, "geometry": {"type": "Polygon", "coordinates": [[[4.194699316998007, 51.99544625715339], [4.194200136180307, 51.99526229086654], [4.194262924313399, 51.99525429213343], [4.194374424650622, 51.99522664203391], [4.194463586133439, 51.99517776903791], [4.194638453981541, 51.99505225421495], [4.194979955466211, 51.99516660548514], [4.194699316998007, 51.99544625715339]]]}}]}